{
"type": "FeatureCollection",
"name": "州府",
"crs": { "type": "name", "properties": { "name": "urn:ogc:def:crs:OGC:1.3:CRS84" } },
"features": [
{ "type": "Feature", "properties": { "路": "京西北路", "州府": "" }, "geometry": { "type": "MultiPolygon", "coordinates": [ [ [ [ 113.195798574000037, 34.534031531000039 ], [ 113.193949936000081, 34.527664001000062 ], [ 113.218825774000038, 34.499234471000079 ], [ 113.273907988000019, 34.460143867000056 ], [ 113.300560673000064, 34.410392190000039 ], [ 113.329631170000084, 34.372299814000087 ], [ 113.311221746, 34.360640513000078 ], [ 113.263246915000082, 34.332210983000039 ], [ 113.185065708000025, 34.289566688000036 ], [ 113.122876111000096, 34.257583467000075 ], [ 113.071033192000073, 34.253561713000067 ], [ 113.056552861, 34.283556685000065 ], [ 113.03544677800005, 34.298112605000085 ], [ 112.981589877000033, 34.308301748000076 ], [ 112.934283139000058, 34.308301748000076 ], [ 112.85990296, 34.30555829900004 ], [ 112.813704974000075, 34.316219372000035 ], [ 112.803043900000034, 34.349979439000037 ], [ 112.733746921000034, 34.351756285000079 ], [ 112.660896251000054, 34.335764674000075 ], [ 112.609367728000052, 34.341095211000038 ], [ 112.556062360000055, 34.358863667000037 ], [ 112.477881153, 34.310888835000071 ], [ 112.410361019000106, 34.234484474000055 ], [ 112.34284088600009, 34.161633804000076 ], [ 112.285981826000011, 34.078122060000055 ], [ 112.24511437700005, 34.042585147000068 ], [ 112.18647847200009, 33.953742867000074 ], [ 112.181147935000013, 33.873784814000089 ], [ 112.193585854000048, 33.815148909000072 ], [ 112.206023774000073, 33.738744547000067 ], [ 112.21596417, 33.705100129000073 ], [ 112.203008434000026, 33.701128636000078 ], [ 112.147628927000028, 33.655977175000089 ], [ 112.021908537000058, 33.618155396000077 ], [ 111.94026302900005, 33.632578299000045 ], [ 111.871745646000079, 33.662342508000052 ], [ 111.843036614000027, 33.696268647000068 ], [ 111.857674281000072, 33.836607039000057 ], [ 111.759414853000067, 33.933058014000039 ], [ 111.690632992000076, 33.959608810000077 ], [ 111.612872775000028, 33.970082155000057 ], [ 111.481056469000066, 33.971018105000041 ], [ 111.365369743000031, 33.983355678000066 ], [ 111.293081470000061, 33.999528138000073 ], [ 111.246231702000046, 34.049454107000088 ], [ 111.211356525000042, 34.123523649000049 ], [ 111.205855468000038, 34.183687692000035 ], [ 111.186719169000071, 34.232154964000074 ], [ 111.211485301000039, 34.32173763600008 ], [ 111.256261753000047, 34.373122400000057 ], [ 111.284397734000038, 34.406770619000042 ], [ 111.332064919000061, 34.429075473000069 ], [ 111.384933465000074, 34.484124079000082 ], [ 111.444673495000075, 34.52846521500004 ], [ 111.528237747000048, 34.550859459000037 ], [ 111.611336737000045, 34.567029538000043 ], [ 111.644952584000066, 34.602368888000058 ], [ 111.601552304000052, 34.695569380000052 ], [ 111.578626211000028, 34.758741237000038 ], [ 111.588834785000074, 34.789158258000043 ], [ 111.635983287000045, 34.832027448000076 ], [ 111.682663055000035, 34.868712282000047 ], [ 111.722882072000061, 34.889219825000055 ], [ 111.725671744000067, 34.922098084000083 ], [ 111.736496766000073, 34.94675353000008 ], [ 111.748554904000059, 34.939997958000049 ], [ 111.818381872000032, 34.949345588000085 ], [ 111.855805898000028, 34.982933573000082 ], [ 111.872474274000069, 35.004462831000069 ], [ 111.941334500000039, 35.001905960000045 ], [ 111.965620494000063, 35.034884975000068 ], [ 111.967804847000025, 35.078365794000035 ], [ 111.974065086000053, 35.086623236000037 ], [ 111.985560667000072, 35.085830437000084 ], [ 112.01184218800006, 35.065613882000036 ], [ 112.040145364000068, 35.029224084000077 ], [ 112.116968271000019, 35.02113746200007 ], [ 112.177617935000058, 35.004964218000055 ], [ 112.214007733000017, 34.976661042000046 ], [ 112.248375876000068, 34.95240117600008 ], [ 112.282744019, 34.942292899000051 ], [ 112.361588581000092, 34.926119656000083 ], [ 112.492996186000028, 34.918033034000075 ], [ 112.551624194000055, 34.918033034000075 ], [ 112.630468757000017, 34.936227933000055 ], [ 112.658771933000025, 34.911968067000089 ], [ 112.691118421000056, 34.859405025000058 ], [ 112.711334975, 34.831101849000049 ], [ 112.769962984000017, 34.820993572000077 ], [ 112.834655958000099, 34.825036883000053 ], [ 112.911478865000049, 34.855361715000072 ], [ 113.006496672000026, 34.887708202000056 ], [ 113.109601100000077, 34.895794824000063 ], [ 113.164185797000073, 34.86344833600009 ], [ 113.156099176, 34.790668740000058 ], [ 113.150034209000069, 34.750235631000066 ], [ 113.109601100000077, 34.667347757000073 ], [ 113.101514478000013, 34.622871337000049 ], [ 113.125774344000092, 34.596589816000062 ], [ 113.154077520000101, 34.564243329000078 ], [ 113.195798574000037, 34.534031531000039 ] ] ] ] } },
{ "type": "Feature", "properties": { "路": "京西北路", "州府": "" }, "geometry": { "type": "MultiPolygon", "coordinates": [ [ [ [ 115.58158439500005, 32.427303307000045 ], [ 115.581030967000061, 32.430208804000074 ], [ 115.522728221000079, 32.499616836000087 ], [ 115.497741329000064, 32.524603728000045 ], [ 115.428333297000108, 32.55236694000007 ], [ 115.331162053000071, 32.55236694000007 ], [ 115.325609410000084, 32.566248547000043 ], [ 115.322833089000028, 32.582906474000083 ], [ 115.306175161000056, 32.585682796000071 ], [ 115.264530342000057, 32.596788081000057 ], [ 115.2367671290001, 32.62732761500007 ], [ 115.233990808000044, 32.652314506000039 ], [ 115.192051779000053, 32.693759181000075 ], [ 115.198572831000092, 32.761298647000046 ], [ 115.194846515000108, 32.775738119000039 ], [ 115.219067565000046, 32.788780222000071 ], [ 115.209285987000044, 32.819988113000079 ], [ 115.209285987000044, 32.840948637000054 ], [ 115.20695704000002, 32.84653811000004 ], [ 115.155254415000059, 32.878211791000069 ], [ 115.138049318000071, 32.916755865000084 ], [ 115.142416094000055, 32.955329051000035 ], [ 115.170299777000082, 33.020330328000057 ], [ 115.153242059000036, 33.091972743000042 ], [ 115.210101119, 33.118127911000045 ], [ 115.276057628000103, 33.138597172000061 ], [ 115.304487158000029, 33.152243346000034 ], [ 115.313584607000053, 33.20455368100005 ], [ 115.35637105, 33.276764687000082 ], [ 115.3599247410001, 33.324739519000047 ], [ 115.367032124000048, 33.362053277000086 ], [ 115.319057292000025, 33.392259652000064 ], [ 115.338602594, 33.422466028000088 ], [ 115.33504890200004, 33.443788175000066 ], [ 115.340379439, 33.488209315000063 ], [ 115.33149521100006, 33.52907676500007 ], [ 115.34570997600008, 33.555729449000069 ], [ 115.353266572000052, 33.597830488000056 ], [ 115.370502479000038, 33.598022601000082 ], [ 115.436079760000098, 33.607629923000047 ], [ 115.505370139000092, 33.629618256000072 ], [ 115.62594230000002, 33.638552049000054 ], [ 115.672437898, 33.644624940000085 ], [ 115.698991005000039, 33.64905963800004 ], [ 115.727578817000108, 33.614228535000052 ], [ 115.759637183000109, 33.597767514000054 ], [ 115.818221293000079, 33.585706431000062 ], [ 115.870069233000095, 33.569976743000041 ], [ 115.906409629000109, 33.547135356000069 ], [ 115.961730718000013, 33.50385056600004 ], [ 115.974230030000058, 33.473810899000057 ], [ 115.982288845000085, 33.44927487800004 ], [ 115.991022689000033, 33.422125402000063 ], [ 115.994757875, 33.40393300900007 ], [ 116.032700113000033, 33.385992655000052 ], [ 116.073491504, 33.381376320000072 ], [ 116.097126328000058, 33.380037711000057 ], [ 116.10286308600007, 33.354001938000067 ], [ 116.116808470000024, 33.342505275000065 ], [ 116.149122129000034, 33.321643989000052 ], [ 116.166096918000108, 33.302205403000073 ], [ 116.211780002000069, 33.251162930000078 ], [ 116.231203358000016, 33.227229115000057 ], [ 116.241230632, 33.210128256000075 ], [ 116.279813484000101, 33.190331254000057 ], [ 116.295006459000092, 33.165931500000056 ], [ 116.303641226000082, 33.165280095000071 ], [ 116.320596905, 33.11120756300005 ], [ 116.36420148600007, 33.044756007000046 ], [ 116.455783234000023, 32.979900465000071 ], [ 116.555975328000045, 32.905808694000086 ], [ 116.618172410000057, 32.760519391000059 ], [ 116.709642927, 32.680856963000053 ], [ 116.749533128000053, 32.62701775700009 ], [ 116.645785876000105, 32.579710485000078 ], [ 116.569467444, 32.483260423000047 ], [ 116.419150827000067, 32.442663216000085 ], [ 116.343829991, 32.462906457000088 ], [ 116.200254141000073, 32.470101406000083 ], [ 116.112911855000107, 32.517298143000062 ], [ 116.081278663000035, 32.57220118500004 ], [ 115.972707495, 32.60827405200007 ], [ 115.812222373000054, 32.51918829400006 ], [ 115.690578038000012, 32.455606752000051 ], [ 115.58158439500005, 32.427303307000045 ] ] ] ] } },
{ "type": "Feature", "properties": { "路": "京西北路", "州府": "" }, "geometry": { "type": "MultiPolygon", "coordinates": [ [ [ [ 114.803889552000101, 32.307812543000068 ], [ 114.738460178000082, 32.22653555100004 ], [ 114.687364551000087, 32.156160094000086 ], [ 114.636057828000048, 32.050106096000036 ], [ 114.637797165000052, 31.96563584800009 ], [ 114.646828559000028, 31.877312249000056 ], [ 114.664189683000018, 31.827221765000047 ], [ 114.575201512000035, 31.727456332000088 ], [ 114.503813780000087, 31.67811256400006 ], [ 114.417413364000026, 31.665625789000046 ], [ 114.375796298000068, 31.614283943000089 ], [ 114.374222932000066, 31.659358486000087 ], [ 114.400864504000083, 31.757788043000062 ], [ 114.410025642000051, 31.838144176000071 ], [ 114.400745366000024, 31.92645437200008 ], [ 114.282594494000023, 31.977997521000077 ], [ 114.131514108000033, 31.908771503000082 ], [ 114.079123649000053, 31.890135831000066 ], [ 114.054326584000023, 31.875838760000079 ], [ 114.031688159000055, 31.916485560000069 ], [ 114.037683434000087, 31.971135372000049 ], [ 114.012546030000067, 31.989271931000076 ], [ 113.991222303000086, 31.971454528000038 ], [ 113.949303775000089, 32.013546887000075 ], [ 113.896497646000057, 32.062923290000072 ], [ 113.841553149000106, 32.092985387000056 ], [ 113.864956489000065, 32.130113149000067 ], [ 113.844231961000105, 32.189994008000042 ], [ 113.823184843000035, 32.211009799000067 ], [ 113.856754419000026, 32.270053780000069 ], [ 113.845442806000051, 32.345411997000042 ], [ 113.860603646000072, 32.41615051000008 ], [ 113.869364491000056, 32.40738966400005 ], [ 113.886422209000102, 32.378960135000057 ], [ 113.897794021000095, 32.361902417000067 ], [ 113.898931202000085, 32.339158793000081 ], [ 113.900068383000075, 32.306180538000035 ], [ 113.910303014000078, 32.289122820000046 ], [ 113.926223551000021, 32.294808726000042 ], [ 113.944418450000057, 32.292534364000062 ], [ 113.956927443000041, 32.262967653000089 ], [ 113.969436436000024, 32.250458660000049 ], [ 113.999003147000053, 32.24818429700008 ], [ 114.024021134, 32.270927921000066 ], [ 114.066096838000021, 32.314140807000058 ], [ 114.059273751000092, 32.341433155000061 ], [ 114.056999388, 32.356216511000071 ], [ 114.069508381000105, 32.370999866000034 ], [ 114.082017374000088, 32.38805758400008 ], [ 114.085428918000048, 32.423310201000049 ], [ 114.105898179000064, 32.447191006000082 ], [ 114.147973884000066, 32.433544832000052 ], [ 114.179814957000076, 32.410801208000066 ], [ 114.213930393000055, 32.40397812100008 ], [ 114.230988111000102, 32.397155034000036 ], [ 114.256006097000068, 32.378960135000057 ], [ 114.290121533000047, 32.370999866000034 ], [ 114.3287856930001, 32.364176779000047 ], [ 114.351529317000086, 32.339158793000081 ], [ 114.383370391000085, 32.299357451000049 ], [ 114.402702471, 32.284574095000039 ], [ 114.429994820000047, 32.282299733000059 ], [ 114.459561531000077, 32.286848458000065 ], [ 114.487991061, 32.293671545000052 ], [ 114.538027033000049, 32.302768995000065 ], [ 114.581239919000041, 32.303906176000055 ], [ 114.632413072000077, 32.306180538000035 ], [ 114.689272132000042, 32.313003625000079 ], [ 114.723387568000021, 32.318689531000075 ], [ 114.763188910000054, 32.318689531000075 ], [ 114.795029983000063, 32.314140807000058 ], [ 114.803889552000101, 32.307812543000068 ] ] ] ] } },
{ "type": "Feature", "properties": { "路": "京西北路", "州府": "" }, "geometry": { "type": "MultiPolygon", "coordinates": [ [ [ [ 115.153422620000015, 33.091214386000047 ], [ 115.170299777000082, 33.020330328000057 ], [ 115.142416094000055, 32.955329051000035 ], [ 115.138049318000071, 32.916755865000084 ], [ 115.155254415000059, 32.878211791000069 ], [ 115.20695704000002, 32.84653811000004 ], [ 115.209285987000044, 32.840948637000054 ], [ 115.209285987000044, 32.819988113000079 ], [ 115.219067565000046, 32.788780222000071 ], [ 115.194846515000108, 32.775738119000039 ], [ 115.198572831000092, 32.761298647000046 ], [ 115.192051779000053, 32.693759181000075 ], [ 115.233990808000044, 32.652314506000039 ], [ 115.2367671290001, 32.62732761500007 ], [ 115.264530342000057, 32.596788081000057 ], [ 115.306175161000056, 32.585682796000071 ], [ 115.322833089000028, 32.582906474000083 ], [ 115.325609410000084, 32.566248547000043 ], [ 115.331162053000071, 32.55236694000007 ], [ 115.428333297000108, 32.55236694000007 ], [ 115.497741329000064, 32.524603728000045 ], [ 115.522728221000079, 32.499616836000087 ], [ 115.581030967000061, 32.430208804000074 ], [ 115.58158439500005, 32.427303307000045 ], [ 115.504801042000054, 32.407364223000059 ], [ 115.289204658000017, 32.36793592500004 ], [ 115.186538216000031, 32.35736939700007 ], [ 115.020554467000011, 32.306698661000041 ], [ 114.909514397000066, 32.290125217000082 ], [ 114.806983797000044, 32.311656243000073 ], [ 114.803889552000101, 32.307812543000068 ], [ 114.795029983000063, 32.314140807000058 ], [ 114.763188910000054, 32.318689531000075 ], [ 114.723387568000021, 32.318689531000075 ], [ 114.689272132000042, 32.313003625000079 ], [ 114.632413072000077, 32.306180538000035 ], [ 114.581239919000041, 32.303906176000055 ], [ 114.538027033000049, 32.302768995000065 ], [ 114.487991061, 32.293671545000052 ], [ 114.459561531000077, 32.286848458000065 ], [ 114.429994820000047, 32.282299733000059 ], [ 114.402702471, 32.284574095000039 ], [ 114.383370391000085, 32.299357451000049 ], [ 114.351529317000086, 32.339158793000081 ], [ 114.3287856930001, 32.364176779000047 ], [ 114.290121533000047, 32.370999866000034 ], [ 114.256006097000068, 32.378960135000057 ], [ 114.230988111000102, 32.397155034000036 ], [ 114.213930393000055, 32.40397812100008 ], [ 114.179814957000076, 32.410801208000066 ], [ 114.147973884000066, 32.433544832000052 ], [ 114.105898179000064, 32.447191006000082 ], [ 114.085428918000048, 32.423310201000049 ], [ 114.082017374000088, 32.38805758400008 ], [ 114.069508381000105, 32.370999866000034 ], [ 114.056999388, 32.356216511000071 ], [ 114.059273751000092, 32.341433155000061 ], [ 114.066096838000021, 32.314140807000058 ], [ 114.024021134, 32.270927921000066 ], [ 113.999003147000053, 32.24818429700008 ], [ 113.969436436000024, 32.250458660000049 ], [ 113.956927443000041, 32.262967653000089 ], [ 113.944418450000057, 32.292534364000062 ], [ 113.926223551000021, 32.294808726000042 ], [ 113.910303014000078, 32.289122820000046 ], [ 113.900068383000075, 32.306180538000035 ], [ 113.898931202000085, 32.339158793000081 ], [ 113.897794021000095, 32.361902417000067 ], [ 113.886422209000102, 32.378960135000057 ], [ 113.869364491000056, 32.40738966400005 ], [ 113.860603646000072, 32.41615051000008 ], [ 113.861158519000014, 32.418739476000042 ], [ 113.824785317000078, 32.551007906000052 ], [ 113.838688916000024, 32.679503189000059 ], [ 113.78496941700007, 32.761193118000051 ], [ 113.737531842000067, 32.829433406000078 ], [ 113.72844581600009, 32.927207182000075 ], [ 113.749444348, 33.013055924000071 ], [ 113.759144241000058, 33.102960942000038 ], [ 113.746932948000108, 33.171811395000077 ], [ 113.701056465000079, 33.220457602000067 ], [ 113.686457276000056, 33.221515959000044 ], [ 113.721673084000031, 33.246558312000047 ], [ 113.741218385000025, 33.301640526000085 ], [ 113.741218385000025, 33.347838512000067 ], [ 113.741218385000025, 33.365606968000066 ], [ 113.757209996000029, 33.392259652000064 ], [ 113.783862680000084, 33.422466028000088 ], [ 113.833614357000101, 33.443788175000066 ], [ 113.867374424000104, 33.458002940000085 ], [ 113.904688182000086, 33.468664014000069 ], [ 113.943778786000053, 33.482878779000089 ], [ 113.98286938900003, 33.500647235000088 ], [ 114.002414691000013, 33.500647235000088 ], [ 114.069934824000029, 33.475771396000084 ], [ 114.093033817000105, 33.461556631000064 ], [ 114.130347575000087, 33.44556502100005 ], [ 114.185429789000068, 33.44556502100005 ], [ 114.258280459000048, 33.473994551000089 ], [ 114.288486835000072, 33.475771396000084 ], [ 114.30980898200005, 33.449118712000086 ], [ 114.354230123000093, 33.433127101000082 ], [ 114.448402940000051, 33.424242873000082 ], [ 114.515923074000057, 33.429573410000046 ], [ 114.56389790500009, 33.429573410000046 ], [ 114.565674751000074, 33.406474417000084 ], [ 114.571005288000038, 33.376268042000049 ], [ 114.592327435000016, 33.342507975000046 ], [ 114.631418039000096, 33.330070056000068 ], [ 114.668731797000078, 33.312301599000079 ], [ 114.66340126, 33.269657305000067 ], [ 114.654517032000058, 33.216351936000081 ], [ 114.654517032000058, 33.182591870000067 ], [ 114.668731797000078, 33.14705495700008 ], [ 114.725590856000053, 33.11862542700004 ], [ 114.78955729900008, 33.157716031000064 ], [ 114.800218372000018, 33.14705495700008 ], [ 114.83753213, 33.113294891000066 ], [ 114.87662273400008, 33.106187508000062 ], [ 114.940589176, 33.129286501000081 ], [ 114.983233471000062, 33.143501266000044 ], [ 115.016993537000076, 33.113294891000066 ], [ 115.0471999130001, 33.099080126000047 ], [ 115.114720046, 33.090195898000047 ], [ 115.153422620000015, 33.091214386000047 ] ] ] ] } },
{ "type": "Feature", "properties": { "路": "京西北路", "州府": "" }, "geometry": { "type": "MultiPolygon", "coordinates": [ [ [ [ 114.292040526000051, 33.471329282000056 ], [ 114.292040526000051, 33.516638845000045 ], [ 114.300924754000107, 33.562836831000084 ], [ 114.299147909, 33.62147273700009 ], [ 114.286709989000087, 33.642794884000068 ], [ 114.252949923000074, 33.671224414000051 ], [ 114.22274354700005, 33.690769716000034 ], [ 114.196090863000109, 33.712091863000069 ], [ 114.196090863000109, 33.749405621000051 ], [ 114.219189856000071, 33.781388842000069 ], [ 114.245842540000012, 33.815148909000072 ], [ 114.274272070000052, 33.854239512000049 ], [ 114.279709663000062, 33.879252438000037 ], [ 114.303793063000057, 33.866277662000073 ], [ 114.353719811000019, 33.83458668500009 ], [ 114.379092814000046, 33.843218006000086 ], [ 114.419920681, 33.914251702000058 ], [ 114.493452398000045, 33.931021052000062 ], [ 114.540338293000104, 33.928650233000042 ], [ 114.612333412, 33.932216976000063 ], [ 114.684468675000062, 33.950311243000044 ], [ 114.765678240000057, 33.949072413000067 ], [ 114.866704277000053, 33.950138309000067 ], [ 114.964979059000029, 33.942065823000064 ], [ 115.062192716000027, 33.964499624000041 ], [ 115.132298794, 33.965266777000068 ], [ 115.157556567000029, 33.979828084000076 ], [ 115.140390598000067, 33.945331612000075 ], [ 115.120365707000019, 33.910516431000076 ], [ 115.108597928000108, 33.87500637900007 ], [ 115.084829185000103, 33.851533687000085 ], [ 115.061050494000028, 33.819570080000062 ], [ 115.05841840100004, 33.798570279000046 ], [ 115.075519495000094, 33.769130201000053 ], [ 115.10188366400007, 33.714291064000065 ], [ 115.105247813, 33.674958436000054 ], [ 115.122199909000074, 33.644668143000047 ], [ 115.183706575000087, 33.614001865000034 ], [ 115.248224655000058, 33.599175873000036 ], [ 115.326863344, 33.597536194000043 ], [ 115.353266572000052, 33.597830488000056 ], [ 115.34570997600008, 33.555729449000069 ], [ 115.33149521100006, 33.52907676500007 ], [ 115.340379439, 33.488209315000063 ], [ 115.33504890200004, 33.443788175000066 ], [ 115.338602594, 33.422466028000088 ], [ 115.319057292000025, 33.392259652000064 ], [ 115.367032124000048, 33.362053277000086 ], [ 115.3599247410001, 33.324739519000047 ], [ 115.35637105, 33.276764687000082 ], [ 115.313584607000053, 33.20455368100005 ], [ 115.304487158000029, 33.152243346000034 ], [ 115.276057628000103, 33.138597172000061 ], [ 115.210101119, 33.118127911000045 ], [ 115.153242059000036, 33.091972743000042 ], [ 115.153422620000015, 33.091214386000047 ], [ 115.114720046, 33.090195898000047 ], [ 115.0471999130001, 33.099080126000047 ], [ 115.016993537000076, 33.113294891000066 ], [ 114.983233471000062, 33.143501266000044 ], [ 114.940589176, 33.129286501000081 ], [ 114.87662273400008, 33.106187508000062 ], [ 114.83753213, 33.113294891000066 ], [ 114.800218372000018, 33.14705495700008 ], [ 114.78955729900008, 33.157716031000064 ], [ 114.725590856000053, 33.11862542700004 ], [ 114.668731797000078, 33.14705495700008 ], [ 114.654517032000058, 33.182591870000067 ], [ 114.654517032000058, 33.216351936000081 ], [ 114.66340126, 33.269657305000067 ], [ 114.668731797000078, 33.312301599000079 ], [ 114.631418039000096, 33.330070056000068 ], [ 114.592327435000016, 33.342507975000046 ], [ 114.571005288000038, 33.376268042000049 ], [ 114.565674751000074, 33.406474417000084 ], [ 114.56389790500009, 33.429573410000046 ], [ 114.515923074000057, 33.429573410000046 ], [ 114.448402940000051, 33.424242873000082 ], [ 114.354230123000093, 33.433127101000082 ], [ 114.30980898200005, 33.449118712000086 ], [ 114.292040526000051, 33.471329282000056 ] ] ] ] } },
{ "type": "Feature", "properties": { "路": "京西北路", "州府": "" }, "geometry": { "type": "MultiPolygon", "coordinates": [ [ [ [ 113.438668993000078, 33.444881786000053 ], [ 113.508160096000097, 33.493713372000059 ], [ 113.603596140000036, 33.697599466000042 ], [ 113.677342174000046, 33.780021504000047 ], [ 113.698787312000036, 33.856158505000053 ], [ 113.648751340000103, 33.900508572000035 ], [ 113.639653890000091, 33.939172733000078 ], [ 113.64420261500004, 33.974425350000047 ], [ 113.639653890000091, 34.013089510000043 ], [ 113.619184628000085, 34.035833134000086 ], [ 113.573697381000102, 34.051753671000085 ], [ 113.531621677000089, 34.047204946000079 ], [ 113.466802348000101, 34.021049779000066 ], [ 113.438372819000051, 34.00171769800005 ], [ 113.421315101, 33.978974074000064 ], [ 113.41108047, 33.949407363000034 ], [ 113.405394564000062, 33.932349645000045 ], [ 113.374690672000042, 33.918703471000072 ], [ 113.347398323000107, 33.906194478000089 ], [ 113.316694431000087, 33.901645753000082 ], [ 113.301911075000021, 33.924389377000068 ], [ 113.295087988000091, 33.917566290000082 ], [ 113.273481546000085, 33.903920116000052 ], [ 113.231405841000083, 33.901645753000082 ], [ 113.19274168100003, 33.910743203000038 ], [ 113.150665977000017, 33.927800921000085 ], [ 113.099492823000105, 33.953956088000041 ], [ 113.085846649000018, 33.980111256000043 ], [ 113.084709467000039, 34.035833134000086 ], [ 113.077886380000109, 34.077908838000042 ], [ 113.066514568, 34.114298637000047 ], [ 113.04831966900008, 34.164334609000036 ], [ 113.046045307000099, 34.208684676000075 ], [ 113.064240206000022, 34.253034742000068 ], [ 113.122876111000096, 34.257583467000075 ], [ 113.185065708000025, 34.289566688000036 ], [ 113.263246915000082, 34.332210983000039 ], [ 113.311221746, 34.360640513000078 ], [ 113.364527115000101, 34.394400579000035 ], [ 113.437377785000081, 34.390846888000056 ], [ 113.545765368000048, 34.337541520000059 ], [ 113.618616038000027, 34.289566688000036 ], [ 113.691466708, 34.284236151000073 ], [ 113.799854291000088, 34.303781453000056 ], [ 113.865597578, 34.355309976000058 ], [ 113.924233484000069, 34.385516351000035 ], [ 113.975019936000081, 34.398881207000045 ], [ 113.96811227, 34.365836993000073 ], [ 113.961770119000107, 34.338497490000066 ], [ 113.964709048000032, 34.306499600000052 ], [ 113.974560069000063, 34.263395309000089 ], [ 113.993534383, 34.243449550000037 ], [ 114.022504263000087, 34.225405085000034 ], [ 114.049843407000026, 34.207474244000082 ], [ 114.089238103000071, 34.195254888000079 ], [ 114.107839008000042, 34.158095653000089 ], [ 114.112598056000024, 34.114026119000073 ], [ 114.126525856000058, 34.036145339000086 ], [ 114.161016676000031, 33.981869927000048 ], [ 114.234946519, 33.903368291000049 ], [ 114.279709663000062, 33.879252438000037 ], [ 114.274272070000052, 33.854239512000049 ], [ 114.245842540000012, 33.815148909000072 ], [ 114.219189856000071, 33.781388842000069 ], [ 114.196090863000109, 33.749405621000051 ], [ 114.196090863000109, 33.712091863000069 ], [ 114.22274354700005, 33.690769716000034 ], [ 114.252949923000074, 33.671224414000051 ], [ 114.286709989000087, 33.642794884000068 ], [ 114.299147909, 33.62147273700009 ], [ 114.300924754000107, 33.562836831000084 ], [ 114.292040526000051, 33.516638845000045 ], [ 114.292040526000051, 33.471329282000056 ], [ 114.288486835000072, 33.475771396000084 ], [ 114.258280459000048, 33.473994551000089 ], [ 114.185429789000068, 33.44556502100005 ], [ 114.130347575000087, 33.44556502100005 ], [ 114.093033817000105, 33.461556631000064 ], [ 114.069934824000029, 33.475771396000084 ], [ 114.002414691000013, 33.500647235000088 ], [ 113.98286938900003, 33.500647235000088 ], [ 113.943778786000053, 33.482878779000089 ], [ 113.904688182000086, 33.468664014000069 ], [ 113.867374424000104, 33.458002940000085 ], [ 113.833614357000101, 33.443788175000066 ], [ 113.783862680000084, 33.422466028000088 ], [ 113.757209996000029, 33.392259652000064 ], [ 113.741218385000025, 33.365606968000066 ], [ 113.741218385000025, 33.347838512000067 ], [ 113.741218385000025, 33.301640526000085 ], [ 113.721673084000031, 33.246558312000047 ], [ 113.686457276000056, 33.221515959000044 ], [ 113.646417022000037, 33.224418648000039 ], [ 113.54255815800002, 33.209232437000082 ], [ 113.456693700000073, 33.215332373000081 ], [ 113.416426613, 33.244049121000046 ], [ 113.412053268000022, 33.315515918000074 ], [ 113.457513381000012, 33.37376955700006 ], [ 113.460661457000015, 33.441465918000063 ], [ 113.438668993000078, 33.444881786000053 ] ] ] ] } },
{ "type": "Feature", "properties": { "路": "京西北路", "州府": "" }, "geometry": { "type": "MultiPolygon", "coordinates": [ [ [ [ 113.329631170000084, 34.372299814000087 ], [ 113.300560673000064, 34.410392190000039 ], [ 113.273907988000019, 34.460143867000056 ], [ 113.218825774000038, 34.499234471000079 ], [ 113.193949936000081, 34.527664001000062 ], [ 113.209941546000096, 34.582746215000043 ], [ 113.250808995000057, 34.605845208000062 ], [ 113.25613953200002, 34.664481113000079 ], [ 113.259693224000102, 34.756877085000042 ], [ 113.265023760000076, 34.790637152000045 ], [ 113.314775438000083, 34.822620373000063 ], [ 113.392956645000027, 34.827950910000084 ], [ 113.433824094000101, 34.831504601000063 ], [ 113.485352617000103, 34.884809969000059 ], [ 113.497790536000025, 34.916793190000078 ], [ 113.504307888000085, 34.966325070000039 ], [ 113.570275907, 34.967214939000087 ], [ 113.63214055800006, 35.002012674000071 ], [ 113.8135585550001, 35.065885391000052 ], [ 113.820688612000026, 35.068880557000057 ], [ 113.889983877000077, 35.028157990000068 ], [ 113.952391959000011, 34.982584386000042 ], [ 113.988001767000014, 34.919088598000087 ], [ 113.974927527000091, 34.876367242000072 ], [ 113.937852623000026, 34.839372769000079 ], [ 113.906292332000021, 34.807261494000045 ], [ 113.861134519000075, 34.770835970000064 ], [ 113.846945258, 34.746715598000037 ], [ 113.829821136000078, 34.710893296000052 ], [ 113.834454413, 34.678789713000072 ], [ 113.855499310000027, 34.646817868000085 ], [ 113.881100536000076, 34.626422742000045 ], [ 113.953099456000018, 34.581438171000059 ], [ 113.983791916000087, 34.490469688000076 ], [ 113.99780019800005, 34.469573259000072 ], [ 113.978743474, 34.416693502000044 ], [ 113.975019936000081, 34.398881207000045 ], [ 113.924233484000069, 34.385516351000035 ], [ 113.865597578, 34.355309976000058 ], [ 113.799854291000088, 34.303781453000056 ], [ 113.691466708, 34.284236151000073 ], [ 113.618616038000027, 34.289566688000036 ], [ 113.545765368000048, 34.337541520000059 ], [ 113.437377785000081, 34.390846888000056 ], [ 113.364527115000101, 34.394400579000035 ], [ 113.329631170000084, 34.372299814000087 ] ] ] ] } },
{ "type": "Feature", "properties": { "路": "京西北路", "州府": "" }, "geometry": { "type": "MultiPolygon", "coordinates": [ [ [ [ 113.071033192000073, 34.253561713000067 ], [ 113.064240206000022, 34.253034742000068 ], [ 113.046045307000099, 34.208684676000075 ], [ 113.04831966900008, 34.164334609000036 ], [ 113.066514568, 34.114298637000047 ], [ 113.077886380000109, 34.077908838000042 ], [ 113.084709467000039, 34.035833134000086 ], [ 113.085846649000018, 33.980111256000043 ], [ 113.099492823000105, 33.953956088000041 ], [ 113.150665977000017, 33.927800921000085 ], [ 113.19274168100003, 33.910743203000038 ], [ 113.231405841000083, 33.901645753000082 ], [ 113.273481546000085, 33.903920116000052 ], [ 113.295087988000091, 33.917566290000082 ], [ 113.301911075000021, 33.924389377000068 ], [ 113.316694431000087, 33.901645753000082 ], [ 113.347398323000107, 33.906194478000089 ], [ 113.374690672000042, 33.918703471000072 ], [ 113.405394564000062, 33.932349645000045 ], [ 113.41108047, 33.949407363000034 ], [ 113.421315101, 33.978974074000064 ], [ 113.438372819000051, 34.00171769800005 ], [ 113.466802348000101, 34.021049779000066 ], [ 113.531621677000089, 34.047204946000079 ], [ 113.573697381000102, 34.051753671000085 ], [ 113.619184628000085, 34.035833134000086 ], [ 113.639653890000091, 34.013089510000043 ], [ 113.64420261500004, 33.974425350000047 ], [ 113.639653890000091, 33.939172733000078 ], [ 113.648751340000103, 33.900508572000035 ], [ 113.698787312000036, 33.856158505000053 ], [ 113.677342174000046, 33.780021504000047 ], [ 113.603596140000036, 33.697599466000042 ], [ 113.508160096000097, 33.493713372000059 ], [ 113.438668993000078, 33.444881786000053 ], [ 113.309312701000067, 33.464973399000087 ], [ 113.104045786000029, 33.462836888000083 ], [ 112.951410530000089, 33.434248534000062 ], [ 112.870119554000098, 33.449302962000047 ], [ 112.882027760000028, 33.490543379000087 ], [ 112.953383899000073, 33.534327400000052 ], [ 112.909031103000075, 33.605129341000065 ], [ 112.774469153000041, 33.642983485000059 ], [ 112.588703328000065, 33.641911096000058 ], [ 112.441550259, 33.673710330000063 ], [ 112.361392612000031, 33.704478527000049 ], [ 112.308698157000094, 33.733527104000075 ], [ 112.21596417, 33.705100129000073 ], [ 112.206023774000073, 33.738744547000067 ], [ 112.193585854000048, 33.815148909000072 ], [ 112.181147935000013, 33.873784814000089 ], [ 112.18647847200009, 33.953742867000074 ], [ 112.24511437700005, 34.042585147000068 ], [ 112.285981826000011, 34.078122060000055 ], [ 112.34284088600009, 34.161633804000076 ], [ 112.410361019000106, 34.234484474000055 ], [ 112.477881153, 34.310888835000071 ], [ 112.556062360000055, 34.358863667000037 ], [ 112.609367728000052, 34.341095211000038 ], [ 112.660896251000054, 34.335764674000075 ], [ 112.733746921000034, 34.351756285000079 ], [ 112.803043900000034, 34.349979439000037 ], [ 112.813704974000075, 34.316219372000035 ], [ 112.85990296, 34.30555829900004 ], [ 112.934283139000058, 34.308301748000076 ], [ 112.981589877000033, 34.308301748000076 ], [ 113.03544677800005, 34.298112605000085 ], [ 113.056552861, 34.283556685000065 ], [ 113.071033192000073, 34.253561713000067 ] ] ] ] } },
{ "type": "Feature", "properties": { "路": "京西北路", "州府": "" }, "geometry": { "type": "MultiPolygon", "coordinates": [ [ [ [ 112.745133047000081, 35.145495401000062 ], [ 112.750493349000067, 35.104542653000067 ], [ 112.775992115, 35.039748434000046 ], [ 112.788825755000062, 35.017872787000044 ], [ 112.817425551000042, 35.004017125000075 ], [ 112.834111009000026, 34.983393869000054 ], [ 112.849898115000087, 34.953798002000042 ], [ 112.944441562000065, 34.944693309000058 ], [ 113.024806995000063, 34.962024811000049 ], [ 113.074225977000083, 34.969310850000056 ], [ 113.139639102000046, 34.949933209000051 ], [ 113.17171647300006, 34.934252685000047 ], [ 113.217410644000097, 34.923669508000046 ], [ 113.295485288, 34.936464970000088 ], [ 113.373585070000104, 34.94921064600004 ], [ 113.461484587000086, 34.965747409000073 ], [ 113.504307888000085, 34.966325070000039 ], [ 113.497790536000025, 34.916793190000078 ], [ 113.485352617000103, 34.884809969000059 ], [ 113.433824094000101, 34.831504601000063 ], [ 113.392956645000027, 34.827950910000084 ], [ 113.314775438000083, 34.822620373000063 ], [ 113.265023760000076, 34.790637152000045 ], [ 113.259693224000102, 34.756877085000042 ], [ 113.25613953200002, 34.664481113000079 ], [ 113.250808995000057, 34.605845208000062 ], [ 113.209941546000096, 34.582746215000043 ], [ 113.195798574000037, 34.534031531000039 ], [ 113.154077520000101, 34.564243329000078 ], [ 113.125774344000092, 34.596589816000062 ], [ 113.101514478000013, 34.622871337000049 ], [ 113.109601100000077, 34.667347757000073 ], [ 113.150034209000069, 34.750235631000066 ], [ 113.156099176, 34.790668740000058 ], [ 113.164185797000073, 34.86344833600009 ], [ 113.109601100000077, 34.895794824000063 ], [ 113.006496672000026, 34.887708202000056 ], [ 112.911478865000049, 34.855361715000072 ], [ 112.834655958000099, 34.825036883000053 ], [ 112.769962984000017, 34.820993572000077 ], [ 112.711334975, 34.831101849000049 ], [ 112.691118421000056, 34.859405025000058 ], [ 112.658771933000025, 34.911968067000089 ], [ 112.630468757000017, 34.936227933000055 ], [ 112.551624194000055, 34.918033034000075 ], [ 112.492996186000028, 34.918033034000075 ], [ 112.361588581000092, 34.926119656000083 ], [ 112.282744019, 34.942292899000051 ], [ 112.248375876000068, 34.95240117600008 ], [ 112.214007733000017, 34.976661042000046 ], [ 112.177617935000058, 35.004964218000055 ], [ 112.116968271000019, 35.02113746200007 ], [ 112.040145364000068, 35.029224084000077 ], [ 112.01184218800006, 35.065613882000036 ], [ 111.985560667000072, 35.085830437000084 ], [ 111.974065086000053, 35.086623236000037 ], [ 111.999496161000025, 35.120167582000079 ], [ 112.066129268000054, 35.165243321000048 ], [ 112.124948845000063, 35.177704095000081 ], [ 112.177192645000105, 35.172021359000041 ], [ 112.184844584000075, 35.12928637400006 ], [ 112.229865133000089, 35.153075447000049 ], [ 112.301756763000071, 35.146180448000052 ], [ 112.374538556000061, 35.131259068000077 ], [ 112.434370860000058, 35.154086721000056 ], [ 112.493507014000102, 35.151815463000048 ], [ 112.528690441000094, 35.140411240000049 ], [ 112.58642734, 35.140824106000082 ], [ 112.62477461900005, 35.179429268000035 ], [ 112.658985709000035, 35.209028230000058 ], [ 112.697348619000081, 35.213241774000039 ], [ 112.75216989, 35.183355963000054 ], [ 112.755829844, 35.153552912000066 ], [ 112.745133047000081, 35.145495401000062 ] ] ], [ [ [ 115.052140015000077, 35.287940725000055 ], [ 115.02388381500009, 35.24885101600006 ], [ 114.995468457000015, 35.197183851000034 ], [ 114.937318312, 35.21322194600009 ], [ 114.892381951000061, 35.226176210000062 ], [ 114.859586656000033, 35.234747868000056 ], [ 114.796275859000048, 35.261853056000064 ], [ 114.762094617, 35.267964263000067 ], [ 114.699948691000031, 35.253392236000082 ], [ 114.674082874000078, 35.241023644000052 ], [ 114.62991631500006, 35.217373814000041 ], [ 114.606091115000027, 35.195509863000041 ], [ 114.585678969000014, 35.158120453000038 ], [ 114.536521360000052, 35.145001343000047 ], [ 114.486030216000017, 35.129424583000059 ], [ 114.427171681, 35.09667651400008 ], [ 114.404246736, 35.099284297000054 ], [ 114.385210938, 35.116842682000083 ], [ 114.365019887000017, 35.13363815200006 ], [ 114.343919216000018, 35.160666477000063 ], [ 114.310583175000033, 35.182687294000061 ], [ 114.268448350000085, 35.20197290100009 ], [ 114.19572138500007, 35.231160738000085 ], [ 114.184928367, 35.256535184000086 ], [ 114.17651274900004, 35.301771960000053 ], [ 114.200275767000107, 35.316474837000044 ], [ 114.410911336000026, 35.380555820000041 ], [ 114.497003801, 35.435137814000086 ], [ 114.602168065, 35.499952109000048 ], [ 114.682964721000076, 35.557187940000063 ], [ 114.736505479000016, 35.590093377000073 ], [ 114.750173108000013, 35.575433969000073 ], [ 114.807481292000034, 35.561474191000059 ], [ 114.804576371000053, 35.514620258000036 ], [ 114.819484526, 35.468701207000038 ], [ 114.912612523, 35.458887339000057 ], [ 115.036442754000063, 35.415495489000079 ], [ 115.047655092000014, 35.333845478000057 ], [ 115.052140015000077, 35.287940725000055 ] ] ] ] } }
]
}
