{
"type": "FeatureCollection",
"name": "其他要素",
"crs": { "type": "name", "properties": { "name": "urn:ogc:def:crs:OGC:1.3:CRS84" } },
"features": [
{ "type": "Feature", "properties": { }, "geometry": { "type": "MultiLineString", "coordinates": [ [ [ 112.41521815329881, 34.666692589359528 ], [ 112.416025811481944, 34.661413763792062 ], [ 112.4325099845327, 34.662925369545256 ], [ 112.430541750255827, 34.675477395227496 ], [ 112.416780865180925, 34.674018982603393 ], [ 112.417244804720738, 34.671882747577136 ], [ 112.417275600702212, 34.670745389722491 ], [ 112.417249920877367, 34.670274525838593 ] ] ] } }
]
}
