{
"type": "FeatureCollection",
"name": "周王城",
"crs": { "type": "name", "properties": { "name": "urn:ogc:def:crs:OGC:1.3:CRS84" } },
"features": [
{ "type": "Feature", "properties": { }, "geometry": { "type": "MultiPolygon", "coordinates": [ [ [ [ 112.441336634103294, 34.685572087470973 ], [ 112.44556024393755, 34.650934782080924 ], [ 112.409138251722041, 34.648037829056292 ], [ 112.407654713685986, 34.660541582584287 ], [ 112.408993745571195, 34.66078244371942 ], [ 112.410582073815789, 34.660940349502141 ], [ 112.410268916329798, 34.665846108570193 ], [ 112.411763019998745, 34.665944663977825 ], [ 112.411427856144783, 34.666821604678297 ], [ 112.411348261130797, 34.667714975036283 ], [ 112.41172135622601, 34.668153838250525 ], [ 112.412330749593295, 34.668251742204312 ], [ 112.412665347409202, 34.667910854971034 ], [ 112.412724994509773, 34.667277376179094 ], [ 112.412784725783254, 34.666562676689352 ], [ 112.413551851307986, 34.666222095451779 ], [ 112.414711515958587, 34.666531550789657 ], [ 112.415595444240552, 34.667328128549826 ], [ 112.416989154353928, 34.669554532648576 ], [ 112.417263671751243, 34.670301950347884 ], [ 112.416889354092007, 34.671048926064394 ], [ 112.416142139541236, 34.671113390596538 ], [ 112.415257223408048, 34.671242732706787 ], [ 112.414627676905013, 34.671599664552879 ], [ 112.413801133524458, 34.672313824892385 ], [ 112.413269494499048, 34.673044434258237 ], [ 112.412501623160793, 34.674034777488728 ], [ 112.411871681535942, 34.674732821623323 ], [ 112.410671977714031, 34.674991855316982 ], [ 112.409748055875056, 34.674780001935488 ], [ 112.4093153538076, 34.675451967728876 ], [ 112.408257048400756, 34.68288714314393 ], [ 112.441336634103294, 34.685572087470973 ] ] ] ] } }
]
}
