{
"type": "FeatureCollection",
"name": "内城",
"crs": { "type": "name", "properties": { "name": "urn:ogc:def:crs:OGC:1.3:CRS84" } },
"features": [
{ "type": "Feature", "properties": { "名称": " " }, "geometry": { "type": "MultiPolygon", "coordinates": [ [ [ [ 112.624837237918754, 34.717191118713892 ], [ 112.624686115548471, 34.725331644573856 ], [ 112.627446848744526, 34.725347946571198 ], [ 112.627545676447241, 34.717211718297413 ], [ 112.624837237918754, 34.717191118713892 ] ] ] ] } },
{ "type": "Feature", "properties": { "名称": " " }, "geometry": { "type": "MultiPolygon", "coordinates": [ [ [ [ 112.615530431639542, 34.739195552154648 ], [ 112.615517157841751, 34.741698024737779 ], [ 112.620333979577538, 34.74172987218509 ], [ 112.620353345525842, 34.739156961327552 ], [ 112.615530431639542, 34.739195552154648 ] ] ] ] } },
{ "type": "Feature", "properties": { "名称": " " }, "geometry": { "type": "MultiPolygon", "coordinates": [ [ [ [ 112.615838396275791, 34.720911020997967 ], [ 112.611801342262453, 34.72090465563506 ], [ 112.61164963218215, 34.725253817894071 ], [ 112.615496234472005, 34.725276926162259 ], [ 112.615838396275791, 34.720911020997967 ] ] ] ] } },
{ "type": "Feature", "properties": { "名称": "金市" }, "geometry": { "type": "MultiPolygon", "coordinates": [ [ [ [ 112.615649144388641, 34.732955837370582 ], [ 112.615497329600046, 34.738819032052291 ], [ 112.620158187504501, 34.738793197679264 ], [ 112.620103264317009, 34.732926212559526 ], [ 112.615649144388641, 34.732955837370582 ] ] ] ] } },
{ "type": "Feature", "properties": { "名称": "瑶光寺" }, "geometry": { "type": "MultiPolygon", "coordinates": [ [ [ [ 112.615290155564253, 34.732957844584305 ], [ 112.615285954793308, 34.732949011916446 ], [ 112.611822615690954, 34.732932168964275 ], [ 112.611897389663852, 34.735563752414912 ], [ 112.612188677152062, 34.738837263224866 ], [ 112.615165292521468, 34.738820865539367 ], [ 112.615285120773351, 34.732958605631971 ], [ 112.615290155564253, 34.732957844584305 ] ] ] ] } },
{ "type": "Feature", "properties": { "名称": "丙城" }, "geometry": { "type": "MultiPolygon", "coordinates": [ [ [ [ 112.615140955477955, 34.739198660445737 ], [ 112.612222905387611, 34.739221907679152 ], [ 112.612441436861275, 34.741677590120524 ], [ 112.615093149737049, 34.741695212550212 ], [ 112.615140955477955, 34.739198660445737 ] ] ] ] } },
{ "type": "Feature", "properties": { "名称": "永宁寺" }, "geometry": { "type": "MultiPolygon", "coordinates": [ [ [ [ 112.620140296117299, 34.717155253365434 ], [ 112.616248737844174, 34.717125399968026 ], [ 112.615894874441224, 34.725279313860391 ], [ 112.620094025303359, 34.725304388436051 ], [ 112.620140296117299, 34.717155253365434 ] ] ] ] } },
{ "type": "Feature", "properties": { "名称": " " }, "geometry": { "type": "MultiPolygon", "coordinates": [ [ [ [ 112.640850895377113, 34.720947480980193 ], [ 112.636092612404809, 34.720940940136309 ], [ 112.636232586247999, 34.725399411734919 ], [ 112.641429834818396, 34.725429558929214 ], [ 112.641211224676169, 34.723802155914186 ], [ 112.640850895377113, 34.720947480980193 ] ] ] ] } },
{ "type": "Feature", "properties": { "名称": " " }, "geometry": { "type": "MultiPolygon", "coordinates": [ [ [ [ 112.63567373600894, 34.720940355428532 ], [ 112.631936003924366, 34.72093507383962 ], [ 112.63215755266026, 34.725375620712299 ], [ 112.63581967624458, 34.725397008083789 ], [ 112.63567373600894, 34.720940355428532 ] ] ] ] } },
{ "type": "Feature", "properties": { "名称": " " }, "geometry": { "type": "MultiPolygon", "coordinates": [ [ [ [ 112.631472611689375, 34.720934411053534 ], [ 112.627923029253196, 34.720929276095831 ], [ 112.627886185531949, 34.725350534751094 ], [ 112.631681925996119, 34.725372833763906 ], [ 112.631472611689375, 34.720934411053534 ] ] ] ] } },
{ "type": "Feature", "properties": { "名称": "华林园" }, "geometry": { "type": "MultiPolygon", "coordinates": [ [ [ [ 112.627285780511926, 34.73860472889691 ], [ 112.620914298549366, 34.73862353113833 ], [ 112.62100944443425, 34.74173432278301 ], [ 112.628160128186721, 34.741781209824332 ], [ 112.628047148196814, 34.745642577936444 ], [ 112.628919294184158, 34.74564166009521 ], [ 112.630983439057161, 34.745281776734551 ], [ 112.630987011164578, 34.74527066289702 ], [ 112.630735933625175, 34.741270205313072 ], [ 112.632399329319369, 34.740581419137655 ], [ 112.632307222895491, 34.738629121457677 ], [ 112.627285669962021, 34.738613837871 ], [ 112.627285780511926, 34.73860472889691 ] ] ] ] } },
{ "type": "Feature", "properties": { "名称": "太仓（晋）" }, "geometry": { "type": "MultiPolygon", "coordinates": [ [ [ [ 112.639909334404479, 34.741153853968903 ], [ 112.636239371646127, 34.74110292523914 ], [ 112.636116856849085, 34.744465568055652 ], [ 112.638312190487639, 34.744126147898299 ], [ 112.639501294389476, 34.744026627547093 ], [ 112.639894690368038, 34.742226441587185 ], [ 112.639909334404479, 34.741153853968903 ] ] ] ] } },
{ "type": "Feature", "properties": { "名称": "河南尹" }, "geometry": { "type": "MultiPolygon", "coordinates": [ [ [ [ 112.635967065989746, 34.738640646837077 ], [ 112.632817707723291, 34.738604346842806 ], [ 112.632938545633735, 34.74102535889957 ], [ 112.631397408523483, 34.741633197668349 ], [ 112.631648203432135, 34.745165867417221 ], [ 112.632129496266757, 34.745081946276457 ], [ 112.635862985159292, 34.744504816541649 ], [ 112.635967065989746, 34.738640646837077 ] ] ] ] } },
{ "type": "Feature", "properties": { "名称": "武库（晋）" }, "geometry": { "type": "MultiPolygon", "coordinates": [ [ [ [ 112.639912966637056, 34.740887786427002 ], [ 112.639929983273049, 34.73964132619637 ], [ 112.639985666062969, 34.738686847622624 ], [ 112.636326948393958, 34.738644789540558 ], [ 112.636323167124402, 34.738802860655291 ], [ 112.636246731774946, 34.740900907718704 ], [ 112.639869494914251, 34.740896810785287 ], [ 112.639912966637056, 34.740887786427002 ] ] ] ] } },
{ "type": "Feature", "properties": { "名称": "典农署" }, "geometry": { "type": "MultiPolygon", "coordinates": [ [ [ [ 112.640317139107495, 34.733004437724482 ], [ 112.636462046995291, 34.732997542315118 ], [ 112.636336463941291, 34.738247063794987 ], [ 112.640012585177871, 34.738225395475645 ], [ 112.640317139107495, 34.733004437724482 ] ] ] ] } },
{ "type": "Feature", "properties": { "名称": "东宫" }, "geometry": { "type": "MultiPolygon", "coordinates": [ [ [ [ 112.636067223226206, 34.732996829235617 ], [ 112.632537529011486, 34.732990397732522 ], [ 112.632800909866617, 34.738267799719544 ], [ 112.635974013186612, 34.738249194272278 ], [ 112.636067223226206, 34.732996829235617 ] ] ] ] } },
{ "type": "Feature", "properties": { "名称": " " }, "geometry": { "type": "MultiPolygon", "coordinates": [ [ [ [ 112.63204117789931, 34.732989485261911 ], [ 112.627822582638231, 34.732981647790936 ], [ 112.627778497518506, 34.738270364764482 ], [ 112.632291036933424, 34.73828602568242 ], [ 112.63204117789931, 34.732989485261911 ] ] ] ] } },
{ "type": "Feature", "properties": { "名称": "典农署" }, "geometry": { "type": "MultiPolygon", "coordinates": [ [ [ [ 112.64183604816418, 34.73001254629515 ], [ 112.636376711950604, 34.729989642934669 ], [ 112.636458281869494, 34.732587320260656 ], [ 112.640343052781773, 34.732560170099582 ], [ 112.640353768786639, 34.732376447089827 ], [ 112.641858904036667, 34.731752979310002 ], [ 112.64183604816418, 34.73001254629515 ] ] ] ] } },
{ "type": "Feature", "properties": { "名称": "句盾署" }, "geometry": { "type": "MultiPolygon", "coordinates": [ [ [ [ 112.635970030099713, 34.729987926901728 ], [ 112.63238693970024, 34.729972750067425 ], [ 112.632518781034364, 34.732614726219978 ], [ 112.636055260211492, 34.732590129153394 ], [ 112.635970030099713, 34.729987926901728 ] ] ] ] } },
{ "type": "Feature", "properties": { "名称": " " }, "geometry": { "type": "MultiPolygon", "coordinates": [ [ [ [ 112.631898781701679, 34.729970674323617 ], [ 112.627847824089812, 34.729953372877404 ], [ 112.627825370688598, 34.732647211995882 ], [ 112.632023661988271, 34.732618162597959 ], [ 112.631898781701679, 34.729970674323617 ] ] ] ] } },
{ "type": "Feature", "properties": { "名称": "长秋寺" }, "geometry": { "type": "MultiPolygon", "coordinates": [ [ [ [ 112.6153813772261, 34.729982626648869 ], [ 112.611736889193679, 34.729914944610314 ], [ 112.611808967784057, 34.732451819316175 ], [ 112.615334572025901, 34.732486962172999 ], [ 112.6153813772261, 34.729982626648869 ] ] ] ] } },
{ "type": "Feature", "properties": { "名称": " " }, "geometry": { "type": "MultiPolygon", "coordinates": [ [ [ [ 112.620066964242369, 34.730069482972951 ], [ 112.615723277202548, 34.72998897080322 ], [ 112.615772638133549, 34.73257675544928 ], [ 112.620053081542849, 34.732513723592881 ], [ 112.620066964242369, 34.730069482972951 ] ] ] ] } },
{ "type": "Feature", "properties": { "名称": "宫城" }, "geometry": { "type": "MultiPolygon", "coordinates": [ [ [ [ 112.627442112444726, 34.725737797884804 ], [ 112.620583228086559, 34.725726334370748 ], [ 112.62053266084726, 34.732495421764348 ], [ 112.620527705260798, 34.732514626042402 ], [ 112.620654283052218, 34.738265909859173 ], [ 112.620903353354066, 34.738265663434817 ], [ 112.620903438183404, 34.738268431613022 ], [ 112.62728979574959, 34.738274343985779 ], [ 112.627442112444726, 34.725737797884804 ] ] ] ] } },
{ "type": "Feature", "properties": { "名称": "延年里" }, "geometry": { "type": "MultiPolygon", "coordinates": [ [ [ [ 112.6154617019764, 34.725717523688694 ], [ 112.611633690374632, 34.725710797791827 ], [ 112.611624740047333, 34.725967356214099 ], [ 112.611727459638828, 34.729583032552476 ], [ 112.615387884397492, 34.729634429128154 ], [ 112.615460888795639, 34.725727905238415 ], [ 112.6154617019764, 34.725717523688694 ] ] ] ] } },
{ "type": "Feature", "properties": { "名称": "武库署" }, "geometry": { "type": "MultiPolygon", "coordinates": [ [ [ [ 112.620091633950281, 34.725725498458274 ], [ 112.615875823531994, 34.72571824449728 ], [ 112.615713256988499, 34.729463628861801 ], [ 112.615716602913722, 34.729639038808756 ], [ 112.620069062388509, 34.729699997940628 ], [ 112.620091633950281, 34.725725498458274 ] ] ] ] } },
{ "type": "Feature", "properties": { "名称": "籍田署/太仓" }, "geometry": { "type": "MultiPolygon", "coordinates": [ [ [ [ 112.641474230429239, 34.725760049309741 ], [ 112.636243654645057, 34.725751944019514 ], [ 112.636368742410937, 34.729735821257343 ], [ 112.641833193625359, 34.729795186053948 ], [ 112.641813355114195, 34.728284445021266 ], [ 112.641474230429239, 34.725760049309741 ] ] ] ] } },
{ "type": "Feature", "properties": { "名称": "司空署" }, "geometry": { "type": "MultiPolygon", "coordinates": [ [ [ [ 112.635831278557163, 34.725751294877817 ], [ 112.632176007554023, 34.725745485109925 ], [ 112.632372943420549, 34.729692257090313 ], [ 112.635961628261953, 34.729731388796772 ], [ 112.635831278557163, 34.725751294877817 ] ] ] ] } },
{ "type": "Feature", "properties": { "名称": "导官署" }, "geometry": { "type": "MultiPolygon", "coordinates": [ [ [ [ 112.631699464861384, 34.72574471930897 ], [ 112.627882951841315, 34.72573852127028 ], [ 112.627850412756402, 34.729642791485723 ], [ 112.631885398816095, 34.729686931906464 ], [ 112.631699464861384, 34.72574471930897 ] ] ] ] } },
{ "type": "Feature", "properties": { "名称": " " }, "geometry": { "type": "MultiPolygon", "coordinates": [ [ [ [ 112.624986664453274, 34.709140366727432 ], [ 112.624915090191379, 34.712996801638539 ], [ 112.627596292760231, 34.713044042399837 ], [ 112.627643120417076, 34.709187973340782 ], [ 112.624986664453274, 34.709140366727432 ] ] ] ] } },
{ "type": "Feature", "properties": { "名称": " " }, "geometry": { "type": "MultiPolygon", "coordinates": [ [ [ [ 112.612085061653119, 34.712769933399485 ], [ 112.616097709153252, 34.712841032690747 ], [ 112.616218596802156, 34.708982823772828 ], [ 112.612219640106332, 34.708910762292511 ], [ 112.612085061653119, 34.712769933399485 ] ] ] ] } },
{ "type": "Feature", "properties": { "名称": "胡统寺" }, "geometry": { "type": "MultiPolygon", "coordinates": [ [ [ [ 112.616434383519731, 34.712846992162838 ], [ 112.620164381269745, 34.712912954661505 ], [ 112.620186285651769, 34.709054192781068 ], [ 112.616601739862944, 34.708989721062665 ], [ 112.616434383519731, 34.712846992162838 ] ] ] ] } },
{ "type": "Feature", "properties": { "名称": "景林寺" }, "geometry": { "type": "MultiPolygon", "coordinates": [ [ [ [ 112.635849279580981, 34.713189081540328 ], [ 112.64009407265398, 34.713263462765973 ], [ 112.63983951646, 34.709405799674101 ], [ 112.635728238101848, 34.709332508917399 ], [ 112.635849279580981, 34.713189081540328 ] ] ] ] } },
{ "type": "Feature", "properties": { "名称": " " }, "geometry": { "type": "MultiPolygon", "coordinates": [ [ [ [ 112.63154582556048, 34.713113521590905 ], [ 112.635419697888906, 34.713181546217278 ], [ 112.635293437425958, 34.709324750013316 ], [ 112.631353338556565, 34.709254366205641 ], [ 112.63154582556048, 34.713113521590905 ] ] ] ] } },
{ "type": "Feature", "properties": { "名称": " " }, "geometry": { "type": "MultiPolygon", "coordinates": [ [ [ [ 112.62798867114951, 34.713050950185291 ], [ 112.631103468833814, 34.713105745969735 ], [ 112.630921527551479, 34.709246645296851 ], [ 112.628020796358996, 34.709194736831357 ], [ 112.62798867114951, 34.713050950185291 ] ] ] ] } },
{ "type": "Feature", "properties": { "名称": " " }, "geometry": { "type": "MultiPolygon", "coordinates": [ [ [ [ 112.624910319149677, 34.713253853950384 ], [ 112.624844193080833, 34.716816381644406 ], [ 112.627550433107814, 34.71682011681991 ], [ 112.627593119423011, 34.713305365907864 ], [ 112.624910319149677, 34.713253853950384 ] ] ] ] } },
{ "type": "Feature", "properties": { "名称": " " }, "geometry": { "type": "MultiPolygon", "coordinates": [ [ [ [ 112.616090093476615, 34.713084081920528 ], [ 112.612076807828856, 34.713006622505581 ], [ 112.611944588530704, 34.716797750426302 ], [ 112.615973536749337, 34.716803715633894 ], [ 112.616090093476615, 34.713084081920528 ] ] ] ] } },
{ "type": "Feature", "properties": { "名称": " " }, "geometry": { "type": "MultiPolygon", "coordinates": [ [ [ [ 112.620162964515856, 34.713162555911012 ], [ 112.61642381769218, 34.713090516571725 ], [ 112.616262678567182, 34.716804139137508 ], [ 112.620142257941353, 34.716809748359488 ], [ 112.620162964515856, 34.713162555911012 ] ] ] ] } },
{ "type": "Feature", "properties": { "名称": "嵩明寺/修梵寺" }, "geometry": { "type": "MultiPolygon", "coordinates": [ [ [ [ 112.640112649345468, 34.71354497069256 ], [ 112.635857898839916, 34.713463685457903 ], [ 112.635963605531202, 34.716831346750524 ], [ 112.640332090383168, 34.716836949391471 ], [ 112.640327496297346, 34.716800546161018 ], [ 112.640112649345468, 34.71354497069256 ] ] ] ] } },
{ "type": "Feature", "properties": { "名称": " " }, "geometry": { "type": "MultiPolygon", "coordinates": [ [ [ [ 112.635428666140896, 34.713455476413756 ], [ 112.631559188290666, 34.713381409585608 ], [ 112.631731001861851, 34.716825769264631 ], [ 112.635539175723451, 34.716830793928388 ], [ 112.635428666140896, 34.713455476413756 ] ] ] ] } },
{ "type": "Feature", "properties": { "名称": " " }, "geometry": { "type": "MultiPolygon", "coordinates": [ [ [ [ 112.631116065953208, 34.713372919102767 ], [ 112.627986489061769, 34.713312913575436 ], [ 112.627957263669714, 34.716820673508927 ], [ 112.631278840972755, 34.716825164854136 ], [ 112.631116065953208, 34.713372919102767 ] ] ] ] } },
{ "type": "Feature", "properties": { "名称": "永康里" }, "geometry": { "type": "MultiPolygon", "coordinates": [ [ [ [ 112.611811034720319, 34.720626783082537 ], [ 112.615853833753789, 34.720623439742177 ], [ 112.61596352471993, 34.717123207715886 ], [ 112.61193431987293, 34.717092158480249 ], [ 112.611811034720319, 34.720626783082537 ] ] ] ] } },
{ "type": "Feature", "properties": { "名称": " " }, "geometry": { "type": "MultiPolygon", "coordinates": [ [ [ [ 112.636082056670901, 34.720604702058537 ], [ 112.640807016200739, 34.720599841779453 ], [ 112.64039161682544, 34.717308601467828 ], [ 112.635977546177273, 34.717275463646899 ], [ 112.636082056670901, 34.720604702058537 ] ] ] ] } },
{ "type": "Feature", "properties": { "名称": "光明寺" }, "geometry": { "type": "MultiPolygon", "coordinates": [ [ [ [ 112.631919727378317, 34.720608832080885 ], [ 112.635662758925179, 34.72060512467516 ], [ 112.635553630538737, 34.717272272740807 ], [ 112.631751844377249, 34.717243590051275 ], [ 112.631919727378317, 34.720608832080885 ] ] ] ] } },
{ "type": "Feature", "properties": { "名称": "景乐寺" }, "geometry": { "type": "MultiPolygon", "coordinates": [ [ [ [ 112.627925668131525, 34.720612661025534 ], [ 112.631457279798482, 34.720609281474118 ], [ 112.631298409305629, 34.717240161123541 ], [ 112.627953980065612, 34.71721481908164 ], [ 112.627925668131525, 34.720612661025534 ] ] ] ] } },
{ "type": "Feature", "properties": { "名称": "右卫府" }, "geometry": { "type": "MultiPolygon", "coordinates": [ [ [ [ 112.6220626899715, 34.72095621419583 ], [ 112.620618891144474, 34.720951834523312 ], [ 112.620586358042104, 34.725307319415116 ], [ 112.621976198419944, 34.725315580921375 ], [ 112.6220626899715, 34.72095621419583 ] ] ] ] } },
{ "type": "Feature", "properties": { "名称": "司州/凌阴里" }, "geometry": { "type": "MultiPolygon", "coordinates": [ [ [ [ 112.622298035065839, 34.709092125172234 ], [ 112.620707668224313, 34.70906356139055 ], [ 112.620678856805711, 34.712922043562408 ], [ 112.622221528644957, 34.712949284490158 ], [ 112.622298035065839, 34.709092125172234 ] ] ] ] } },
{ "type": "Feature", "properties": { "名称": "九级府/太社" }, "geometry": { "type": "MultiPolygon", "coordinates": [ [ [ [ 112.622216514865258, 34.71320207139533 ], [ 112.620676986451699, 34.713172450236527 ], [ 112.620649819765191, 34.716810472685587 ], [ 112.622144894259833, 34.716812595735213 ], [ 112.622216514865258, 34.71320207139533 ] ] ] ] } },
{ "type": "Feature", "properties": { "名称": "左卫府" }, "geometry": { "type": "MultiPolygon", "coordinates": [ [ [ [ 112.624352393567634, 34.720963125235855 ], [ 112.622833920060231, 34.720958546754865 ], [ 112.622742417146611, 34.725320129391044 ], [ 112.624255390064278, 34.725329095602575 ], [ 112.624352393567634, 34.720963125235855 ] ] ] ] } },
{ "type": "Feature", "properties": { "名称": "护军府/衣冠里" }, "geometry": { "type": "MultiPolygon", "coordinates": [ [ [ [ 112.624615169737226, 34.709133704720443 ], [ 112.623082524875315, 34.709106207258479 ], [ 112.623001634302298, 34.712963052407943 ], [ 112.624529515579468, 34.712990003232065 ], [ 112.624615169737226, 34.709133704720443 ] ] ] ] } },
{ "type": "Feature", "properties": { "名称": "中正寺/太庙" }, "geometry": { "type": "MultiPolygon", "coordinates": [ [ [ [ 112.624523818874678, 34.713246428177548 ], [ 112.622996307039827, 34.713217067402248 ], [ 112.622920866802076, 34.716813689810927 ], [ 112.624444529513227, 34.716815824399099 ], [ 112.624523818874678, 34.713246428177548 ] ] ] ] } },
{ "type": "Feature", "properties": { "名称": "太尉府/将作监" }, "geometry": { "type": "MultiPolygon", "coordinates": [ [ [ [ 112.622068420412518, 34.720667396077495 ], [ 112.622137793108095, 34.717170527541093 ], [ 112.620647216161515, 34.717159132419745 ], [ 112.620620961004121, 34.720674636737108 ], [ 112.622068420412518, 34.720667396077495 ] ] ] ] } },
{ "type": "Feature", "properties": { "名称": "司徒府/国子学" }, "geometry": { "type": "MultiPolygon", "coordinates": [ [ [ [ 112.624359219594524, 34.720655901528552 ], [ 112.62443625987386, 34.717188064035803 ], [ 112.622913257562317, 34.717176448402896 ], [ 112.622840109203409, 34.720663528143412 ], [ 112.624359219594524, 34.720655901528552 ] ] ] ] } }
]
}
