{
"type": "FeatureCollection",
"name": "城墙",
"crs": { "type": "name", "properties": { "name": "urn:ogc:def:crs:OGC:1.3:CRS84" } },
"features": [
{ "type": "Feature", "properties": { "Type": "外郭城墙" }, "geometry": { "type": "MultiLineString", "coordinates": [ [ [ 112.565073480329531, 34.753423972134541 ], [ 112.563792682166905, 34.738344872033942 ], [ 112.563790250996348, 34.735174398220757 ], [ 112.563976938966306, 34.734323684553736 ], [ 112.566037566049161, 34.734167930382704 ], [ 112.566123738593816, 34.724733776199876 ], [ 112.569401826166555, 34.724731956272876 ], [ 112.569493483248266, 34.722334710958037 ], [ 112.571554003679239, 34.722410848887534 ], [ 112.5720115799989, 34.710037956339832 ], [ 112.572477236721824, 34.707099179641098 ], [ 112.57107169306876, 34.701606551589535 ], [ 112.568972864535169, 34.699875585084662 ], [ 112.567712038582002, 34.696906854386398 ], [ 112.567528016776407, 34.691660946708218 ], [ 112.611089708553763, 34.692420910772576 ], [ 112.611275420099687, 34.696874901984806 ], [ 112.626855387964909, 34.697008169789413 ], [ 112.627032888599445, 34.695523265356982 ], [ 112.63506263722175, 34.69571260418622 ], [ 112.635081100991641, 34.692522560187257 ], [ 112.676670322971191, 34.693331225318857 ], [ 112.681164962006264, 34.754628947445084 ], [ 112.565092877831674, 34.753423340716466 ], [ 112.56507347595732, 34.753423968530612 ] ] ] } },
{ "type": "Feature", "properties": { "Type": null }, "geometry": { "type": "MultiLineString", "coordinates": [ [ [ 112.617877857688129, 34.691265878934637 ], [ 112.617958215458245, 34.687344759040613 ], [ 112.611966379877728, 34.687118417430156 ], [ 112.612414102662953, 34.672038781950533 ], [ 112.637592841793378, 34.672167637800335 ], [ 112.637331301374488, 34.683844670701248 ], [ 112.63255713193341, 34.683927281556585 ], [ 112.6325998797426, 34.687444418822338 ], [ 112.627921694310345, 34.687449413764547 ], [ 112.627812736278315, 34.691408784796174 ], [ 112.617875464257025, 34.691260420400411 ] ] ] } },
{ "type": "Feature", "properties": { "Type": "内城墙" }, "geometry": { "type": "MultiLineString", "coordinates": [ [ [ 112.612082746700139, 34.741854676797701 ], [ 112.611683068899524, 34.736731533358792 ], [ 112.611371193488893, 34.734648048864358 ], [ 112.611365368693768, 34.733963327292443 ], [ 112.611014371115033, 34.72956275847087 ], [ 112.610869006829489, 34.728149312970551 ], [ 112.610975148599991, 34.724354440086664 ], [ 112.611582633526027, 34.708316942472678 ], [ 112.611991584250987, 34.708327676107174 ], [ 112.612013267657233, 34.708324671588613 ], [ 112.640638225818989, 34.708676982955765 ], [ 112.640593551897013, 34.715720379066717 ], [ 112.64128733736429, 34.719824465413417 ], [ 112.642341718932116, 34.729524408092296 ], [ 112.642493870166675, 34.731788854596395 ], [ 112.641035378912534, 34.732785063865009 ], [ 112.641007093397434, 34.732788989783884 ], [ 112.640470631747391, 34.74052710319058 ], [ 112.640444477373208, 34.743050330810611 ], [ 112.640403694667071, 34.743247222742042 ], [ 112.640392528504492, 34.744112252255164 ], [ 112.640301752033622, 34.744312916356193 ], [ 112.635020141687846, 34.745183643121436 ], [ 112.633011195529434, 34.745443215573566 ], [ 112.629754244468927, 34.745903338518318 ], [ 112.628488779828302, 34.745991731543619 ], [ 112.627745368206149, 34.745805827570464 ], [ 112.627668649073243, 34.745291973933654 ], [ 112.627696500604571, 34.743649862616913 ], [ 112.627679063617435, 34.742183288662886 ], [ 112.624179794886899, 34.742162693280612 ], [ 112.61208215121782, 34.741854430355048 ] ] ] } }
]
}
