{
"type": "FeatureCollection",
"name": "城门",
"crs": { "type": "name", "properties": { "name": "urn:ogc:def:crs:OGC:1.3:CRS84" } },
"features": [
{ "type": "Feature", "properties": { "城门": "津阳门" }, "geometry": { "type": "Point", "coordinates": [ 112.616250000798019, 34.708423456217773 ] } },
{ "type": "Feature", "properties": { "城门": "宣阳门" }, "geometry": { "type": "Point", "coordinates": [ 112.62255712480767, 34.708463172842983 ] } },
{ "type": "Feature", "properties": { "城门": "平昌门" }, "geometry": { "type": "Point", "coordinates": [ 112.631226074425214, 34.708591825146399 ] } },
{ "type": "Feature", "properties": { "城门": "开阳门" }, "geometry": { "type": "Point", "coordinates": [ 112.635699407576396, 34.708609877652535 ] } },
{ "type": "Feature", "properties": { "城门": "青阳门" }, "geometry": { "type": "Point", "coordinates": [ 112.640580323405544, 34.713469992335042 ] } },
{ "type": "Feature", "properties": { "城门": "东阳门" }, "geometry": { "type": "Point", "coordinates": [ 112.641888086658852, 34.725654150219526 ] } },
{ "type": "Feature", "properties": { "城门": "建春门" }, "geometry": { "type": "Point", "coordinates": [ 112.640973419312814, 34.733118940973391 ] } },
{ "type": "Feature", "properties": { "城门": "广莫门" }, "geometry": { "type": "Point", "coordinates": [ 112.631687515605478, 34.745601939338037 ] } },
{ "type": "Feature", "properties": { "城门": "大夏门" }, "geometry": { "type": "Point", "coordinates": [ 112.622648478446948, 34.742169715638411 ] } },
{ "type": "Feature", "properties": { "城门": "承明门" }, "geometry": { "type": "Point", "coordinates": [ 112.611914807824249, 34.739024490914979 ] } },
{ "type": "Feature", "properties": { "城门": "阊阖门" }, "geometry": { "type": "Point", "coordinates": [ 112.611275804020465, 34.732761300306024 ] } },
{ "type": "Feature", "properties": { "城门": "西阳门" }, "geometry": { "type": "Point", "coordinates": [ 112.610937557340478, 34.725791539202312 ] } },
{ "type": "Feature", "properties": { "城门": "西名门" }, "geometry": { "type": "Point", "coordinates": [ 112.611412000711667, 34.712953216098065 ] } },
{ "type": "Feature", "properties": { "城门": "" }, "geometry": { "type": "Point", "coordinates": [ 112.678272268040047, 34.713899711767247 ] } },
{ "type": "Feature", "properties": { "城门": "" }, "geometry": { "type": "Point", "coordinates": [ 112.678834054994454, 34.725616401616591 ] } },
{ "type": "Feature", "properties": { "城门": "" }, "geometry": { "type": "Point", "coordinates": [ 112.679445232009968, 34.73250814930028 ] } },
{ "type": "Feature", "properties": { "城门": "" }, "geometry": { "type": "Point", "coordinates": [ 112.635170976439298, 34.754326210614224 ] } },
{ "type": "Feature", "properties": { "城门": "" }, "geometry": { "type": "Point", "coordinates": [ 112.622405287472063, 34.754191977197287 ] } },
{ "type": "Feature", "properties": { "城门": "" }, "geometry": { "type": "Point", "coordinates": [ 112.563897515377874, 34.734973769658282 ] } },
{ "type": "Feature", "properties": { "城门": "" }, "geometry": { "type": "Point", "coordinates": [ 112.565962954138186, 34.725312696138282 ] } },
{ "type": "Feature", "properties": { "城门": "" }, "geometry": { "type": "Point", "coordinates": [ 112.571756886449407, 34.713633770166531 ] } },
{ "type": "Feature", "properties": { "城门": "" }, "geometry": { "type": "Point", "coordinates": [ 112.62286982442248, 34.697088385561685 ] } },
{ "type": "Feature", "properties": { "城门": "雍门" }, "geometry": { "type": "Point", "coordinates": [ 112.611165485562751, 34.720734636713942 ] } },
{ "type": "Feature", "properties": { "城门": "千秋门" }, "geometry": { "type": "Point", "coordinates": [ 112.620329029144969, 34.732823046963702 ] } },
{ "type": "Feature", "properties": { "城门": "西掖门" }, "geometry": { "type": "Point", "coordinates": [ 112.620320409988082, 34.726863439820193 ] } },
{ "type": "Feature", "properties": { "城门": "东掖门" }, "geometry": { "type": "Point", "coordinates": [ 112.627621298473215, 34.726856024559538 ] } },
{ "type": "Feature", "properties": { "城门": "万岁门" }, "geometry": { "type": "Point", "coordinates": [ 112.627630440628437, 34.73281563117807 ] } },
{ "type": "Feature", "properties": { "城门": "阊阖门" }, "geometry": { "type": "Point", "coordinates": [ 112.622174767805944, 34.725635619910506 ] } },
{ "type": "Feature", "properties": { "城门": "司马门" }, "geometry": { "type": "Point", "coordinates": [ 112.624484636293246, 34.725644260777464 ] } },
{ "type": "Feature", "properties": { "城门": "神虎门" }, "geometry": { "type": "Point", "coordinates": [ 112.620364751515936, 34.729892424445907 ] } }
]
}
