{
"type": "FeatureCollection",
"name": "市",
"crs": { "type": "name", "properties": { "name": "urn:ogc:def:crs:OGC:1.3:CRS84" } },
"features": [
{ "type": "Feature", "properties": { "市": "洛阳小市" }, "geometry": { "type": "MultiPolygon", "coordinates": [ [ [ [ 112.661770204480419, 34.713859331734042 ], [ 112.656702509796332, 34.713801569699527 ], [ 112.656750146706059, 34.717349708412492 ], [ 112.661837948172163, 34.717400703012643 ], [ 112.661770204480419, 34.713859331734042 ] ] ] ] } },
{ "type": "Feature", "properties": { "市": "洛阳大市" }, "geometry": { "type": "MultiPolygon", "coordinates": [ [ [ [ 112.582394508677353, 34.725236029998996 ], [ 112.59303389117764, 34.72528523955922 ], [ 112.593162608962658, 34.717240100931313 ], [ 112.582524170473249, 34.717105618976845 ], [ 112.582394508677353, 34.725236029998996 ] ] ] ] } },
{ "type": "Feature", "properties": { "市": "四通市" }, "geometry": { "type": "MultiPolygon", "coordinates": [ [ [ [ 112.618279029749431, 34.690941341093541 ], [ 112.622667828892503, 34.691025420284447 ], [ 112.622766968107953, 34.687458840125508 ], [ 112.618314383755433, 34.687387094950566 ], [ 112.618279029749431, 34.690941341093541 ] ] ] ] } },
{ "type": "Feature", "properties": { "市": "四通市" }, "geometry": { "type": "MultiPolygon", "coordinates": [ [ [ [ 112.627670490528089, 34.687537663461384 ], [ 112.623236429597867, 34.687466394927135 ], [ 112.623118641255545, 34.691034048068119 ], [ 112.627559589910078, 34.69111894882613 ], [ 112.627670490528089, 34.687537663461384 ] ] ] ] } }
]
}
