{
"type": "FeatureCollection",
"name": "里坊",
"crs": { "type": "name", "properties": { "name": "urn:ogc:def:crs:OGC:1.3:CRS84" } },
"features": [
{ "type": "Feature", "properties": { "里坊": "" }, "geometry": { "type": "MultiPolygon", "coordinates": [ [ [ [ 112.673682756407516, 34.737155519852827 ], [ 112.673496440262852, 34.732787258134103 ], [ 112.668146043299984, 34.732801990209964 ], [ 112.668281250225832, 34.737165434538078 ], [ 112.673682756407516, 34.737155519852827 ] ] ] ] } },
{ "type": "Feature", "properties": { "里坊": "" }, "geometry": { "type": "MultiPolygon", "coordinates": [ [ [ [ 112.569647687846313, 34.725506731037065 ], [ 112.56678187021086, 34.725495040304246 ], [ 112.566624412313104, 34.729602569611387 ], [ 112.570538233348046, 34.729594100331916 ], [ 112.570623072265747, 34.725490435341499 ], [ 112.569646878003127, 34.725516183809354 ], [ 112.569647687846313, 34.725506731037065 ] ] ] ] } },
{ "type": "Feature", "properties": { "里坊": "" }, "geometry": { "type": "MultiPolygon", "coordinates": [ [ [ [ 112.57662771024502, 34.725210567962868 ], [ 112.576751560870164, 34.720681482853578 ], [ 112.57206842179815, 34.720589366823312 ], [ 112.571967327377109, 34.722641018490364 ], [ 112.571958008133819, 34.722641083482394 ], [ 112.569811636229687, 34.722655961347691 ], [ 112.569780810309368, 34.725156745448018 ], [ 112.569789753912062, 34.725162772651423 ], [ 112.569795878272203, 34.725164638697706 ], [ 112.571883351321105, 34.725191483025164 ], [ 112.571883837043529, 34.725174904684337 ], [ 112.57662771024502, 34.725210567962868 ] ] ] ] } },
{ "type": "Feature", "properties": { "里坊": "" }, "geometry": { "type": "MultiPolygon", "coordinates": [ [ [ [ 112.604695699984504, 34.738996482990856 ], [ 112.609857553669329, 34.739061231946167 ], [ 112.61000926377686, 34.733002100234408 ], [ 112.604825304049371, 34.733090148968785 ], [ 112.604695699984504, 34.738996482990856 ] ] ] ] } },
{ "type": "Feature", "properties": { "里坊": "" }, "geometry": { "type": "MultiPolygon", "coordinates": [ [ [ [ 112.67422998002624, 34.749982771642522 ], [ 112.668678618208304, 34.74998672372525 ], [ 112.668801697404149, 34.75395715693579 ], [ 112.674401545658995, 34.754003556707787 ], [ 112.67422998002624, 34.749982771642522 ] ] ] ] } },
{ "type": "Feature", "properties": { "里坊": "" }, "geometry": { "type": "MultiPolygon", "coordinates": [ [ [ [ 112.570115933291547, 34.750014868179491 ], [ 112.565208831956824, 34.750014190178675 ], [ 112.56543938167475, 34.753054567195313 ], [ 112.570052183446379, 34.753096713647196 ], [ 112.570115933291547, 34.750014868179491 ] ] ] ] } },
{ "type": "Feature", "properties": { "里坊": "" }, "geometry": { "type": "MultiPolygon", "coordinates": [ [ [ [ 112.604215621215829, 34.750014132506855 ], [ 112.598776580335823, 34.75001488875823 ], [ 112.598698667799894, 34.753354546463036 ], [ 112.604142973073422, 34.753402787804454 ], [ 112.604146159797438, 34.753373824297547 ], [ 112.604215621215829, 34.750014132506855 ] ] ] ] } },
{ "type": "Feature", "properties": { "里坊": "" }, "geometry": { "type": "MultiPolygon", "coordinates": [ [ [ [ 112.674063184194068, 34.746073389386332 ], [ 112.668557505644628, 34.74607937690994 ], [ 112.668669502166239, 34.749692628154428 ], [ 112.674217614055053, 34.749692938508652 ], [ 112.674063184194068, 34.746073389386332 ] ] ] ] } },
{ "type": "Feature", "properties": { "里坊": "" }, "geometry": { "type": "MultiPolygon", "coordinates": [ [ [ [ 112.570193906593005, 34.746245164316782 ], [ 112.564954355658912, 34.746264003250502 ], [ 112.564924608863961, 34.746265676782578 ], [ 112.565180506601791, 34.749640632889722 ], [ 112.57012358205435, 34.749645111570466 ], [ 112.570193906593005, 34.746245164316782 ] ] ] ] } },
{ "type": "Feature", "properties": { "里坊": "" }, "geometry": { "type": "MultiPolygon", "coordinates": [ [ [ [ 112.604296185664808, 34.746117055464339 ], [ 112.598867015380989, 34.746138088567101 ], [ 112.598784692443232, 34.749667133541664 ], [ 112.604222724167414, 34.749670552244311 ], [ 112.604296185664808, 34.746117055464339 ] ] ] ] } },
{ "type": "Feature", "properties": { "里坊": "" }, "geometry": { "type": "MultiPolygon", "coordinates": [ [ [ [ 112.620933007828, 34.742397659227557 ], [ 112.620889064044633, 34.745808629241907 ], [ 112.626723942910985, 34.745784905523728 ], [ 112.627353671430726, 34.745795079013966 ], [ 112.627342733554684, 34.745778857650947 ], [ 112.62729545531441, 34.745508132960424 ], [ 112.627322000919037, 34.742439333286462 ], [ 112.626806487479371, 34.742414082002263 ], [ 112.620933007828, 34.742397659227557 ] ] ] ] } },
{ "type": "Feature", "properties": { "里坊": "" }, "geometry": { "type": "MultiPolygon", "coordinates": [ [ [ [ 112.674043245820329, 34.745606068117674 ], [ 112.673886303729589, 34.741927259140517 ], [ 112.668427873121828, 34.741896739352704 ], [ 112.668543292508446, 34.745620813192751 ], [ 112.674043245820329, 34.745606068117674 ] ] ] ] } },
{ "type": "Feature", "properties": { "里坊": "" }, "geometry": { "type": "MultiPolygon", "coordinates": [ [ [ [ 112.570276653879404, 34.742244284757803 ], [ 112.564618324934784, 34.742225847996558 ], [ 112.564906138543535, 34.746022068955796 ], [ 112.570198915777084, 34.746002988757681 ], [ 112.570276653879404, 34.742244284757803 ] ] ] ] } },
{ "type": "Feature", "properties": { "里坊": "" }, "geometry": { "type": "MultiPolygon", "coordinates": [ [ [ [ 112.604301198882212, 34.745874548506734 ], [ 112.604374058605956, 34.742349835414771 ], [ 112.598955752511074, 34.74233369963266 ], [ 112.598872670244262, 34.745895631805908 ], [ 112.604301198882212, 34.745874548506734 ] ] ] ] } },
{ "type": "Feature", "properties": { "里坊": "" }, "geometry": { "type": "MultiPolygon", "coordinates": [ [ [ [ 112.570364164270728, 34.738012612201352 ], [ 112.564361868437601, 34.738062669323462 ], [ 112.564376705711496, 34.739038648388181 ], [ 112.564590011494005, 34.741852374002974 ], [ 112.570284591802405, 34.741860451008428 ], [ 112.570364164270728, 34.738012612201352 ] ] ] ] } },
{ "type": "Feature", "properties": { "里坊": "" }, "geometry": { "type": "MultiPolygon", "coordinates": [ [ [ [ 112.570453994466462, 34.733668369908237 ], [ 112.570386867038309, 34.733669489439414 ], [ 112.564320519992549, 34.735342542350317 ], [ 112.56435489054418, 34.737603628185973 ], [ 112.570373373906861, 34.737567272661927 ], [ 112.570453994466462, 34.733668369908237 ] ] ] ] } },
{ "type": "Feature", "properties": { "里坊": "" }, "geometry": { "type": "MultiPolygon", "coordinates": [ [ [ [ 112.604639317965479, 34.729514999694594 ], [ 112.604717544723925, 34.725729147051524 ], [ 112.59934372845747, 34.725696175149352 ], [ 112.599254383822341, 34.729528123804577 ], [ 112.604639317965479, 34.729514999694594 ] ] ] ] } },
{ "type": "Feature", "properties": { "里坊": "" }, "geometry": { "type": "MultiPolygon", "coordinates": [ [ [ [ 112.570532248640717, 34.729883589036284 ], [ 112.566613655108512, 34.729883185322969 ], [ 112.566440580036954, 34.734397636251643 ], [ 112.570431582299307, 34.733366981867881 ], [ 112.570460237786961, 34.733366436195752 ], [ 112.570532248640717, 34.729883589036284 ] ] ] ] } },
{ "type": "Feature", "properties": { "里坊": "永明寺" }, "geometry": { "type": "MultiPolygon", "coordinates": [ [ [ [ 112.604573360518529, 34.732706806617365 ], [ 112.604631738833902, 34.729881790255178 ], [ 112.599246115641876, 34.72988270841568 ], [ 112.599177714699536, 34.732816154067024 ], [ 112.603487260613932, 34.732732990960379 ], [ 112.604573360518529, 34.732706806617365 ] ] ] ] } },
{ "type": "Feature", "properties": { "里坊": "" }, "geometry": { "type": "MultiPolygon", "coordinates": [ [ [ [ 112.605260345777282, 34.713258231998076 ], [ 112.605180418619355, 34.71690250212837 ], [ 112.610500521646316, 34.716945226877272 ], [ 112.610503795407965, 34.716944240461224 ], [ 112.610654651673769, 34.713173726433368 ], [ 112.605260345777282, 34.713258231998076 ] ] ] ] } },
{ "type": "Feature", "properties": { "里坊": "" }, "geometry": { "type": "MultiPolygon", "coordinates": [ [ [ [ 112.61085127182379, 34.708258849652729 ], [ 112.605366865903591, 34.708400955674506 ], [ 112.60526634234779, 34.712984819506119 ], [ 112.610665750428183, 34.712896312121281 ], [ 112.61085127182379, 34.708258849652729 ] ] ] ] } },
{ "type": "Feature", "properties": { "里坊": "" }, "geometry": { "type": "MultiPolygon", "coordinates": [ [ [ [ 112.671976816727124, 34.697141746909544 ], [ 112.667037882297066, 34.697021725218171 ], [ 112.667161745633123, 34.701022563029277 ], [ 112.672143898279003, 34.701062457012803 ], [ 112.671976816727124, 34.697141746909544 ] ] ] ] } },
{ "type": "Feature", "properties": { "里坊": "" }, "geometry": { "type": "MultiPolygon", "coordinates": [ [ [ [ 112.67215258801933, 34.701266353723007 ], [ 112.667168152401686, 34.70122948479019 ], [ 112.667300543908752, 34.705505346820736 ], [ 112.672335855859387, 34.705566436770766 ], [ 112.67215258801933, 34.701266353723007 ] ] ] ] } },
{ "type": "Feature", "properties": { "里坊": "" }, "geometry": { "type": "MultiPolygon", "coordinates": [ [ [ [ 112.671825187722519, 34.69358334131482 ], [ 112.666929139810975, 34.69350897363902 ], [ 112.667027861703858, 34.696698036521703 ], [ 112.671963399746943, 34.696826900976014 ], [ 112.671825187722519, 34.69358334131482 ] ] ] ] } },
{ "type": "Feature", "properties": { "里坊": "" }, "geometry": { "type": "MultiPolygon", "coordinates": [ [ [ [ 112.605400526821001, 34.692660878142618 ], [ 112.600115458174372, 34.692582202485092 ], [ 112.600028645430029, 34.696308542684626 ], [ 112.605323230163194, 34.696404707125033 ], [ 112.605400526821001, 34.692660878142618 ] ] ] ] } },
{ "type": "Feature", "properties": { "里坊": "" }, "geometry": { "type": "MultiPolygon", "coordinates": [ [ [ [ 112.672344037168429, 34.70575839466899 ], [ 112.667306505368956, 34.705697830913394 ], [ 112.667412804760161, 34.709130650697766 ], [ 112.672490120491091, 34.709185651794499 ], [ 112.672344037168429, 34.70575839466899 ] ] ] ] } },
{ "type": "Feature", "properties": { "里坊": "" }, "geometry": { "type": "MultiPolygon", "coordinates": [ [ [ [ 112.672500944954166, 34.709439604077552 ], [ 112.667421218486624, 34.709402368397058 ], [ 112.66754693768641, 34.713461915719876 ], [ 112.672674416963218, 34.713509046886493 ], [ 112.672500944954166, 34.709439604077552 ] ] ] ] } },
{ "type": "Feature", "properties": { "里坊": "" }, "geometry": { "type": "MultiPolygon", "coordinates": [ [ [ [ 112.672694627997799, 34.713983131663561 ], [ 112.667561282279635, 34.713925080490974 ], [ 112.667670730879877, 34.717458903434768 ], [ 112.672844999027575, 34.71751029931162 ], [ 112.672694627997799, 34.713983131663561 ] ] ] ] } },
{ "type": "Feature", "properties": { "里坊": "" }, "geometry": { "type": "MultiPolygon", "coordinates": [ [ [ [ 112.672852716766755, 34.717691334041227 ], [ 112.667676236424754, 34.717636656723279 ], [ 112.667787482602378, 34.721228175351555 ], [ 112.673005645689827, 34.721278177472676 ], [ 112.672852716766755, 34.717691334041227 ] ] ] ] } },
{ "type": "Feature", "properties": { "里坊": "" }, "geometry": { "type": "MultiPolygon", "coordinates": [ [ [ [ 112.673183349705198, 34.725445672527201 ], [ 112.673012505547391, 34.721439036739845 ], [ 112.667793004992063, 34.72140645494909 ], [ 112.667921316963614, 34.725548512139703 ], [ 112.673183349705198, 34.725445672527201 ] ] ] ] } },
{ "type": "Feature", "properties": { "里坊": "" }, "geometry": { "type": "MultiPolygon", "coordinates": [ [ [ [ 112.673343603371464, 34.729203590374503 ], [ 112.673202722902928, 34.725899986692681 ], [ 112.668674285119053, 34.726025296694679 ], [ 112.667936466919386, 34.726037543101128 ], [ 112.668037097424659, 34.729285694705347 ], [ 112.673343603371464, 34.729203590374503 ] ] ] ] } },
{ "type": "Feature", "properties": { "里坊": "" }, "geometry": { "type": "MultiPolygon", "coordinates": [ [ [ [ 112.673482193217282, 34.732453210349199 ], [ 112.673358275196833, 34.729547628192925 ], [ 112.668047984415608, 34.729637120987213 ], [ 112.668135935825887, 34.73247578120629 ], [ 112.673482193217282, 34.732453210349199 ] ] ] ] } },
{ "type": "Feature", "properties": { "里坊": "" }, "geometry": { "type": "MultiPolygon", "coordinates": [ [ [ [ 112.673694041677308, 34.737420103543499 ], [ 112.668289394981826, 34.737428237316053 ], [ 112.668415813497163, 34.74150762058725 ], [ 112.673870080828891, 34.741546972622956 ], [ 112.673694041677308, 34.737420103543499 ] ] ] ] } },
{ "type": "Feature", "properties": { "里坊": "" }, "geometry": { "type": "MultiPolygon", "coordinates": [ [ [ [ 112.576278916134868, 34.737962996157925 ], [ 112.570693649543045, 34.738009855497893 ], [ 112.570630955803196, 34.741860933485682 ], [ 112.576172073801516, 34.741868521679393 ], [ 112.576278916134868, 34.737962996157925 ] ] ] ] } },
{ "type": "Feature", "properties": { "里坊": "" }, "geometry": { "type": "MultiPolygon", "coordinates": [ [ [ [ 112.57629072725851, 34.73753123892957 ], [ 112.576399108250953, 34.733569049369322 ], [ 112.570764404480286, 34.733663191076076 ], [ 112.570700887081259, 34.73756528598615 ], [ 112.57629072725851, 34.73753123892957 ] ] ] ] } },
{ "type": "Feature", "properties": { "里坊": "" }, "geometry": { "type": "MultiPolygon", "coordinates": [ [ [ [ 112.575949169719252, 34.750015418163699 ], [ 112.570498194029611, 34.750014913071567 ], [ 112.57044795176931, 34.753100321478506 ], [ 112.575863405748606, 34.753149560975835 ], [ 112.575949169719252, 34.750015418163699 ] ] ] ] } },
{ "type": "Feature", "properties": { "里坊": "" }, "geometry": { "type": "MultiPolygon", "coordinates": [ [ [ [ 112.576052915546114, 34.746223832239153 ], [ 112.57055959737113, 34.746243841162546 ], [ 112.570504210801289, 34.749645448542694 ], [ 112.575959164352952, 34.749650141574953 ], [ 112.576052915546114, 34.746223832239153 ] ] ] ] } },
{ "type": "Feature", "properties": { "里坊": "" }, "geometry": { "type": "MultiPolygon", "coordinates": [ [ [ [ 112.576059543533589, 34.745981594122128 ], [ 112.576161276911549, 34.742263180057819 ], [ 112.570624697371343, 34.742245409898054 ], [ 112.570563540718368, 34.746001666203831 ], [ 112.576059543533589, 34.745981594122128 ] ] ] ] } },
{ "type": "Feature", "properties": { "里坊": "" }, "geometry": { "type": "MultiPolygon", "coordinates": [ [ [ [ 112.576508188810649, 34.729580940311877 ], [ 112.576618316165735, 34.725554123894504 ], [ 112.570896976107591, 34.725517694209614 ], [ 112.570830644791982, 34.729593462261924 ], [ 112.576508188810649, 34.729580940311877 ] ] ] ] } },
{ "type": "Feature", "properties": { "里坊": "" }, "geometry": { "type": "MultiPolygon", "coordinates": [ [ [ [ 112.576407753080815, 34.733253025519709 ], [ 112.576499900739464, 34.729883962002141 ], [ 112.570825921670888, 34.729883614596503 ], [ 112.570769330325433, 34.73336054959001 ], [ 112.576407753080815, 34.733253025519709 ] ] ] ] } },
{ "type": "Feature", "properties": { "里坊": "" }, "geometry": { "type": "MultiPolygon", "coordinates": [ [ [ [ 112.576851736042357, 34.717017812061577 ], [ 112.572249825624837, 34.716907618917801 ], [ 112.572082620208008, 34.720301200606123 ], [ 112.576760210401133, 34.720365167239997 ], [ 112.576851736042357, 34.717017812061577 ] ] ] ] } },
{ "type": "Feature", "properties": { "里坊": "" }, "geometry": { "type": "MultiPolygon", "coordinates": [ [ [ [ 112.576942502478431, 34.713697935580726 ], [ 112.572404516175737, 34.713767788123981 ], [ 112.572263356600189, 34.716632991400054 ], [ 112.57686121267777, 34.716671170068111 ], [ 112.576942502478431, 34.713697935580726 ] ] ] ] } },
{ "type": "Feature", "properties": { "里坊": "" }, "geometry": { "type": "MultiPolygon", "coordinates": [ [ [ [ 112.577176228183731, 34.708734065790686 ], [ 112.573035905833933, 34.708082785652216 ], [ 112.572542589728783, 34.71096502786969 ], [ 112.572416814662517, 34.713518141450862 ], [ 112.576949415666959, 34.713445080059145 ], [ 112.577072741366592, 34.708933893147382 ], [ 112.577176228183731, 34.708734065790686 ] ] ] ] } },
{ "type": "Feature", "properties": { "里坊": "" }, "geometry": { "type": "MultiPolygon", "coordinates": [ [ [ [ 112.572856377005806, 34.696170582843529 ], [ 112.572776002718385, 34.700228332163555 ], [ 112.577848081392972, 34.700272868985692 ], [ 112.577963028084341, 34.696246726957298 ], [ 112.572933195553645, 34.696169623807073 ], [ 112.572856377005806, 34.696170582843529 ] ] ] ] } },
{ "type": "Feature", "properties": { "里坊": "" }, "geometry": { "type": "MultiPolygon", "coordinates": [ [ [ [ 112.572770763516019, 34.700492808110489 ], [ 112.572694969254897, 34.70431892187996 ], [ 112.577730697840153, 34.70438392246006 ], [ 112.57784061896318, 34.700534229448273 ], [ 112.572770763516019, 34.700492808110489 ] ] ] ] } },
{ "type": "Feature", "properties": { "里坊": "" }, "geometry": { "type": "MultiPolygon", "coordinates": [ [ [ [ 112.57293553214916, 34.692173975482831 ], [ 112.572863487589515, 34.695811528881457 ], [ 112.577972770173204, 34.695905470564895 ], [ 112.578077076067586, 34.692251663236789 ], [ 112.57293553214916, 34.692173975482831 ] ] ] ] } },
{ "type": "Feature", "properties": { "里坊": "" }, "geometry": { "type": "MultiPolygon", "coordinates": [ [ [ [ 112.577724924740565, 34.704586089613869 ], [ 112.572605141390227, 34.704520563719271 ], [ 112.572454174547033, 34.70453561530212 ], [ 112.572457757133151, 34.70455088241232 ], [ 112.573131563715535, 34.707523874033136 ], [ 112.57312776600574, 34.707546060365949 ], [ 112.577455182694052, 34.708195418671004 ], [ 112.577631585428591, 34.707854788072865 ], [ 112.577724924740565, 34.704586089613869 ] ] ] ] } },
{ "type": "Feature", "properties": { "里坊": "" }, "geometry": { "type": "MultiPolygon", "coordinates": [ [ [ [ 112.581712269003873, 34.737917166617571 ], [ 112.57660279490733, 34.737960271177776 ], [ 112.576502954145909, 34.741868966505677 ], [ 112.581612420266296, 34.741875727461945 ], [ 112.581712269003873, 34.737917166617571 ] ] ] ] } },
{ "type": "Feature", "properties": { "里坊": "" }, "geometry": { "type": "MultiPolygon", "coordinates": [ [ [ [ 112.581722843393081, 34.73749790786777 ], [ 112.581824224367963, 34.733478163150941 ], [ 112.576715083977206, 34.73356376267953 ], [ 112.576613803541406, 34.737529263503959 ], [ 112.581722843393081, 34.73749790786777 ] ] ] ] } },
{ "type": "Feature", "properties": { "里坊": "" }, "geometry": { "type": "MultiPolygon", "coordinates": [ [ [ [ 112.581407072801539, 34.75001567978596 ], [ 112.57629483667661, 34.750015441527161 ], [ 112.576214677232343, 34.753152746875571 ], [ 112.581326755814516, 34.753198992627702 ], [ 112.581407072801539, 34.75001567978596 ] ] ] ] } },
{ "type": "Feature", "properties": { "里坊": "" }, "geometry": { "type": "MultiPolygon", "coordinates": [ [ [ [ 112.581503241743135, 34.746203736456337 ], [ 112.576391736843675, 34.746222590383873 ], [ 112.576304162745956, 34.749650430343074 ], [ 112.58141618261152, 34.749654592217873 ], [ 112.581503241743135, 34.746203736456337 ] ] ] ] } },
{ "type": "Feature", "properties": { "里坊": "" }, "geometry": { "type": "MultiPolygon", "coordinates": [ [ [ [ 112.581509354728738, 34.745961446096068 ], [ 112.581602212666667, 34.742280399823784 ], [ 112.576492857190004, 34.742264236541637 ], [ 112.576397925920716, 34.745980349814523 ], [ 112.581509354728738, 34.745961446096068 ] ] ] ] } },
{ "type": "Feature", "properties": { "里坊": "阜财里" }, "geometry": { "type": "MultiPolygon", "coordinates": [ [ [ [ 112.581922814055559, 34.729568751981013 ], [ 112.582023184868504, 34.725588292695555 ], [ 112.576919574618373, 34.725556034726758 ], [ 112.576816814181143, 34.72958025159528 ], [ 112.581922814055559, 34.729568751981013 ] ] ] ] } },
{ "type": "Feature", "properties": { "里坊": "" }, "geometry": { "type": "MultiPolygon", "coordinates": [ [ [ [ 112.581832517144505, 34.733149329935223 ], [ 112.58191486242238, 34.729884047587667 ], [ 112.576809058526209, 34.729883973378065 ], [ 112.576723173335481, 34.733247002691606 ], [ 112.581832517144505, 34.733149329935223 ] ] ] ] } },
{ "type": "Feature", "properties": { "里坊": "治殇里" }, "geometry": { "type": "MultiPolygon", "coordinates": [ [ [ [ 112.582236019578545, 34.717146519050729 ], [ 112.577137395196871, 34.717024646723949 ], [ 112.577052009578168, 34.720369151549235 ], [ 112.58215302189133, 34.720438692004052 ], [ 112.582236019578545, 34.717146519050729 ] ] ] ] } },
{ "type": "Feature", "properties": { "里坊": "延酤里" }, "geometry": { "type": "MultiPolygon", "coordinates": [ [ [ [ 112.576928337807047, 34.725212821710258 ], [ 112.582031690433695, 34.725250968467918 ], [ 112.58214423261883, 34.720787332224134 ], [ 112.577043889004457, 34.720687226427174 ], [ 112.576928337807047, 34.725212821710258 ] ] ] ] } },
{ "type": "Feature", "properties": { "里坊": "金肆里" }, "geometry": { "type": "MultiPolygon", "coordinates": [ [ [ [ 112.582325047485313, 34.71361486456891 ], [ 112.577222429493233, 34.713693621237191 ], [ 112.57714635886019, 34.716673532168763 ], [ 112.582246880724369, 34.716715670134342 ], [ 112.582325047485313, 34.71361486456891 ] ] ] ] } },
{ "type": "Feature", "properties": { "里坊": "" }, "geometry": { "type": "MultiPolygon", "coordinates": [ [ [ [ 112.582442637483609, 34.708949710034254 ], [ 112.577845509957115, 34.708839330890214 ], [ 112.577602817607229, 34.708801160508123 ], [ 112.577337346225008, 34.709191594400622 ], [ 112.57722888861565, 34.713440569475679 ], [ 112.582331520169333, 34.713358105859996 ], [ 112.582442637483609, 34.708949710034254 ] ] ] ] } },
{ "type": "Feature", "properties": { "里坊": "" }, "geometry": { "type": "MultiPolygon", "coordinates": [ [ [ [ 112.582760913651867, 34.696320080861305 ], [ 112.578234157686637, 34.696250877553616 ], [ 112.578148139009457, 34.700275496838941 ], [ 112.582660251133348, 34.700314928457352 ], [ 112.582760913651867, 34.696320080861305 ] ] ] ] } },
{ "type": "Feature", "properties": { "里坊": "" }, "geometry": { "type": "MultiPolygon", "coordinates": [ [ [ [ 112.582653738475713, 34.700573358049667 ], [ 112.578142555791999, 34.700536689354614 ], [ 112.578060228776863, 34.704388168747791 ], [ 112.582556144815115, 34.704446013688155 ], [ 112.582653738475713, 34.700573358049667 ] ] ] ] } },
{ "type": "Feature", "properties": { "里坊": "" }, "geometry": { "type": "MultiPolygon", "coordinates": [ [ [ [ 112.582861603247935, 34.692323761426621 ], [ 112.578319548215788, 34.692255321764847 ], [ 112.578241434988144, 34.695910404255763 ], [ 112.582769143390379, 34.695993463360914 ], [ 112.582861603247935, 34.692323761426621 ] ] ] ] } },
{ "type": "Feature", "properties": { "里坊": "" }, "geometry": { "type": "MultiPolygon", "coordinates": [ [ [ [ 112.582551062942244, 34.70464766138317 ], [ 112.5780559081918, 34.704590318762236 ], [ 112.577977676638682, 34.708249839339686 ], [ 112.577962886520936, 34.708271592047339 ], [ 112.579167054421049, 34.708452251899537 ], [ 112.58245423905872, 34.708489415957324 ], [ 112.582551062942244, 34.70464766138317 ] ] ] ] } },
{ "type": "Feature", "properties": { "里坊": "" }, "geometry": { "type": "MultiPolygon", "coordinates": [ [ [ [ 112.587255328903183, 34.737870161428845 ], [ 112.582040029323679, 34.737914393962178 ], [ 112.581932560669969, 34.7418761440208 ], [ 112.587166234914349, 34.741882833395906 ], [ 112.587255328903183, 34.737870161428845 ] ] ] ] } },
{ "type": "Feature", "properties": { "里坊": "" }, "geometry": { "type": "MultiPolygon", "coordinates": [ [ [ [ 112.587264354526866, 34.737463656586506 ], [ 112.587354897620088, 34.733385260235373 ], [ 112.582160510709869, 34.733472521531397 ], [ 112.58205138136195, 34.737495884646123 ], [ 112.587264354526866, 34.737463656586506 ] ] ] ] } },
{ "type": "Feature", "properties": { "里坊": "" }, "geometry": { "type": "MultiPolygon", "coordinates": [ [ [ [ 112.586985632630444, 34.750015695347635 ], [ 112.581711729424498, 34.750015687202918 ], [ 112.581625280028277, 34.753201686973199 ], [ 112.586913816617994, 34.753249291607695 ], [ 112.586985632630444, 34.750015695347635 ] ] ] ] } },
{ "type": "Feature", "properties": { "里坊": "" }, "geometry": { "type": "MultiPolygon", "coordinates": [ [ [ [ 112.58707074866625, 34.746182955974973 ], [ 112.581815187045152, 34.746202578614728 ], [ 112.581721520711696, 34.749654834426913 ], [ 112.586993557405478, 34.74965888903332 ], [ 112.58707074866625, 34.746182955974973 ] ] ] ] } },
{ "type": "Feature", "properties": { "里坊": "" }, "geometry": { "type": "MultiPolygon", "coordinates": [ [ [ [ 112.587076131164707, 34.745940614463152 ], [ 112.587157022745529, 34.742297729433893 ], [ 112.581921566762048, 34.742281402857358 ], [ 112.581821761060297, 34.745960283420295 ], [ 112.587076131164707, 34.745940614463152 ] ] ] ] } },
{ "type": "Feature", "properties": { "里坊": "慈孝里" }, "geometry": { "type": "MultiPolygon", "coordinates": [ [ [ [ 112.587439900402643, 34.729556086050955 ], [ 112.587526611132091, 34.725649590827281 ], [ 112.587510311737034, 34.725622735621904 ], [ 112.582374270493986, 34.725590503620687 ], [ 112.582266407006117, 34.729567970125252 ], [ 112.587439900402643, 34.729556086050955 ] ] ] ] } },
{ "type": "Feature", "properties": { "里坊": "" }, "geometry": { "type": "MultiPolygon", "coordinates": [ [ [ [ 112.587362487669026, 34.7330433745514 ], [ 112.587432623743851, 34.729883887870635 ], [ 112.582257835089223, 34.729884045001825 ], [ 112.582169451043484, 34.733142881084156 ], [ 112.587362487669026, 34.7330433745514 ] ] ] ] } },
{ "type": "Feature", "properties": { "里坊": "调音里" }, "geometry": { "type": "MultiPolygon", "coordinates": [ [ [ [ 112.587884725493126, 34.713528810082302 ], [ 112.582699128038996, 34.713609082315358 ], [ 112.582614824674707, 34.716718701898742 ], [ 112.587835214891356, 34.71676159330471 ], [ 112.587884725493126, 34.713528810082302 ] ] ] ] } },
{ "type": "Feature", "properties": { "里坊": "" }, "geometry": { "type": "MultiPolygon", "coordinates": [ [ [ [ 112.587953758202303, 34.709020935711514 ], [ 112.584274609951322, 34.708993647941035 ], [ 112.582825184825097, 34.708958887100387 ], [ 112.582706095985401, 34.71335204380734 ], [ 112.587888719512421, 34.713268052329532 ], [ 112.587953758202303, 34.709020935711514 ] ] ] ] } },
{ "type": "Feature", "properties": { "里坊": "" }, "geometry": { "type": "MultiPolygon", "coordinates": [ [ [ [ 112.588146958307647, 34.696402201951202 ], [ 112.583167556397143, 34.696326289219186 ], [ 112.583059371866852, 34.700318408257999 ], [ 112.58808633635239, 34.700362126536618 ], [ 112.588146958307647, 34.696402201951202 ] ] ] ] } },
{ "type": "Feature", "properties": { "里坊": "" }, "geometry": { "type": "MultiPolygon", "coordinates": [ [ [ [ 112.588082430398771, 34.70061726343873 ], [ 112.583052375589247, 34.700576590308053 ], [ 112.582947370063252, 34.704451039741933 ], [ 112.588022736464836, 34.704516124097907 ], [ 112.588082430398771, 34.70061726343873 ] ] ] ] } },
{ "type": "Feature", "properties": { "里坊": "" }, "geometry": { "type": "MultiPolygon", "coordinates": [ [ [ [ 112.588208159406619, 34.692404107250269 ], [ 112.583275843143369, 34.692329994905634 ], [ 112.583176372971195, 34.696000926073353 ], [ 112.588151707037156, 34.69609198623948 ], [ 112.588208159406619, 34.692404107250269 ] ] ] ] } },
{ "type": "Feature", "properties": { "里坊": "" }, "geometry": { "type": "MultiPolygon", "coordinates": [ [ [ [ 112.587962092439824, 34.708476674855056 ], [ 112.588019658177103, 34.704717197280068 ], [ 112.582941905963509, 34.704652639039288 ], [ 112.582838104141686, 34.708482279013317 ], [ 112.584607102835889, 34.708448601449817 ], [ 112.587962092439824, 34.708476674855056 ] ] ] ] } },
{ "type": "Feature", "properties": { "里坊": "" }, "geometry": { "type": "MultiPolygon", "coordinates": [ [ [ [ 112.592846809553052, 34.737822490929929 ], [ 112.587662036060991, 34.737866702458781 ], [ 112.587559262135159, 34.74188332645916 ], [ 112.592763534669288, 34.741889739272466 ], [ 112.592846809553052, 34.737822490929929 ] ] ] ] } },
{ "type": "Feature", "properties": { "里坊": "" }, "geometry": { "type": "MultiPolygon", "coordinates": [ [ [ [ 112.592854868926722, 34.737428846958196 ], [ 112.592939575078262, 34.733291195749935 ], [ 112.587776873327172, 34.733378161715336 ], [ 112.587672413609738, 34.737461124176036 ], [ 112.592854868926722, 34.737428846958196 ] ] ] ] } },
{ "type": "Feature", "properties": { "里坊": "" }, "geometry": { "type": "MultiPolygon", "coordinates": [ [ [ [ 112.592597140722148, 34.750015453575571 ], [ 112.587351147839939, 34.750015687686968 ], [ 112.587268304313255, 34.753252474060176 ], [ 112.592529881479535, 34.753299592394733 ], [ 112.592597140722148, 34.750015453575571 ] ] ] ] } },
{ "type": "Feature", "properties": { "里坊": "" }, "geometry": { "type": "MultiPolygon", "coordinates": [ [ [ [ 112.592676059107163, 34.746161778427044 ], [ 112.587449272886943, 34.746181534319298 ], [ 112.587360272674758, 34.749659162633975 ], [ 112.592604360365854, 34.749662954394651 ], [ 112.592676059107163, 34.746161778427044 ] ] ] ] } },
{ "type": "Feature", "properties": { "里坊": "" }, "geometry": { "type": "MultiPolygon", "coordinates": [ [ [ [ 112.59268102224037, 34.745919383790813 ], [ 112.592754829289433, 34.742314937699497 ], [ 112.587548627591161, 34.742298941984323 ], [ 112.58745547442453, 34.745939185893391 ], [ 112.59268102224037, 34.745919383790813 ] ] ] ] } },
{ "type": "Feature", "properties": { "里坊": "奉终里" }, "geometry": { "type": "MultiPolygon", "coordinates": [ [ [ [ 112.593016301008973, 34.729543030017481 ], [ 112.59309583063569, 34.725657542854243 ], [ 112.587975188346078, 34.725625642049728 ], [ 112.587874674938746, 34.729555077025431 ], [ 112.593016301008973, 34.729543030017481 ] ] ] ] } },
{ "type": "Feature", "properties": { "里坊": "" }, "geometry": { "type": "MultiPolygon", "coordinates": [ [ [ [ 112.592946843542634, 34.732936123949976 ], [ 112.593009332327497, 34.729883473490759 ], [ 112.587866264406415, 34.729883864943645 ], [ 112.587785645277975, 34.73303525654822 ], [ 112.592946843542634, 34.732936123949976 ] ] ] ] } },
{ "type": "Feature", "properties": { "里坊": "" }, "geometry": { "type": "MultiPolygon", "coordinates": [ [ [ [ 112.604892657939388, 34.717253133106212 ], [ 112.59954067325215, 34.717248049679156 ], [ 112.599464784832122, 34.72050355016804 ], [ 112.604824764817607, 34.720539547233471 ], [ 112.604892657939388, 34.717253133106212 ] ] ] ] } },
{ "type": "Feature", "properties": { "里坊": "" }, "geometry": { "type": "MultiPolygon", "coordinates": [ [ [ [ 112.599351126445754, 34.725378838705808 ], [ 112.604723973604422, 34.725418007474659 ], [ 112.60481765140608, 34.720883878915544 ], [ 112.599456893355125, 34.720842066171656 ], [ 112.599351126445754, 34.725378838705808 ] ] ] ] } },
{ "type": "Feature", "properties": { "里坊": "乐津里" }, "geometry": { "type": "MultiPolygon", "coordinates": [ [ [ [ 112.593345772431974, 34.713444035392484 ], [ 112.588402062725137, 34.713520789654154 ], [ 112.588348392031563, 34.716765797611956 ], [ 112.593276978398208, 34.71680606653684 ], [ 112.593345772431974, 34.713444035392484 ] ] ] ] } },
{ "type": "Feature", "properties": { "里坊": "" }, "geometry": { "type": "MultiPolygon", "coordinates": [ [ [ [ 112.593435442356053, 34.709061386672161 ], [ 112.588476416801285, 34.709024802698558 ], [ 112.588406381114893, 34.713259651246361 ], [ 112.593351189098627, 34.713179288457624 ], [ 112.593435442356053, 34.709061386672161 ] ] ] ] } },
{ "type": "Feature", "properties": { "里坊": "" }, "geometry": { "type": "MultiPolygon", "coordinates": [ [ [ [ 112.593692673779231, 34.696486508415752 ], [ 112.588684989150806, 34.6964103918449 ], [ 112.588619579967144, 34.700366751446374 ], [ 112.593612423956671, 34.700409945931739 ], [ 112.593692673779231, 34.696486508415752 ] ] ] ] } },
{ "type": "Feature", "properties": { "里坊": "" }, "geometry": { "type": "MultiPolygon", "coordinates": [ [ [ [ 112.593607274846448, 34.700661698217679 ], [ 112.588615366413393, 34.700621560468193 ], [ 112.588550860236822, 34.704522884890039 ], [ 112.593526990097544, 34.704586470066097 ], [ 112.593607274846448, 34.700661698217679 ] ] ] ] } },
{ "type": "Feature", "properties": { "里坊": "" }, "geometry": { "type": "MultiPolygon", "coordinates": [ [ [ [ 112.593774461409694, 34.692487506158507 ], [ 112.588751082064974, 34.692412252738528 ], [ 112.588690089075556, 34.696101828170121 ], [ 112.593698671717263, 34.696193269880439 ], [ 112.593774461409694, 34.692487506158507 ] ] ] ] } },
{ "type": "Feature", "properties": { "里坊": "" }, "geometry": { "type": "MultiPolygon", "coordinates": [ [ [ [ 112.593522889642443, 34.70478692670175 ], [ 112.588547536472291, 34.704723896965817 ], [ 112.588485408557617, 34.708481045224623 ], [ 112.588949639241534, 34.708484920082718 ], [ 112.592576383556775, 34.708521630203933 ], [ 112.593446343868266, 34.708528529179127 ], [ 112.593522889642443, 34.70478692670175 ] ] ] ] } },
{ "type": "Feature", "properties": { "里坊": "" }, "geometry": { "type": "MultiPolygon", "coordinates": [ [ [ [ 112.59871206015049, 34.73777221138895 ], [ 112.593178261019659, 34.737819656719729 ], [ 112.593093710827219, 34.741890138764866 ], [ 112.598626820504933, 34.741896698549589 ], [ 112.59871206015049, 34.73777221138895 ] ] ] ] } },
{ "type": "Feature", "properties": { "里坊": "" }, "geometry": { "type": "MultiPolygon", "coordinates": [ [ [ [ 112.598719916677751, 34.737392053326786 ], [ 112.598806707327384, 34.733192097978154 ], [ 112.59327243139289, 34.733285581116718 ], [ 112.593186421227244, 34.737426774346915 ], [ 112.598719916677751, 34.737392053326786 ] ] ] ] } },
{ "type": "Feature", "properties": { "里坊": "" }, "geometry": { "type": "MultiPolygon", "coordinates": [ [ [ [ 112.598459017002952, 34.75001492531829 ], [ 112.592924911045259, 34.750015431706721 ], [ 112.592856614087367, 34.753302511035578 ], [ 112.598390034373168, 34.75335180465072 ], [ 112.598459017002952, 34.75001492531829 ] ] ] ] } },
{ "type": "Feature", "properties": { "里坊": "" }, "geometry": { "type": "MultiPolygon", "coordinates": [ [ [ [ 112.598539129646653, 34.746139351523347 ], [ 112.593004998864131, 34.746160527714913 ], [ 112.592932228968408, 34.749663183928455 ], [ 112.598466211673752, 34.749666925675683 ], [ 112.598539129646653, 34.746139351523347 ] ] ] ] } },
{ "type": "Feature", "properties": { "里坊": "" }, "geometry": { "type": "MultiPolygon", "coordinates": [ [ [ [ 112.598544141150427, 34.745896899802062 ], [ 112.598617809529173, 34.742332684961774 ], [ 112.59308486585094, 34.742315943981787 ], [ 112.593010035297269, 34.745918129398113 ], [ 112.598544141150427, 34.745896899802062 ] ] ] ] } },
{ "type": "Feature", "properties": { "里坊": "" }, "geometry": { "type": "MultiPolygon", "coordinates": [ [ [ [ 112.598882396502134, 34.729529021557433 ], [ 112.598961634462782, 34.725693821836785 ], [ 112.593430794060694, 34.72565962249471 ], [ 112.593350169716174, 34.729542240593723 ], [ 112.598882396502134, 34.729529021557433 ] ] ] ] } },
{ "type": "Feature", "properties": { "里坊": "" }, "geometry": { "type": "MultiPolygon", "coordinates": [ [ [ [ 112.598814330633815, 34.732823159848913 ], [ 112.598875086567986, 34.729882762535148 ], [ 112.593343084236693, 34.729883440473365 ], [ 112.593279820942456, 34.732929720458486 ], [ 112.598814330633815, 34.732823159848913 ] ] ] ] } },
{ "type": "Feature", "properties": { "里坊": "皇女台" }, "geometry": { "type": "MultiPolygon", "coordinates": [ [ [ [ 112.599216562881182, 34.713352628122038 ], [ 112.593684515563737, 34.713438769315246 ], [ 112.59361455647884, 34.716808817012179 ], [ 112.599144249409434, 34.716853744496085 ], [ 112.599216562881182, 34.713352628122038 ] ] ] ] } },
{ "type": "Feature", "properties": { "里坊": "" }, "geometry": { "type": "MultiPolygon", "coordinates": [ [ [ [ 112.599304734671378, 34.709083309404882 ], [ 112.594287847326342, 34.709067654885338 ], [ 112.5937753269219, 34.709063887027007 ], [ 112.593690017104919, 34.713173774406265 ], [ 112.599222118421523, 34.71308361345757 ], [ 112.599304734671378, 34.709083309404882 ] ] ] ] } },
{ "type": "Feature", "properties": { "里坊": "" }, "geometry": { "type": "MultiPolygon", "coordinates": [ [ [ [ 112.599563000842494, 34.696575475268965 ], [ 112.594036236177772, 34.696491722983303 ], [ 112.59395486814114, 34.700412900819011 ], [ 112.599482790708464, 34.700460470972871 ], [ 112.599563000842494, 34.696575475268965 ] ] ] ] } },
{ "type": "Feature", "properties": { "里坊": "" }, "geometry": { "type": "MultiPolygon", "coordinates": [ [ [ [ 112.599477667074368, 34.70070863852969 ], [ 112.59394964888719, 34.700664444047362 ], [ 112.593868165037691, 34.704590822493245 ], [ 112.599396052845805, 34.704661205549804 ], [ 112.599477667074368, 34.70070863852969 ] ] ] ] } },
{ "type": "Feature", "properties": { "里坊": "" }, "geometry": { "type": "MultiPolygon", "coordinates": [ [ [ [ 112.599645584365916, 34.69257519634445 ], [ 112.594119211027561, 34.692492662780765 ], [ 112.594042298492127, 34.696199536346739 ], [ 112.59956868524425, 34.696300177771974 ], [ 112.599645584365916, 34.69257519634445 ] ] ] ] } },
{ "type": "Feature", "properties": { "里坊": "" }, "geometry": { "type": "MultiPolygon", "coordinates": [ [ [ [ 112.599318942563258, 34.708395343245108 ], [ 112.599391927544346, 34.704861016991828 ], [ 112.593864005328072, 34.704791240424065 ], [ 112.593786382571821, 34.708531224089292 ], [ 112.597109806129396, 34.70855751349881 ], [ 112.599318942563258, 34.708395343245108 ] ] ] ] } },
{ "type": "Feature", "properties": { "里坊": "达货里" }, "geometry": { "type": "MultiPolygon", "coordinates": [ [ [ [ 112.599136111839201, 34.717247656033777 ], [ 112.593605560442427, 34.717242139054186 ], [ 112.593538682263841, 34.720463477451936 ], [ 112.599068911482405, 34.720500882122181 ], [ 112.599136111839201, 34.717247656033777 ] ] ] ] } },
{ "type": "Feature", "properties": { "里坊": "白马寺" }, "geometry": { "type": "MultiPolygon", "coordinates": [ [ [ [ 112.593437525644646, 34.725335455053745 ], [ 112.598968199242776, 34.725376038088037 ], [ 112.599061928402392, 34.72083897640146 ], [ 112.593531786797058, 34.72079557776798 ], [ 112.593437525644646, 34.725335455053745 ] ] ] ] } },
{ "type": "Feature", "properties": { "里坊": "" }, "geometry": { "type": "MultiPolygon", "coordinates": [ [ [ [ 112.604565347466419, 34.733094558132343 ], [ 112.599169090587068, 34.733185968311894 ], [ 112.599071056079765, 34.737389841622651 ], [ 112.604275090318055, 34.73735694306751 ], [ 112.604331104815429, 34.737723778925726 ], [ 112.599062208705888, 34.737769200949991 ], [ 112.598965935989582, 34.741897092066708 ], [ 112.604383290390757, 34.74190325667383 ], [ 112.604565347466419, 34.733094558132343 ] ] ] ] } },
{ "type": "Feature", "properties": { "里坊": "" }, "geometry": { "type": "MultiPolygon", "coordinates": [ [ [ [ 112.60445388762956, 34.750014093856393 ], [ 112.604379454163677, 34.753404878179659 ], [ 112.609497194952851, 34.753449994639176 ], [ 112.609583279690057, 34.75001314937078 ], [ 112.60445388762956, 34.750014093856393 ] ] ] ] } },
{ "type": "Feature", "properties": { "里坊": "" }, "geometry": { "type": "MultiPolygon", "coordinates": [ [ [ [ 112.604539446929991, 34.746116107345003 ], [ 112.604461425586322, 34.749670697096938 ], [ 112.609591782380875, 34.749673690611331 ], [ 112.609681387674115, 34.746095954748206 ], [ 112.604539446929991, 34.746116107345003 ] ] ] ] } },
{ "type": "Feature", "properties": { "里坊": "" }, "geometry": { "type": "MultiPolygon", "coordinates": [ [ [ [ 112.60462209184513, 34.742350568695137 ], [ 112.604544769580372, 34.745873596505504 ], [ 112.609687462987978, 34.745853390709939 ], [ 112.609774806979871, 34.742365679799462 ], [ 112.60462209184513, 34.742350568695137 ] ] ] ] } },
{ "type": "Feature", "properties": { "里坊": "宝光寺/法云寺" }, "geometry": { "type": "MultiPolygon", "coordinates": [ [ [ [ 112.604986766267814, 34.725730792540105 ], [ 112.604903759987579, 34.729514349045161 ], [ 112.610096904337325, 34.729501455331452 ], [ 112.610190503065951, 34.725762484293647 ], [ 112.604986766267814, 34.725730792540105 ] ] ] ] } },
{ "type": "Feature", "properties": { "里坊": "融觉寺" }, "geometry": { "type": "MultiPolygon", "coordinates": [ [ [ [ 112.604895699088786, 34.729881739480206 ], [ 112.604833852931264, 34.732700525627457 ], [ 112.610019948185581, 34.732575354940948 ], [ 112.610087412305859, 34.729880619090778 ], [ 112.604895699088786, 34.729881739480206 ] ] ] ] } },
{ "type": "Feature", "properties": { "里坊": "" }, "geometry": { "type": "MultiPolygon", "coordinates": [ [ [ [ 112.604975086945274, 34.713262693665477 ], [ 112.599631620568516, 34.713346154888818 ], [ 112.599549787241344, 34.716857029988475 ], [ 112.604899947711544, 34.716900242973558 ], [ 112.604975086945274, 34.713262693665477 ] ] ] ] } },
{ "type": "Feature", "properties": { "里坊": "" }, "geometry": { "type": "MultiPolygon", "coordinates": [ [ [ [ 112.605075308716991, 34.708410421432362 ], [ 112.601215011852219, 34.709089216366891 ], [ 112.59973094187184, 34.709084630368849 ], [ 112.599637898152309, 34.713076826816945 ], [ 112.604980731030025, 34.712989494228673 ], [ 112.605075308716991, 34.708410421432362 ] ] ] ] } },
{ "type": "Feature", "properties": { "里坊": "" }, "geometry": { "type": "MultiPolygon", "coordinates": [ [ [ [ 112.605317909257195, 34.696662418663102 ], [ 112.600022264520732, 34.696582423734242 ], [ 112.599931818800897, 34.700464323627394 ], [ 112.605238467945526, 34.700509733560075 ], [ 112.605317909257195, 34.696662418663102 ] ] ] ] } },
{ "type": "Feature", "properties": { "里坊": "" }, "geometry": { "type": "MultiPolygon", "coordinates": [ [ [ [ 112.605233417057462, 34.700754387554824 ], [ 112.599926043465871, 34.700712212298825 ], [ 112.599833895648118, 34.704666769584819 ], [ 112.605151231905523, 34.704734216411353 ], [ 112.605233417057462, 34.700754387554824 ] ] ] ] } },
{ "type": "Feature", "properties": { "里坊": "" }, "geometry": { "type": "MultiPolygon", "coordinates": [ [ [ [ 112.605711856177081, 34.692665505343918 ], [ 112.605629765906173, 34.696410268056255 ], [ 112.610605915058571, 34.696500427254961 ], [ 112.610706946101786, 34.696461285842695 ], [ 112.610701995991917, 34.692739566904507 ], [ 112.605711856177081, 34.692665505343918 ] ] ] ] } },
{ "type": "Feature", "properties": { "里坊": "崇虚寺" }, "geometry": { "type": "MultiPolygon", "coordinates": [ [ [ [ 112.605092132709558, 34.70759578132563 ], [ 112.605147117440225, 34.704933397048933 ], [ 112.599829240851022, 34.704866526487024 ], [ 112.59974773980673, 34.708363860999881 ], [ 112.601451921254636, 34.708238724762822 ], [ 112.604839217744228, 34.707605351154378 ], [ 112.605092132709558, 34.70759578132563 ] ] ] ] } },
{ "type": "Feature", "properties": { "里坊": "" }, "geometry": { "type": "MultiPolygon", "coordinates": [ [ [ [ 112.605172722492043, 34.717253392370246 ], [ 112.605100603221857, 34.720541393201408 ], [ 112.610358458397243, 34.720576463533426 ], [ 112.610491233199909, 34.71725819873123 ], [ 112.605172722492043, 34.717253392370246 ] ] ] ] } },
{ "type": "Feature", "properties": { "里坊": "" }, "geometry": { "type": "MultiPolygon", "coordinates": [ [ [ [ 112.604993585401616, 34.725419966308081 ], [ 112.610163137002132, 34.72545741805623 ], [ 112.610344442114197, 34.72092674037372 ], [ 112.605093043707598, 34.720886020953124 ], [ 112.604993585401616, 34.725419966308081 ] ] ] ] } },
{ "type": "Feature", "properties": { "里坊": "" }, "geometry": { "type": "MultiPolygon", "coordinates": [ [ [ [ 112.611049759347551, 34.697172981170908 ], [ 112.610707886620247, 34.697168372758583 ], [ 112.610707321608231, 34.696743595087014 ], [ 112.605624136970718, 34.696667037881916 ], [ 112.605539835964265, 34.7005123055498 ], [ 112.611002550970113, 34.70055879634058 ], [ 112.611049759347551, 34.697172981170908 ] ] ] ] } },
{ "type": "Feature", "properties": { "里坊": "" }, "geometry": { "type": "MultiPolygon", "coordinates": [ [ [ [ 112.610999188859722, 34.700799944302105 ], [ 112.605534475751909, 34.700756773225962 ], [ 112.605447185260715, 34.704737963355655 ], [ 112.610943307760081, 34.704807420791873 ], [ 112.610999188859722, 34.700799944302105 ] ] ] ] } },
{ "type": "Feature", "properties": { "里坊": "" }, "geometry": { "type": "MultiPolygon", "coordinates": [ [ [ [ 112.610904770156779, 34.707570975179337 ], [ 112.610940539094898, 34.705005982934729 ], [ 112.605442819315286, 34.704937108162348 ], [ 112.605384764562871, 34.707584708259091 ], [ 112.608036252476467, 34.707484341664866 ], [ 112.610804068130435, 34.707560673231853 ], [ 112.610904770156779, 34.707570975179337 ] ] ] ] } },
{ "type": "Feature", "properties": { "里坊": "" }, "geometry": { "type": "MultiPolygon", "coordinates": [ [ [ [ 112.615139244147741, 34.7500118826216 ], [ 112.609978359757108, 34.750013067263353 ], [ 112.609866589361516, 34.753453243246213 ], [ 112.615103445187103, 34.753499171303623 ], [ 112.615139244147741, 34.7500118826216 ] ] ] ] } },
{ "type": "Feature", "properties": { "里坊": "金庸城" }, "geometry": { "type": "MultiPolygon", "coordinates": [ [ [ [ 112.612498845244858, 34.746084820372616 ], [ 112.612502285601693, 34.746365245332719 ], [ 112.612462694516424, 34.749675271494873 ], [ 112.61514268556796, 34.749676686535089 ], [ 112.615143606503921, 34.749586952959596 ], [ 112.615700012488759, 34.74834259498332 ], [ 112.615641701746938, 34.746546003389199 ], [ 112.615580660701582, 34.746072566931488 ], [ 112.612498845244858, 34.746084820372616 ] ] ] ] } },
{ "type": "Feature", "properties": { "里坊": "" }, "geometry": { "type": "MultiPolygon", "coordinates": [ [ [ [ 112.612453320632497, 34.742373449605559 ], [ 112.612495870025285, 34.745842264530509 ], [ 112.615549398574004, 34.745830094720333 ], [ 112.615528863780412, 34.745670819716132 ], [ 112.615527968027308, 34.745025870745238 ], [ 112.615189531541233, 34.742446387987989 ], [ 112.615188315566428, 34.742381321902855 ], [ 112.612453320632497, 34.742373449605559 ] ] ] ] } },
{ "type": "Feature", "properties": { "里坊": "" }, "geometry": { "type": "MultiPolygon", "coordinates": [ [ [ [ 112.616154476954563, 34.697241674817406 ], [ 112.611594377736012, 34.697180320376596 ], [ 112.611517306218488, 34.700563164926855 ], [ 112.616089653779227, 34.70060187142947 ], [ 112.616154476954563, 34.697241674817406 ] ] ] ] } },
{ "type": "Feature", "properties": { "里坊": "" }, "geometry": { "type": "MultiPolygon", "coordinates": [ [ [ [ 112.61608506104794, 34.700839901783525 ], [ 112.611511818956828, 34.700803981321044 ], [ 112.61142046315581, 34.704813439342466 ], [ 112.61600728357125, 34.704871198346922 ], [ 112.61608506104794, 34.700839901783525 ] ] ] ] } },
{ "type": "Feature", "properties": { "里坊": "" }, "geometry": { "type": "MultiPolygon", "coordinates": [ [ [ [ 112.616003463037231, 34.705069191913303 ], [ 112.611415940339072, 34.705011927379232 ], [ 112.61136021215242, 34.707457514523746 ], [ 112.611356024036951, 34.707586572638071 ], [ 112.615946531882059, 34.707625620704157 ], [ 112.615976502131062, 34.706466516601523 ], [ 112.616003463037231, 34.705069191913303 ] ] ] ] } },
{ "type": "Feature", "properties": { "里坊": "" }, "geometry": { "type": "MultiPolygon", "coordinates": [ [ [ [ 112.620939816778233, 34.750010291357825 ], [ 112.615759991869638, 34.750011725627253 ], [ 112.615722421145747, 34.750132203506887 ], [ 112.615701577015571, 34.753504402996974 ], [ 112.622020966549911, 34.753559495366709 ], [ 112.62183373749545, 34.752563073280029 ], [ 112.621069411225719, 34.750594605469672 ], [ 112.620939816778233, 34.750010291357825 ] ] ] ] } },
{ "type": "Feature", "properties": { "里坊": "禅虚寺" }, "geometry": { "type": "MultiPolygon", "coordinates": [ [ [ [ 112.620552424911423, 34.746052634880769 ], [ 112.6160461298537, 34.746070709253779 ], [ 112.616207568195591, 34.748576471242004 ], [ 112.615864357559857, 34.749677057569407 ], [ 112.62086645540117, 34.749679511473104 ], [ 112.62076282617268, 34.749212259501043 ], [ 112.620552424911423, 34.746052634880769 ] ] ] ] } },
{ "type": "Feature", "properties": { "里坊": "阅武场" }, "geometry": { "type": "MultiPolygon", "coordinates": [ [ [ [ 112.620360884819235, 34.74317604047522 ], [ 112.620308940861833, 34.742395897882709 ], [ 112.61585784562817, 34.742383240264957 ], [ 112.615908717030621, 34.743937754422539 ], [ 112.615979787835215, 34.745040953092236 ], [ 112.616301121395352, 34.74484154534084 ], [ 112.617047696664656, 34.744516291755282 ], [ 112.619484040497056, 34.743588992414686 ], [ 112.620360884819235, 34.74317604047522 ] ] ] ] } },
{ "type": "Feature", "properties": { "里坊": "" }, "geometry": { "type": "MultiPolygon", "coordinates": [ [ [ [ 112.622402849151413, 34.697325466706744 ], [ 112.616642426955096, 34.697248229635512 ], [ 112.616606292378663, 34.700606233884727 ], [ 112.622355606686554, 34.700654635660236 ], [ 112.622402849151413, 34.697325466706744 ] ] ] ] } },
{ "type": "Feature", "properties": { "里坊": "利民里" }, "geometry": { "type": "MultiPolygon", "coordinates": [ [ [ [ 112.622352282553621, 34.700888849260075 ], [ 112.616603734127949, 34.70084396484485 ], [ 112.616560318853146, 34.704878150461433 ], [ 112.622294646456325, 34.704950089670426 ], [ 112.622352282553621, 34.700888849260075 ] ] ] ] } },
{ "type": "Feature", "properties": { "里坊": "" }, "geometry": { "type": "MultiPolygon", "coordinates": [ [ [ [ 112.622291846280561, 34.705147406356168 ], [ 112.616558189273547, 34.705076104571347 ], [ 112.616530696710655, 34.707630577377714 ], [ 112.622255915270273, 34.707679008184968 ], [ 112.622291846280561, 34.705147406356168 ] ] ] ] } },
{ "type": "Feature", "properties": { "里坊": "" }, "geometry": { "type": "MultiPolygon", "coordinates": [ [ [ [ 112.62559256961687, 34.750008815573544 ], [ 112.621381517382815, 34.75001015860979 ], [ 112.621440781395748, 34.750448430242322 ], [ 112.622862831174842, 34.753566809876865 ], [ 112.625597978070488, 34.753590535003944 ], [ 112.62559256961687, 34.750008815573544 ] ] ] ] } },
{ "type": "Feature", "properties": { "里坊": "" }, "geometry": { "type": "MultiPolygon", "coordinates": [ [ [ [ 112.62662686119549, 34.746294179701351 ], [ 112.62662645600038, 34.746028008803904 ], [ 112.62088593737343, 34.746051290103622 ], [ 112.620882481921811, 34.746319469583035 ], [ 112.621336837105076, 34.749679731791041 ], [ 112.625592075601872, 34.749681641327939 ], [ 112.625587394559773, 34.746581371317788 ], [ 112.62662686119549, 34.746294179701351 ] ] ] ] } },
{ "type": "Feature", "properties": { "里坊": "" }, "geometry": { "type": "MultiPolygon", "coordinates": [ [ [ [ 112.630733202193909, 34.750006978183606 ], [ 112.625965554888964, 34.750008689135896 ], [ 112.625878586698619, 34.753592965608455 ], [ 112.63059483552037, 34.753633719620986 ], [ 112.630733202193909, 34.750006978183606 ] ] ] ] } },
{ "type": "Feature", "properties": { "里坊": "" }, "geometry": { "type": "MultiPolygon", "coordinates": [ [ [ [ 112.627939314235519, 34.746682031951167 ], [ 112.627952085420802, 34.746689391283184 ], [ 112.626034423817998, 34.747170108500278 ], [ 112.625973485551668, 34.749681805467489 ], [ 112.630745533131616, 34.749683756447169 ], [ 112.630870103120571, 34.746418329487419 ], [ 112.630332829164672, 34.746431947776607 ], [ 112.628603759036139, 34.746615043424086 ], [ 112.628592878867693, 34.746613772166839 ], [ 112.628512830793582, 34.74664504107831 ], [ 112.628044848674108, 34.746675043478383 ], [ 112.627939314235519, 34.746682031951167 ] ] ] ] } },
{ "type": "Feature", "properties": { "里坊": "" }, "geometry": { "type": "MultiPolygon", "coordinates": [ [ [ [ 112.635606617074416, 34.75000503754331 ], [ 112.63111564742816, 34.750006833091277 ], [ 112.630931712795217, 34.753636623779734 ], [ 112.635530234196679, 34.753676172148232 ], [ 112.635606617074416, 34.75000503754331 ] ] ] ] } },
{ "type": "Feature", "properties": { "里坊": "" }, "geometry": { "type": "MultiPolygon", "coordinates": [ [ [ [ 112.635687652529967, 34.746109954290809 ], [ 112.632363625848086, 34.746112554102865 ], [ 112.631266094034387, 34.74640829072618 ], [ 112.631204780739722, 34.74640984487894 ], [ 112.631297679757097, 34.746414255714015 ], [ 112.631132010541918, 34.749683906257694 ], [ 112.635613263786851, 34.749685554388449 ], [ 112.635687652529967, 34.746109954290809 ] ] ] ] } },
{ "type": "Feature", "properties": { "里坊": "双女寺" }, "geometry": { "type": "MultiPolygon", "coordinates": [ [ [ [ 112.626818585395768, 34.697384489559894 ], [ 112.623252465545278, 34.697336835674001 ], [ 112.623172043294673, 34.700661487183538 ], [ 112.626862138651404, 34.700692386103071 ], [ 112.626818585395768, 34.697384489559894 ] ] ] ] } },
{ "type": "Feature", "properties": { "里坊": "灵台" }, "geometry": { "type": "MultiPolygon", "coordinates": [ [ [ [ 112.630194403521287, 34.696185155869351 ], [ 112.627410237054704, 34.696150886772521 ], [ 112.627360332748978, 34.697391719914116 ], [ 112.627191351370527, 34.697389465033986 ], [ 112.627216122219323, 34.700695343819817 ], [ 112.630488063588658, 34.700722638116531 ], [ 112.630194403521287, 34.696185155869351 ] ] ] ] } },
{ "type": "Feature", "properties": { "里坊": "景明寺" }, "geometry": { "type": "MultiPolygon", "coordinates": [ [ [ [ 112.630502910457309, 34.700952025218434 ], [ 112.623166389297438, 34.700895183933724 ], [ 112.623068058594868, 34.704959772244322 ], [ 112.630768537195081, 34.705055904728177 ], [ 112.630502910457309, 34.700952025218434 ] ] ] ] } },
{ "type": "Feature", "properties": { "里坊": "" }, "geometry": { "type": "MultiPolygon", "coordinates": [ [ [ [ 112.630781262316532, 34.70525248294571 ], [ 112.623063287682442, 34.705156979163021 ], [ 112.623002116394758, 34.707685301156161 ], [ 112.625724513157792, 34.707708220025332 ], [ 112.630948528237496, 34.707836489403462 ], [ 112.630781262316532, 34.70525248294571 ] ] ] ] } },
{ "type": "Feature", "properties": { "里坊": "明堂" }, "geometry": { "type": "MultiPolygon", "coordinates": [ [ [ [ 112.635117573195004, 34.69624559749613 ], [ 112.630516162968533, 34.696189111917924 ], [ 112.630837179361109, 34.7007255454619 ], [ 112.635199986876799, 34.700761790761064 ], [ 112.635117573195004, 34.69624559749613 ] ] ] ] } },
{ "type": "Feature", "properties": { "里坊": "" }, "geometry": { "type": "MultiPolygon", "coordinates": [ [ [ [ 112.635204119222777, 34.70098821717805 ], [ 112.630853397771958, 34.700954730035512 ], [ 112.631143975552547, 34.705060579541247 ], [ 112.635279380278362, 34.705111992209147 ], [ 112.635204119222777, 34.70098821717805 ] ] ] ] } },
{ "type": "Feature", "properties": { "里坊": "" }, "geometry": { "type": "MultiPolygon", "coordinates": [ [ [ [ 112.635282955982305, 34.705307963535844 ], [ 112.631157886925024, 34.705257131205649 ], [ 112.631341130088686, 34.707846120170593 ], [ 112.635331068769332, 34.707943923587735 ], [ 112.635282955982305, 34.705307963535844 ] ] ] ] } },
{ "type": "Feature", "properties": { "里坊": "辟雍" }, "geometry": { "type": "MultiPolygon", "coordinates": [ [ [ [ 112.640818745336944, 34.696381214760144 ], [ 112.63542736560558, 34.696248808363528 ], [ 112.635534814245446, 34.700764566187104 ], [ 112.64080634566028, 34.700808138390705 ], [ 112.640818745336944, 34.696381214760144 ] ] ] ] } },
{ "type": "Feature", "properties": { "里坊": "" }, "geometry": { "type": "MultiPolygon", "coordinates": [ [ [ [ 112.640805720903003, 34.701031104135488 ], [ 112.635540198023733, 34.700990797395981 ], [ 112.635638374831046, 34.705116448774127 ], [ 112.640794098768481, 34.705180336084389 ], [ 112.640805720903003, 34.701031104135488 ] ] ] ] } },
{ "type": "Feature", "properties": { "里坊": "" }, "geometry": { "type": "MultiPolygon", "coordinates": [ [ [ [ 112.640827908277018, 34.693109193198651 ], [ 112.635528950199443, 34.693027349465218 ], [ 112.635427605301572, 34.695868229378824 ], [ 112.640819783463598, 34.696010405386808 ], [ 112.640827908277018, 34.693109193198651 ] ] ] ] } },
{ "type": "Feature", "properties": { "里坊": "" }, "geometry": { "type": "MultiPolygon", "coordinates": [ [ [ [ 112.640793551603267, 34.705375650368453 ], [ 112.6356430374193, 34.705312393643219 ], [ 112.635705882662535, 34.707953104819872 ], [ 112.636668593118529, 34.707976680796961 ], [ 112.640786277486384, 34.70797199971409 ], [ 112.640793551603267, 34.705375650368453 ] ] ] ] } },
{ "type": "Feature", "properties": { "里坊": "" }, "geometry": { "type": "MultiPolygon", "coordinates": [ [ [ [ 112.640183169666713, 34.75000303716417 ], [ 112.636100518933389, 34.750004829614099 ], [ 112.636015652616749, 34.753680336874204 ], [ 112.639992569512657, 34.753714384775741 ], [ 112.639948869179634, 34.75272564001618 ], [ 112.639400974972915, 34.75115116417615 ], [ 112.639793375809091, 34.750325661424206 ], [ 112.640183169666713, 34.75000303716417 ] ] ] ] } },
{ "type": "Feature", "properties": { "里坊": "" }, "geometry": { "type": "MultiPolygon", "coordinates": [ [ [ [ 112.64020020547818, 34.746106280792098 ], [ 112.636190452091711, 34.746109553095209 ], [ 112.636107886262451, 34.749685726026854 ], [ 112.640198589744841, 34.749687070020997 ], [ 112.640273647961195, 34.747724938778141 ], [ 112.640089759963445, 34.746450065920236 ], [ 112.64020020547818, 34.746106280792098 ] ] ] ] } },
{ "type": "Feature", "properties": { "里坊": "" }, "geometry": { "type": "MultiPolygon", "coordinates": [ [ [ [ 112.632855897311288, 34.745710468268065 ], [ 112.640331614460806, 34.745692550989013 ], [ 112.640420328808219, 34.744899583090948 ], [ 112.640419837220932, 34.744608377087353 ], [ 112.639919728644998, 34.744675548218396 ], [ 112.636627469383143, 34.745057899717388 ], [ 112.635502736871899, 34.745250939419662 ], [ 112.633666293385545, 34.745533747257937 ], [ 112.632855897311288, 34.745710468268065 ] ] ] ] } },
{ "type": "Feature", "properties": { "里坊": "建阳里" }, "geometry": { "type": "MultiPolygon", "coordinates": [ [ [ [ 112.645701271756607, 34.737204294128851 ], [ 112.645696223900586, 34.73286124600633 ], [ 112.643388671072771, 34.732867102749495 ], [ 112.643394865914772, 34.732918705482575 ], [ 112.641904697631688, 34.733085730728739 ], [ 112.641718316913611, 34.7372107155335 ], [ 112.645701271756607, 34.737204294128851 ] ] ] ] } },
{ "type": "Feature", "properties": { "里坊": "" }, "geometry": { "type": "MultiPolygon", "coordinates": [ [ [ [ 112.645716145669269, 34.750000390051667 ], [ 112.640588011033401, 34.750002852011761 ], [ 112.640580604943509, 34.750124744208534 ], [ 112.639915886478036, 34.751125573417674 ], [ 112.639916727625305, 34.751625605229954 ], [ 112.640464043599323, 34.752850056380467 ], [ 112.640677271470722, 34.753549856791857 ], [ 112.640671490356269, 34.753720183931975 ], [ 112.645720520871606, 34.753763195129501 ], [ 112.645716145669269, 34.750000390051667 ] ] ] ] } },
{ "type": "Feature", "properties": { "里坊": "" }, "geometry": { "type": "MultiPolygon", "coordinates": [ [ [ [ 112.645711613411692, 34.746101567954732 ], [ 112.640787039888934, 34.746105791179772 ], [ 112.640727957476869, 34.747699414175678 ], [ 112.640607189174403, 34.749687196885958 ], [ 112.645715783040842, 34.749688665976734 ], [ 112.645711613411692, 34.746101567954732 ] ] ] ] } },
{ "type": "Feature", "properties": { "里坊": "" }, "geometry": { "type": "MultiPolygon", "coordinates": [ [ [ [ 112.645711121735602, 34.745679374804467 ], [ 112.645706573992797, 34.741767076903827 ], [ 112.641636934926552, 34.741743405730162 ], [ 112.641637478296076, 34.742062531492827 ], [ 112.641499214625568, 34.743426233010595 ], [ 112.641009035097426, 34.744529237444283 ], [ 112.640782440984083, 34.744559673101364 ], [ 112.640843825624486, 34.744574073704641 ], [ 112.640802402844116, 34.745691407689904 ], [ 112.645711121735602, 34.745679374804467 ] ] ] ] } },
{ "type": "Feature", "properties": { "里坊": "" }, "geometry": { "type": "MultiPolygon", "coordinates": [ [ [ [ 112.645653985203907, 34.696499759590516 ], [ 112.641182675011891, 34.696390143794261 ], [ 112.641151102719959, 34.700810979790987 ], [ 112.645659034506437, 34.700848047031698 ], [ 112.645653985203907, 34.696499759590516 ] ] ] ] } },
{ "type": "Feature", "properties": { "里坊": "" }, "geometry": { "type": "MultiPolygon", "coordinates": [ [ [ [ 112.645659289670007, 34.701068055091021 ], [ 112.641149511467503, 34.7010337276134 ], [ 112.641119865768133, 34.705184365045426 ], [ 112.645664135416695, 34.705240481613288 ], [ 112.645659289670007, 34.701068055091021 ] ] ] ] } },
{ "type": "Feature", "properties": { "里坊": "" }, "geometry": { "type": "MultiPolygon", "coordinates": [ [ [ [ 112.645650134402871, 34.693183474036026 ], [ 112.641206063061759, 34.693115025557987 ], [ 112.641185318182821, 34.696020034770058 ], [ 112.645653564347072, 34.696137655177502 ], [ 112.645650134402871, 34.693183474036026 ] ] ] ] } },
{ "type": "Feature", "properties": { "里坊": "" }, "geometry": { "type": "MultiPolygon", "coordinates": [ [ [ [ 112.645664361750335, 34.705435272184239 ], [ 112.641118470074829, 34.705379633439726 ], [ 112.641099955526926, 34.707971637421949 ], [ 112.641249656768323, 34.707971464235669 ], [ 112.641260656378932, 34.708844006607862 ], [ 112.645668376719016, 34.708892711045159 ], [ 112.645664361750335, 34.705435272184239 ] ] ] ] } },
{ "type": "Feature", "properties": { "里坊": "" }, "geometry": { "type": "MultiPolygon", "coordinates": [ [ [ [ 112.645668781420909, 34.709240525404375 ], [ 112.641265236604426, 34.709207289989102 ], [ 112.64131579618649, 34.713217431861949 ], [ 112.645673448245716, 34.713258437567866 ], [ 112.645668781420909, 34.709240525404375 ] ] ] ] } },
{ "type": "Feature", "properties": { "里坊": "" }, "geometry": { "type": "MultiPolygon", "coordinates": [ [ [ [ 112.645673932100422, 34.713675137563996 ], [ 112.641320934541199, 34.7136249598775 ], [ 112.641347699472675, 34.715747654923589 ], [ 112.641519514907642, 34.717195785453136 ], [ 112.645678071306918, 34.717238000862508 ], [ 112.645673932100422, 34.713675137563996 ] ] ] ] } },
{ "type": "Feature", "properties": { "里坊": "" }, "geometry": { "type": "MultiPolygon", "coordinates": [ [ [ [ 112.645678261002487, 34.717401847956054 ], [ 112.641538668159313, 34.717357218175067 ], [ 112.641968227397328, 34.720977485639558 ], [ 112.645682457203606, 34.721013884631148 ], [ 112.645678261002487, 34.717401847956054 ] ] ] ] } },
{ "type": "Feature", "properties": { "里坊": "" }, "geometry": { "type": "MultiPolygon", "coordinates": [ [ [ [ 112.645682750077242, 34.721265961936368 ], [ 112.642214697761318, 34.721243562100717 ], [ 112.641999829341614, 34.721243812279106 ], [ 112.642492383905505, 34.725394571128959 ], [ 112.645687591242748, 34.725432543119958 ], [ 112.645682750077242, 34.721265961936368 ] ] ] ] } },
{ "type": "Feature", "properties": { "里坊": "东安里" }, "geometry": { "type": "MultiPolygon", "coordinates": [ [ [ [ 112.645692467541906, 34.729628888567127 ], [ 112.645688158331552, 34.725920388886827 ], [ 112.642555249790036, 34.725924088133134 ], [ 112.643004869321103, 34.729669892345029 ], [ 112.645692467541906, 34.729628888567127 ] ] ] ] } },
{ "type": "Feature", "properties": { "里坊": "龙华寺" }, "geometry": { "type": "MultiPolygon", "coordinates": [ [ [ [ 112.645695882800609, 34.732567963370414 ], [ 112.645692911251444, 34.730011330884608 ], [ 112.64305113120399, 34.730055281803018 ], [ 112.643353887238987, 34.732577346366654 ], [ 112.645695882800609, 34.732567963370414 ] ] ] ] } },
{ "type": "Feature", "properties": { "里坊": "" }, "geometry": { "type": "MultiPolygon", "coordinates": [ [ [ [ 112.645701568297198, 34.737459642117045 ], [ 112.641706837510554, 34.737464761112811 ], [ 112.641533073199895, 34.741310105932342 ], [ 112.645706080204718, 34.741341154332261 ], [ 112.645701568297198, 34.737459642117045 ] ] ] ] } },
{ "type": "Feature", "properties": { "里坊": "绥民里" }, "geometry": { "type": "MultiPolygon", "coordinates": [ [ [ [ 112.65107667774015, 34.73719542258911 ], [ 112.65105625359206, 34.732847473407979 ], [ 112.646241587977414, 34.732859855592345 ], [ 112.646230432213073, 34.737203431542667 ], [ 112.65107667774015, 34.73719542258911 ] ] ] ] } },
{ "type": "Feature", "properties": { "里坊": "" }, "geometry": { "type": "MultiPolygon", "coordinates": [ [ [ [ 112.651136828112371, 34.749997553730779 ], [ 112.646197559046385, 34.750000148065951 ], [ 112.646187879852008, 34.753767166091194 ], [ 112.651154741791458, 34.753809254073332 ], [ 112.651136828112371, 34.749997553730779 ] ] ] ] } },
{ "type": "Feature", "properties": { "里坊": "" }, "geometry": { "type": "MultiPolygon", "coordinates": [ [ [ [ 112.651118498564372, 34.746096702377265 ], [ 112.646207576501652, 34.746101131858786 ], [ 112.646198359461991, 34.74968879398407 ], [ 112.651135383543789, 34.749689990138378 ], [ 112.651118498564372, 34.746096702377265 ] ] ] ] } },
{ "type": "Feature", "properties": { "里坊": "" }, "geometry": { "type": "MultiPolygon", "coordinates": [ [ [ [ 112.651116474222135, 34.745665897140555 ], [ 112.651098301869737, 34.741798228215551 ], [ 112.646218701995707, 34.741770045939127 ], [ 112.64620866222792, 34.745678144472819 ], [ 112.651116474222135, 34.745665897140555 ] ] ] ] } },
{ "type": "Feature", "properties": { "里坊": "" }, "geometry": { "type": "MultiPolygon", "coordinates": [ [ [ [ 112.650886195259559, 34.696627821304119 ], [ 112.646334886236971, 34.696516437949839 ], [ 112.646323757099111, 34.700853498603522 ], [ 112.650906203360663, 34.700890983027918 ], [ 112.650886195259559, 34.696627821304119 ] ] ] ] } },
{ "type": "Feature", "properties": { "里坊": "" }, "geometry": { "type": "MultiPolygon", "coordinates": [ [ [ [ 112.650907220807895, 34.701107791887047 ], [ 112.646323193593261, 34.70107309479009 ], [ 112.646312477570405, 34.705248474127032 ], [ 112.650926923091532, 34.705305259754965 ], [ 112.650907220807895, 34.701107791887047 ] ] ] ] } },
{ "type": "Feature", "properties": { "里坊": "" }, "geometry": { "type": "MultiPolygon", "coordinates": [ [ [ [ 112.650870407471103, 34.693263671180276 ], [ 112.646343411076145, 34.693194137651865 ], [ 112.646335812549381, 34.696155600227009 ], [ 112.650884539795101, 34.696275145534237 ], [ 112.650870407471103, 34.693263671180276 ] ] ] ] } },
{ "type": "Feature", "properties": { "里坊": "" }, "geometry": { "type": "MultiPolygon", "coordinates": [ [ [ [ 112.650927835282417, 34.705499480682704 ], [ 112.64631197722386, 34.705443184438685 ], [ 112.646303105139467, 34.708899711194924 ], [ 112.650944036889143, 34.708950795571937 ], [ 112.650927835282417, 34.705499480682704 ] ] ] ] } },
{ "type": "Feature", "properties": { "里坊": "" }, "geometry": { "type": "MultiPolygon", "coordinates": [ [ [ [ 112.650945582865958, 34.7092801419304 ], [ 112.646302219406323, 34.70924529336768 ], [ 112.646291903105123, 34.713264244815036 ], [ 112.650964493389964, 34.713308017133265 ], [ 112.650945582865958, 34.7092801419304 ] ] ] ] } },
{ "type": "Feature", "properties": { "里坊": "平等寺" }, "geometry": { "type": "MultiPolygon", "coordinates": [ [ [ [ 112.65096650218905, 34.713735936179575 ], [ 112.64629083018103, 34.713682235716256 ], [ 112.646281686324173, 34.717244117070301 ], [ 112.650983197748729, 34.717291651043119 ], [ 112.65096650218905, 34.713735936179575 ] ] ] ] } },
{ "type": "Feature", "properties": { "里坊": "" }, "geometry": { "type": "MultiPolygon", "coordinates": [ [ [ [ 112.650983982558103, 34.717458845295518 ], [ 112.646281264325211, 34.717408337183791 ], [ 112.646271992573162, 34.721019651740761 ], [ 112.651000920007561, 34.721065808388268 ], [ 112.650983982558103, 34.717458845295518 ] ] ] ] } },
{ "type": "Feature", "properties": { "里坊": "" }, "geometry": { "type": "MultiPolygon", "coordinates": [ [ [ [ 112.651002019948166, 34.721300127557456 ], [ 112.646271350320063, 34.721269754250173 ], [ 112.646260644052703, 34.725439344093267 ], [ 112.651021723006977, 34.725495746909964 ], [ 112.651002019948166, 34.721300127557456 ] ] ] ] } },
{ "type": "Feature", "properties": { "里坊": "" }, "geometry": { "type": "MultiPolygon", "coordinates": [ [ [ [ 112.651040751270983, 34.729547116285133 ], [ 112.651023687380189, 34.725913903758702 ], [ 112.646259410779365, 34.725919705700605 ], [ 112.646249907699143, 34.729620376864368 ], [ 112.651040751270983, 34.729547116285133 ] ] ] ] } },
{ "type": "Feature", "properties": { "里坊": "" }, "geometry": { "type": "MultiPolygon", "coordinates": [ [ [ [ 112.651054838740691, 34.732546324477362 ], [ 112.651042513081791, 34.729922155409362 ], [ 112.646248927777535, 34.730002073609562 ], [ 112.646242344170062, 34.732565767572353 ], [ 112.651054838740691, 34.732546324477362 ] ] ] ] } },
{ "type": "Feature", "properties": { "里坊": "" }, "geometry": { "type": "MultiPolygon", "coordinates": [ [ [ [ 112.651077886129073, 34.737452546154962 ], [ 112.646229776315124, 34.7374589555493 ], [ 112.646219794852186, 34.741344966995406 ], [ 112.651096341800056, 34.741381048522321 ], [ 112.651077886129073, 34.737452546154962 ] ] ] ] } },
{ "type": "Feature", "properties": { "里坊": "崇义里" }, "geometry": { "type": "MultiPolygon", "coordinates": [ [ [ [ 112.656608089820352, 34.737186045797174 ], [ 112.656539013610484, 34.732833142256197 ], [ 112.651321557618942, 34.732846786043687 ], [ 112.65134769824914, 34.737194968790554 ], [ 112.656608089820352, 34.737186045797174 ] ] ] ] } },
{ "type": "Feature", "properties": { "里坊": "" }, "geometry": { "type": "MultiPolygon", "coordinates": [ [ [ [ 112.656811386182326, 34.749994325815258 ], [ 112.65142468010184, 34.749997396278133 ], [ 112.651447620473917, 34.753811729715693 ], [ 112.656872714804749, 34.753857457164251 ], [ 112.656811386182326, 34.749994325815258 ] ] ] ] } },
{ "type": "Feature", "properties": { "里坊": "" }, "geometry": { "type": "MultiPolygon", "coordinates": [ [ [ [ 112.656749431280417, 34.746091381106467 ], [ 112.651401220507708, 34.746096441340697 ], [ 112.651422831878975, 34.749690054035369 ], [ 112.656806572764069, 34.749691119548743 ], [ 112.656749431280417, 34.746091381106467 ] ] ] ] } },
{ "type": "Feature", "properties": { "里坊": "" }, "geometry": { "type": "MultiPolygon", "coordinates": [ [ [ [ 112.656742450951938, 34.745651614956856 ], [ 112.656681796217825, 34.741830236747354 ], [ 112.651375384322961, 34.74179982301095 ], [ 112.651398627096626, 34.745665187003254 ], [ 112.656742450951938, 34.745651614956856 ] ] ] ] } },
{ "type": "Feature", "properties": { "里坊": "" }, "geometry": { "type": "MultiPolygon", "coordinates": [ [ [ [ 112.655966720477252, 34.696751954883915 ], [ 112.651103953823394, 34.69663314607471 ], [ 112.651129539811976, 34.700892805136512 ], [ 112.656033007309858, 34.700932715175071 ], [ 112.655966720477252, 34.696751954883915 ] ] ] ] } },
{ "type": "Feature", "properties": { "里坊": "" }, "geometry": { "type": "MultiPolygon", "coordinates": [ [ [ [ 112.656036395341388, 34.701146411052598 ], [ 112.651130841383903, 34.701109480230713 ], [ 112.651156062713156, 34.705308075233688 ], [ 112.656103347879437, 34.705368754097186 ], [ 112.656036395341388, 34.701146411052598 ] ] ] ] } },
{ "type": "Feature", "properties": { "里坊": "" }, "geometry": { "type": "MultiPolygon", "coordinates": [ [ [ [ 112.655912643051977, 34.693340920448641 ], [ 112.651083735601873, 34.693266943502366 ], [ 112.651101837549461, 34.696280852183172 ], [ 112.655961273284191, 34.696408366788894 ], [ 112.655912643051977, 34.693340920448641 ] ] ] ] } },
{ "type": "Feature", "properties": { "里坊": "" }, "geometry": { "type": "MultiPolygon", "coordinates": [ [ [ [ 112.656106419284043, 34.705562432280971 ], [ 112.651157229729719, 34.70550227420685 ], [ 112.651177962884532, 34.708953366220278 ], [ 112.656161061003075, 34.709008011348381 ], [ 112.656106419284043, 34.705562432280971 ] ] ] ] } },
{ "type": "Feature", "properties": { "里坊": "景宁寺" }, "geometry": { "type": "MultiPolygon", "coordinates": [ [ [ [ 112.656165994780579, 34.709319111190659 ], [ 112.651179937293449, 34.709281896257465 ], [ 112.65120414141596, 34.713310257054125 ], [ 112.656230037039535, 34.713357129529946 ], [ 112.656165994780579, 34.709319111190659 ] ] ] ] } },
{ "type": "Feature", "properties": { "里坊": "保明寺" }, "geometry": { "type": "MultiPolygon", "coordinates": [ [ [ [ 112.656237002006236, 34.71379625319716 ], [ 112.651206715671819, 34.713738690113317 ], [ 112.651228080338768, 34.717294121532369 ], [ 112.656293292862401, 34.717345119250098 ], [ 112.656237002006236, 34.71379625319716 ] ] ] ] } },
{ "type": "Feature", "properties": { "里坊": "" }, "geometry": { "type": "MultiPolygon", "coordinates": [ [ [ [ 112.656295997493018, 34.717515677839522 ], [ 112.651229085357201, 34.717461472356739 ], [ 112.651250760330399, 34.721068242059332 ], [ 112.656353138084157, 34.721117828541679 ], [ 112.656295997493018, 34.717515677839522 ] ] ] ] } },
{ "type": "Feature", "properties": { "里坊": "" }, "geometry": { "type": "MultiPolygon", "coordinates": [ [ [ [ 112.656356572254097, 34.721334285688421 ], [ 112.651252164061475, 34.72130172884156 ], [ 112.651277389370136, 34.725498770076953 ], [ 112.654639078862445, 34.725538475529071 ], [ 112.656425740841513, 34.725694221909166 ], [ 112.656356572254097, 34.721334285688421 ] ] ] ] } },
{ "type": "Feature", "properties": { "里坊": "" }, "geometry": { "type": "MultiPolygon", "coordinates": [ [ [ [ 112.656485547106939, 34.729463628416283 ], [ 112.656433411358762, 34.726177668652625 ], [ 112.653577006888909, 34.725910717784252 ], [ 112.651279881756921, 34.725913586495928 ], [ 112.65130169753688, 34.729543120714347 ], [ 112.656485547106939, 34.729463628416283 ] ] ] ] } },
{ "type": "Feature", "properties": { "里坊": "" }, "geometry": { "type": "MultiPolygon", "coordinates": [ [ [ [ 112.656534106847261, 34.732523956255875 ], [ 112.656491377634694, 34.729831083118277 ], [ 112.651303950098722, 34.72991779144693 ], [ 112.651319744741556, 34.732545249096525 ], [ 112.656534106847261, 34.732523956255875 ] ] ] ] } },
{ "type": "Feature", "properties": { "里坊": "" }, "geometry": { "type": "MultiPolygon", "coordinates": [ [ [ [ 112.656612199337985, 34.73744499459621 ], [ 112.651349243966266, 34.737452182080801 ], [ 112.651372878759432, 34.741383088403488 ], [ 112.656675318420994, 34.741422087937487 ], [ 112.656612199337985, 34.73744499459621 ] ] ] ] } },
{ "type": "Feature", "properties": { "里坊": "" }, "geometry": { "type": "MultiPolygon", "coordinates": [ [ [ [ 112.662216344605739, 34.737176282926903 ], [ 112.662132940646998, 34.732818266700157 ], [ 112.656958056157436, 34.732832037167512 ], [ 112.657016530319979, 34.73718534354736 ], [ 112.662216344605739, 34.737176282926903 ] ] ] ] } },
{ "type": "Feature", "properties": { "里坊": "" }, "geometry": { "type": "MultiPolygon", "coordinates": [ [ [ [ 112.662461640789559, 34.749990850276504 ], [ 112.657188614225561, 34.749994102146083 ], [ 112.657240569566795, 34.753860549101226 ], [ 112.662536579517095, 34.753904939897673 ], [ 112.662461640789559, 34.749990850276504 ] ] ] ] } },
{ "type": "Feature", "properties": { "里坊": "" }, "geometry": { "type": "MultiPolygon", "coordinates": [ [ [ [ 112.662386882915555, 34.746085792355991 ], [ 112.65713617076166, 34.746091005647699 ], [ 112.657184543707331, 34.749691185192141 ], [ 112.662455919705593, 34.749691982141918 ], [ 112.662386882915555, 34.746085792355991 ] ] ] ] } },
{ "type": "Feature", "properties": { "里坊": "" }, "geometry": { "type": "MultiPolygon", "coordinates": [ [ [ [ 112.662378292507981, 34.745637046877164 ], [ 112.662306034103338, 34.741862220605434 ], [ 112.657078958383053, 34.741832503648951 ], [ 112.657130254170582, 34.745650620675065 ], [ 112.662378292507981, 34.745637046877164 ] ] ] ] } },
{ "type": "Feature", "properties": { "里坊": "" }, "geometry": { "type": "MultiPolygon", "coordinates": [ [ [ [ 112.661445592806913, 34.696885583504866 ], [ 112.65647382774074, 34.696764333030579 ], [ 112.656529822968437, 34.700936748246875 ], [ 112.661523829956593, 34.700977172405963 ], [ 112.661445592806913, 34.696885583504866 ] ] ] ] } },
{ "type": "Feature", "properties": { "里坊": "" }, "geometry": { "type": "MultiPolygon", "coordinates": [ [ [ [ 112.661527852098217, 34.701187519416685 ], [ 112.656532687786779, 34.701150136502392 ], [ 112.65658938848901, 34.705374704554401 ], [ 112.661609098195399, 34.705436046200496 ], [ 112.661527852098217, 34.701187519416685 ] ] ] ] } },
{ "type": "Feature", "properties": { "里坊": "" }, "geometry": { "type": "MultiPolygon", "coordinates": [ [ [ [ 112.661379416488714, 34.693424438901424 ], [ 112.656427994839333, 34.693348804532214 ], [ 112.656469230437068, 34.696421684957272 ], [ 112.661439212262522, 34.696551879206858 ], [ 112.661379416488714, 34.693424438901424 ] ] ] ] } },
{ "type": "Feature", "properties": { "里坊": "" }, "geometry": { "type": "MultiPolygon", "coordinates": [ [ [ [ 112.661612790337216, 34.705629127594811 ], [ 112.656591987187326, 34.705568323840602 ], [ 112.656638228345926, 34.709013233822986 ], [ 112.661678565664843, 34.709068279673772 ], [ 112.661612790337216, 34.705629127594811 ] ] ] ] } },
{ "type": "Feature", "properties": { "里坊": "" }, "geometry": { "type": "MultiPolygon", "coordinates": [ [ [ [ 112.661684146225284, 34.709360060018795 ], [ 112.656642382450912, 34.709322656193976 ], [ 112.65669660161177, 34.713361470264026 ], [ 112.661761580605628, 34.713408478506828 ], [ 112.661684146225284, 34.709360060018795 ] ] ] ] } },
{ "type": "Feature", "properties": { "里坊": "细觉寺" }, "geometry": { "type": "MultiPolygon", "coordinates": [ [ [ [ 112.661841277962438, 34.717574760893044 ], [ 112.656752440147415, 34.717520550570036 ], [ 112.656800798941319, 34.721122168802232 ], [ 112.661910088712901, 34.721171588922083 ], [ 112.661841277962438, 34.717574760893044 ] ] ] ] } },
{ "type": "Feature", "properties": { "里坊": "" }, "geometry": { "type": "MultiPolygon", "coordinates": [ [ [ [ 112.661996041323505, 34.725664042744327 ], [ 112.661913874605006, 34.72136948875665 ], [ 112.656803685570921, 34.721337127575438 ], [ 112.656862705095136, 34.725732308730279 ], [ 112.65715907325891, 34.725758139972754 ], [ 112.661996041323505, 34.725664042744327 ] ] ] ] } },
{ "type": "Feature", "properties": { "里坊": "" }, "geometry": { "type": "MultiPolygon", "coordinates": [ [ [ [ 112.662067102227482, 34.729377789811963 ], [ 112.662005068803921, 34.726135831983541 ], [ 112.65689025126207, 34.726220357811215 ], [ 112.656869233451303, 34.726218393581384 ], [ 112.65691272836979, 34.729457067526823 ], [ 112.662067102227482, 34.729377789811963 ] ] ] ] } },
{ "type": "Feature", "properties": { "里坊": "" }, "geometry": { "type": "MultiPolygon", "coordinates": [ [ [ [ 112.662126865893356, 34.732500871392119 ], [ 112.662073986183131, 34.729737523102202 ], [ 112.656917654554448, 34.729823948267445 ], [ 112.656953894618667, 34.732522232749169 ], [ 112.662126865893356, 34.732500871392119 ] ] ] ] } },
{ "type": "Feature", "properties": { "里坊": "" }, "geometry": { "type": "MultiPolygon", "coordinates": [ [ [ [ 112.662221335654664, 34.737437084608089 ], [ 112.657020010209905, 34.737444428356184 ], [ 112.657073483426387, 34.741425007099799 ], [ 112.662298395524502, 34.74146319418427 ], [ 112.662221335654664, 34.737437084608089 ] ] ] ] } },
{ "type": "Feature", "properties": { "里坊": "" }, "geometry": { "type": "MultiPolygon", "coordinates": [ [ [ [ 112.66791259191902, 34.737166102639755 ], [ 112.66778385372973, 34.732802978956379 ], [ 112.662403733431603, 34.732817539848035 ], [ 112.662483276724132, 34.737175811639482 ], [ 112.66791259191902, 34.737166102639755 ] ] ] ] } },
{ "type": "Feature", "properties": { "里坊": "" }, "geometry": { "type": "MultiPolygon", "coordinates": [ [ [ [ 112.66829096045926, 34.749986990058964 ], [ 112.662717210667282, 34.749990686615604 ], [ 112.662788716780085, 34.753907047744001 ], [ 112.668408056165362, 34.753953885700881 ], [ 112.66829096045926, 34.749986990058964 ] ] ] ] } },
{ "type": "Feature", "properties": { "里坊": "" }, "geometry": { "type": "MultiPolygon", "coordinates": [ [ [ [ 112.668175639083401, 34.746079782738803 ], [ 112.662645914485267, 34.74608552957509 ], [ 112.662711756617071, 34.749692014645802 ], [ 112.668282271114023, 34.749692597307032 ], [ 112.668175639083401, 34.746079782738803 ] ] ] ] } },
{ "type": "Feature", "properties": { "里坊": "" }, "geometry": { "type": "MultiPolygon", "coordinates": [ [ [ [ 112.66816212383398, 34.745621825576144 ], [ 112.668052126154578, 34.741894629526712 ], [ 112.662568845245701, 34.74186370891271 ], [ 112.66263771501724, 34.745636369840909 ], [ 112.66816212383398, 34.745621825576144 ] ] ] ] } },
{ "type": "Feature", "properties": { "里坊": "" }, "geometry": { "type": "MultiPolygon", "coordinates": [ [ [ [ 112.666728386966454, 34.697014197037326 ], [ 112.661748392052289, 34.696892961787242 ], [ 112.661822912486755, 34.700979586777443 ], [ 112.666846480221551, 34.701020031530703 ], [ 112.666728386966454, 34.697014197037326 ] ] ] ] } },
{ "type": "Feature", "properties": { "里坊": "" }, "geometry": { "type": "MultiPolygon", "coordinates": [ [ [ [ 112.66685258642832, 34.701227143919525 ], [ 112.661826745111441, 34.701189750139221 ], [ 112.661904250965478, 34.705439646464704 ], [ 112.666978606887213, 34.70550143389098 ], [ 112.66685258642832, 34.701227143919525 ] ] ] ] } },
{ "type": "Feature", "properties": { "里坊": "" }, "geometry": { "type": "MultiPolygon", "coordinates": [ [ [ [ 112.666624926005213, 34.693504345987286 ], [ 112.661685234087017, 34.693429103644291 ], [ 112.661742318061656, 34.69655981237829 ], [ 112.666718829240025, 34.696689961421349 ], [ 112.666624926005213, 34.693504345987286 ] ] ] ] } },
{ "type": "Feature", "properties": { "里坊": "" }, "geometry": { "type": "MultiPolygon", "coordinates": [ [ [ [ 112.666984282777307, 34.705693949934748 ], [ 112.661907771262392, 34.705632693825549 ], [ 112.661970490673397, 34.709071461302763 ], [ 112.667085513292605, 34.709127097832969 ], [ 112.666984282777307, 34.705693949934748 ] ] ] ] } },
{ "type": "Feature", "properties": { "里坊": "" }, "geometry": { "type": "MultiPolygon", "coordinates": [ [ [ [ 112.667093559291956, 34.70939995906911 ], [ 112.661975792997481, 34.709362217080958 ], [ 112.662049647779142, 34.713411145852987 ], [ 112.667213251655184, 34.713458840696745 ], [ 112.667093559291956, 34.70939995906911 ] ] ] ] } },
{ "type": "Feature", "properties": { "里坊": "" }, "geometry": { "type": "MultiPolygon", "coordinates": [ [ [ [ 112.66722688993579, 34.71392129164348 ], [ 112.662057883583401, 34.713862604433437 ], [ 112.662122479318867, 34.717403548867367 ], [ 112.667331122117361, 34.717455522256046 ], [ 112.66722688993579, 34.71392129164348 ] ] ] ] } },
{ "type": "Feature", "properties": { "里坊": "" }, "geometry": { "type": "MultiPolygon", "coordinates": [ [ [ [ 112.667336357941934, 34.717633058687127 ], [ 112.662125658305058, 34.717577783623618 ], [ 112.662191273201131, 34.721174302956612 ], [ 112.667442297219637, 34.721224859821284 ], [ 112.667336357941934, 34.717633058687127 ] ] ] ] } },
{ "type": "Feature", "properties": { "里坊": "" }, "geometry": { "type": "MultiPolygon", "coordinates": [ [ [ [ 112.66757003642411, 34.725555369774334 ], [ 112.667447589739098, 34.721404290865586 ], [ 112.66219486687298, 34.721371261955255 ], [ 112.662273094880803, 34.725658647485957 ], [ 112.66757003642411, 34.725555369774334 ] ] ] ] } },
{ "type": "Feature", "properties": { "里坊": "" }, "geometry": { "type": "MultiPolygon", "coordinates": [ [ [ [ 112.667680245234919, 34.729291208171325 ], [ 112.667584432193479, 34.726043385009469 ], [ 112.662281718278905, 34.726131253929516 ], [ 112.662340883970188, 34.729373572410225 ], [ 112.667680245234919, 34.729291208171325 ] ] ] ] } },
{ "type": "Feature", "properties": { "里坊": "" }, "geometry": { "type": "MultiPolygon", "coordinates": [ [ [ [ 112.667774244466671, 34.732477300180889 ], [ 112.667690628386481, 34.729643135464734 ], [ 112.662347441912004, 34.729732933834512 ], [ 112.662397934204265, 34.732499745757472 ], [ 112.667774244466671, 34.732477300180889 ] ] ] ] } },
{ "type": "Feature", "properties": { "里坊": "" }, "geometry": { "type": "MultiPolygon", "coordinates": [ [ [ [ 112.66792034216293, 34.737428784289548 ], [ 112.662488038379095, 34.737436701959496 ], [ 112.662561568796377, 34.741465112001464 ], [ 112.668040625085879, 34.741504905103497 ], [ 112.66792034216293, 34.737428784289548 ] ] ] ] } },
{ "type": "Feature", "properties": { "里坊": "" }, "geometry": { "type": "MultiPolygon", "coordinates": [ [ [ [ 112.674100674924361, 34.732785579336216 ], [ 112.674316433496742, 34.737154340802071 ], [ 112.679341671392407, 34.73714487649373 ], [ 112.679002261640079, 34.732773316697873 ], [ 112.678959299092639, 34.73277197437389 ], [ 112.674100674924361, 34.732785579336216 ] ] ] ] } },
{ "type": "Feature", "properties": { "里坊": "" }, "geometry": { "type": "MultiPolygon", "coordinates": [ [ [ [ 112.674950091914496, 34.749982240387453 ], [ 112.675149077532794, 34.75400973138364 ], [ 112.680654927403921, 34.754055068740414 ], [ 112.680338260505621, 34.749978130727023 ], [ 112.674950091914496, 34.749982240387453 ] ] ] ] } },
{ "type": "Feature", "properties": { "里坊": "" }, "geometry": { "type": "MultiPolygon", "coordinates": [ [ [ [ 112.674756947139755, 34.746072617343778 ], [ 112.674935800275577, 34.74969295994299 ], [ 112.680316114395708, 34.749692988289567 ], [ 112.680034471616679, 34.746066615699561 ], [ 112.674756947139755, 34.746072617343778 ] ] ] ] } },
{ "type": "Feature", "properties": { "里坊": "" }, "geometry": { "type": "MultiPolygon", "coordinates": [ [ [ [ 112.67455236100497, 34.741930966265571 ], [ 112.674733808262886, 34.745604199222882 ], [ 112.679997444049675, 34.745589825884124 ], [ 112.67971552912816, 34.741959582079218 ], [ 112.67455236100497, 34.741930966265571 ] ] ] ] } },
{ "type": "Feature", "properties": { "里坊": "" }, "geometry": { "type": "MultiPolygon", "coordinates": [ [ [ [ 112.672341634973705, 34.697150604297633 ], [ 112.672534814823607, 34.701065578200371 ], [ 112.676801181186917, 34.701099565592145 ], [ 112.676817190715681, 34.70109632069633 ], [ 112.676553952122148, 34.697252798142856 ], [ 112.672341634973705, 34.697150604297633 ] ] ] ] } },
{ "type": "Feature", "properties": { "里坊": "" }, "geometry": { "type": "MultiPolygon", "coordinates": [ [ [ [ 112.672544865038716, 34.701269246704427 ], [ 112.672757178556964, 34.705571538933476 ], [ 112.6770992016815, 34.705624035248377 ], [ 112.677127217242699, 34.705622511738156 ], [ 112.676831194435309, 34.701300774585107 ], [ 112.672544865038716, 34.701269246704427 ] ] ] ] } },
{ "type": "Feature", "properties": { "里坊": "" }, "geometry": { "type": "MultiPolygon", "coordinates": [ [ [ [ 112.672165883864935, 34.693588509380753 ], [ 112.67232612996591, 34.69683636350171 ], [ 112.676504005417243, 34.696945277351929 ], [ 112.676532763871478, 34.696943408553061 ], [ 112.676307307906669, 34.693651249701517 ], [ 112.672165883864935, 34.693588509380753 ] ] ] ] } },
{ "type": "Feature", "properties": { "里坊": "" }, "geometry": { "type": "MultiPolygon", "coordinates": [ [ [ [ 112.672766649890079, 34.70576346613214 ], [ 112.672935785899483, 34.709190469259163 ], [ 112.675328229203373, 34.709216303955486 ], [ 112.677379894600023, 34.709311074261549 ], [ 112.677140462066617, 34.705815866399405 ], [ 112.672766649890079, 34.70576346613214 ] ] ] ] } },
{ "type": "Feature", "properties": { "里坊": "" }, "geometry": { "type": "MultiPolygon", "coordinates": [ [ [ [ 112.672948243712341, 34.70944287234061 ], [ 112.673149158729117, 34.713513399687017 ], [ 112.677670627903723, 34.713554763809526 ], [ 112.677391141916146, 34.709475249851707 ], [ 112.672948243712341, 34.70944287234061 ] ] ] ] } },
{ "type": "Feature", "properties": { "里坊": "" }, "geometry": { "type": "MultiPolygon", "coordinates": [ [ [ [ 112.67317261138831, 34.713988526346171 ], [ 112.673346704760661, 34.717515271222361 ], [ 112.677947713363835, 34.717560769796094 ], [ 112.677704049101891, 34.71403957444781 ], [ 112.67317261138831, 34.713988526346171 ] ] ] ] } },
{ "type": "Feature", "properties": { "里坊": "" }, "geometry": { "type": "MultiPolygon", "coordinates": [ [ [ [ 112.673355657898242, 34.717696634991846 ], [ 112.67353272030563, 34.721283215449795 ], [ 112.67815614599543, 34.721327311611027 ], [ 112.678208112644583, 34.721323474105048 ], [ 112.677960467742892, 34.717745070848551 ], [ 112.673355657898242, 34.717696634991846 ] ] ] ] } },
{ "type": "Feature", "properties": { "里坊": "" }, "geometry": { "type": "MultiPolygon", "coordinates": [ [ [ [ 112.673540575380486, 34.721442320907244 ], [ 112.673737696246135, 34.72543482573569 ], [ 112.67762986308766, 34.725358594268386 ], [ 112.678483240274787, 34.725298626130488 ], [ 112.678218344552491, 34.721471310708317 ], [ 112.673540575380486, 34.721442320907244 ] ] ] ] } },
{ "type": "Feature", "properties": { "里坊": "" }, "geometry": { "type": "MultiPolygon", "coordinates": [ [ [ [ 112.673759902688289, 34.725884556555712 ], [ 112.673923345815837, 34.729194606011298 ], [ 112.678747732141403, 34.729119737747261 ], [ 112.678514674834517, 34.725752780343853 ], [ 112.673759902688289, 34.725884556555712 ] ] ] ] } },
{ "type": "Feature", "properties": { "里坊": "" }, "geometry": { "type": "MultiPolygon", "coordinates": [ [ [ [ 112.673940292622476, 34.729537805801442 ], [ 112.674084135006765, 34.732450654201855 ], [ 112.678976866397448, 34.732429769549427 ], [ 112.67896687744296, 34.732285473668902 ], [ 112.678771779809054, 34.729467139751286 ], [ 112.678656583876617, 34.729458106686437 ], [ 112.673940292622476, 34.729537805801442 ] ] ] ] } },
{ "type": "Feature", "properties": { "里坊": "" }, "geometry": { "type": "MultiPolygon", "coordinates": [ [ [ [ 112.674329510935181, 34.737419131008032 ], [ 112.674533628933787, 34.741551743490767 ], [ 112.679654334540714, 34.741588438902646 ], [ 112.679686343314785, 34.741583727837742 ], [ 112.679362358588961, 34.737411315421497 ], [ 112.674329510935181, 34.737419131008032 ] ] ] ] } },
{ "type": "Feature", "properties": { "里坊": "" }, "geometry": { "type": "MultiPolygon", "coordinates": [ [ [ [ 112.572543287802972, 34.696174490482719 ], [ 112.568245097925868, 34.696228049576838 ], [ 112.568247578879365, 34.696336057952905 ], [ 112.56943835932222, 34.699666286798802 ], [ 112.570218209532868, 34.700205792588854 ], [ 112.572507194465757, 34.700225965495996 ], [ 112.572543287802972, 34.696174490482719 ] ] ] ] } },
{ "type": "Feature", "properties": { "里坊": "" }, "geometry": { "type": "MultiPolygon", "coordinates": [ [ [ [ 112.572504836063274, 34.700490629924701 ], [ 112.570944545047197, 34.700477836399052 ], [ 112.570605202279367, 34.700473512582157 ], [ 112.571674475815328, 34.701213216331375 ], [ 112.572402431023363, 34.704315139451069 ], [ 112.57247075245121, 34.704316022854378 ], [ 112.572504836063274, 34.700490629924701 ] ] ] ] } },
{ "type": "Feature", "properties": { "里坊": "" }, "geometry": { "type": "MultiPolygon", "coordinates": [ [ [ [ 112.57257897317983, 34.692168579435261 ], [ 112.568150322640108, 34.692101476714441 ], [ 112.568233571518093, 34.695726215928595 ], [ 112.572546573485425, 34.695805695293636 ], [ 112.57257897317983, 34.692168579435261 ] ] ] ] } },
{ "type": "Feature", "properties": { "里坊": "" }, "geometry": { "type": "MultiPolygon", "coordinates": [ [ [ [ 112.610299559598872, 34.739066766532375 ], [ 112.611336570464019, 34.739079744002943 ], [ 112.611161853829685, 34.737693969540629 ], [ 112.61106549642993, 34.736638534702678 ], [ 112.610635299699354, 34.7330334537765 ], [ 112.610434114116757, 34.733037081184641 ], [ 112.610299559598872, 34.739066766532375 ] ] ] ] } },
{ "type": "Feature", "properties": { "里坊": "" }, "geometry": { "type": "MultiPolygon", "coordinates": [ [ [ [ 112.611910869007488, 34.746087149172084 ], [ 112.6101056687029, 34.746094282006432 ], [ 112.609989378571427, 34.74967391359278 ], [ 112.611885299284552, 34.749674959154881 ], [ 112.611910869007488, 34.746087149172084 ] ] ] ] } },
{ "type": "Feature", "properties": { "里坊": "" }, "geometry": { "type": "MultiPolygon", "coordinates": [ [ [ [ 112.611912597932005, 34.745844580890044 ], [ 112.611923564431592, 34.744305708899525 ], [ 112.611694147260195, 34.742371253885594 ], [ 112.610226745906999, 34.742366995199049 ], [ 112.610113549048108, 34.745851707308638 ], [ 112.611912597932005, 34.745844580890044 ] ] ] ] } },
{ "type": "Feature", "properties": { "里坊": "" }, "geometry": { "type": "MultiPolygon", "coordinates": [ [ [ [ 112.620389104828064, 34.743599862296094 ], [ 112.619936371848667, 34.743718365118987 ], [ 112.616010029669084, 34.745510378521494 ], [ 112.616030503612379, 34.745828170016665 ], [ 112.620536272196574, 34.745810054358458 ], [ 112.620389104828064, 34.743599862296094 ] ] ] ] } },
{ "type": "Feature", "properties": { "里坊": "" }, "geometry": { "type": "MultiPolygon", "coordinates": [ [ [ [ 112.617533767028576, 34.672398908178138 ], [ 112.612800328324269, 34.672352778268767 ], [ 112.612745445616753, 34.675522358602869 ], [ 112.617482292792076, 34.675575154483099 ], [ 112.617533767028576, 34.672398908178138 ] ] ] ] } },
{ "type": "Feature", "properties": { "里坊": "慕义里" }, "geometry": { "type": "MultiPolygon", "coordinates": [ [ [ [ 112.62318396522079, 34.672453731477006 ], [ 112.617832438444239, 34.672401812890186 ], [ 112.61779527590744, 34.675578636843703 ], [ 112.623095500729619, 34.675637480613233 ], [ 112.62318396522079, 34.672453731477006 ] ] ] ] } },
{ "type": "Feature", "properties": { "里坊": "崦嵫馆" }, "geometry": { "type": "MultiPolygon", "coordinates": [ [ [ [ 112.628235911050297, 34.672502527821855 ], [ 112.623731795908753, 34.672459032687804 ], [ 112.623626702302985, 34.675643365191227 ], [ 112.62815972436205, 34.675693488347882 ], [ 112.628235911050297, 34.672502527821855 ] ] ] ] } },
{ "type": "Feature", "properties": { "里坊": "" }, "geometry": { "type": "MultiPolygon", "coordinates": [ [ [ [ 112.632883253004152, 34.672547231326298 ], [ 112.628505188341904, 34.67250512269954 ], [ 112.628447862476563, 34.675696668403901 ], [ 112.632781174754413, 34.675744415927646 ], [ 112.632883253004152, 34.672547231326298 ] ] ] ] } },
{ "type": "Feature", "properties": { "里坊": "狮子坊" }, "geometry": { "type": "MultiPolygon", "coordinates": [ [ [ [ 112.637094111430514, 34.672587583326347 ], [ 112.633250439390579, 34.672550755585625 ], [ 112.633175757862745, 34.675748756141765 ], [ 112.637019983562837, 34.675790973603789 ], [ 112.637094111430514, 34.672587583326347 ] ] ] ] } },
{ "type": "Feature", "properties": { "里坊": "" }, "geometry": { "type": "MultiPolygon", "coordinates": [ [ [ [ 112.617478012814544, 34.675839252130991 ], [ 112.612741315651775, 34.67576087337951 ], [ 112.612680556396157, 34.679269587521723 ], [ 112.61742058763123, 34.679382411869199 ], [ 112.617478012814544, 34.675839252130991 ] ] ] ] } },
{ "type": "Feature", "properties": { "里坊": "慕化里" }, "geometry": { "type": "MultiPolygon", "coordinates": [ [ [ [ 112.623087321313463, 34.675931832577106 ], [ 112.617792165779278, 34.675844444288764 ], [ 112.617750682655014, 34.679390262434083 ], [ 112.622987757822557, 34.679514688775917 ], [ 112.623087321313463, 34.675931832577106 ] ] ] ] } },
{ "type": "Feature", "properties": { "里坊": "扶桑馆" }, "geometry": { "type": "MultiPolygon", "coordinates": [ [ [ [ 112.628152042520639, 34.676015203930177 ], [ 112.623616893343808, 34.67594056014746 ], [ 112.623498523573105, 34.679526811686166 ], [ 112.628065607160792, 34.679635117411578 ], [ 112.628152042520639, 34.676015203930177 ] ] ] ] } },
{ "type": "Feature", "properties": { "里坊": "" }, "geometry": { "type": "MultiPolygon", "coordinates": [ [ [ [ 112.632770107894643, 34.676091038388932 ], [ 112.628442055522299, 34.676019971251513 ], [ 112.628376982861582, 34.679642495542524 ], [ 112.632653475523995, 34.679743743378403 ], [ 112.632770107894643, 34.676091038388932 ] ] ] ] } },
{ "type": "Feature", "properties": { "里坊": "白象坊" }, "geometry": { "type": "MultiPolygon", "coordinates": [ [ [ [ 112.637011431555507, 34.676160532312963 ], [ 112.633167611690524, 34.676097557814565 ], [ 112.633082218571943, 34.679753886217654 ], [ 112.636924016017957, 34.679844701051721 ], [ 112.63692618237441, 34.679844231682019 ], [ 112.637011431555507, 34.676160532312963 ] ] ] ] } },
{ "type": "Feature", "properties": { "里坊": "" }, "geometry": { "type": "MultiPolygon", "coordinates": [ [ [ [ 112.617417160476236, 34.679593829947869 ], [ 112.612676722585917, 34.679490967524771 ], [ 112.612615740301578, 34.683012271852299 ], [ 112.617359802307803, 34.683132467754675 ], [ 112.617417160476236, 34.679593829947869 ] ] ] ] } },
{ "type": "Feature", "properties": { "里坊": "归德里" }, "geometry": { "type": "MultiPolygon", "coordinates": [ [ [ [ 112.622982209408804, 34.679714349117695 ], [ 112.617748216736402, 34.679601006228602 ], [ 112.61770679510613, 34.683141252297098 ], [ 112.622883332159105, 34.683272179678625 ], [ 112.622982209408804, 34.679714349117695 ] ] ] ] } },
{ "type": "Feature", "properties": { "里坊": "燕然馆" }, "geometry": { "type": "MultiPolygon", "coordinates": [ [ [ [ 112.628061094433718, 34.679824118414203 ], [ 112.623491969764373, 34.679725376037005 ], [ 112.623374482177567, 34.683284590608238 ], [ 112.627975684628424, 34.683400762753514 ], [ 112.628061094433718, 34.679824118414203 ] ] ] ] } },
{ "type": "Feature", "properties": { "里坊": "玄武馆" }, "geometry": { "type": "MultiPolygon", "coordinates": [ [ [ [ 112.636922227402835, 34.680015125397269 ], [ 112.633078050647896, 34.679932341218866 ], [ 112.632995609692983, 34.683461969307849 ], [ 112.63684254968075, 34.683457714801271 ], [ 112.636922227402835, 34.680015125397269 ] ] ] ] } },
{ "type": "Feature", "properties": { "里坊": "" }, "geometry": { "type": "MultiPolygon", "coordinates": [ [ [ [ 112.631993227147547, 34.683502056456035 ], [ 112.631992211559563, 34.683463059064707 ], [ 112.632534724984154, 34.683462470883953 ], [ 112.632647749827242, 34.679923067236849 ], [ 112.628373599267036, 34.679830865269935 ], [ 112.628309314601324, 34.683409179600602 ], [ 112.631993227147547, 34.683502056456035 ] ] ] ] } },
{ "type": "Feature", "properties": { "里坊": "" }, "geometry": { "type": "MultiPolygon", "coordinates": [ [ [ [ 112.617356234299109, 34.683352560290025 ], [ 112.612611437522347, 34.683260723847845 ], [ 112.612550410237503, 34.68678430313814 ], [ 112.617300544739564, 34.686788011584909 ], [ 112.617356234299109, 34.683352560290025 ] ] ] ] } },
{ "type": "Feature", "properties": { "里坊": "归正里" }, "geometry": { "type": "MultiPolygon", "coordinates": [ [ [ [ 112.622878134529614, 34.683459204230424 ], [ 112.617704244334107, 34.683359288604031 ], [ 112.617664119688101, 34.686788287963083 ], [ 112.618320335382109, 34.686788783691597 ], [ 112.618320068926678, 34.686815530212698 ], [ 112.622780941713586, 34.686956116967039 ], [ 112.622878134529614, 34.683459204230424 ] ] ] ] } },
{ "type": "Feature", "properties": { "里坊": "金陵馆" }, "geometry": { "type": "MultiPolygon", "coordinates": [ [ [ [ 112.62797194448693, 34.683557360089907 ], [ 112.623368406087479, 34.683468661185927 ], [ 112.623252785848322, 34.686970978077902 ], [ 112.627795155587009, 34.687113948437869 ], [ 112.627886954559557, 34.687116082378395 ], [ 112.62797194448693, 34.683557360089907 ] ] ] ] } },
{ "type": "Feature", "properties": { "里坊": "" }, "geometry": { "type": "MultiPolygon", "coordinates": [ [ [ [ 112.631996682959837, 34.68363476459912 ], [ 112.628306536705765, 34.683563800007953 ], [ 112.628242564844825, 34.687124348371235 ], [ 112.628544068837698, 34.687131355167139 ], [ 112.628542254894995, 34.687138290859409 ], [ 112.632087861110278, 34.68713569888709 ], [ 112.631996682959837, 34.68363476459912 ] ] ] ] } },
{ "type": "Feature", "properties": { "里坊": "王南寺" }, "geometry": { "type": "MultiPolygon", "coordinates": [ [ [ [ 112.609851870441332, 34.739288211198698 ], [ 112.604690710765368, 34.739223844505773 ], [ 112.604631902681135, 34.741903534221507 ], [ 112.609786238576405, 34.741909165899223 ], [ 112.609851870441332, 34.739288211198698 ] ] ] ] } },
{ "type": "Feature", "properties": { "里坊": "" }, "geometry": { "type": "MultiPolygon", "coordinates": [ [ [ [ 112.611365228023615, 34.739307043559172 ], [ 112.610294494518726, 34.739293720915143 ], [ 112.610236528701449, 34.741891039099741 ], [ 112.611689554378927, 34.741879320521136 ], [ 112.611365228023615, 34.739307043559172 ] ] ] ] } },
{ "type": "Feature", "properties": { "里坊": "圜丘" }, "geometry": { "type": "MultiPolygon", "coordinates": [ [ [ [ 112.62046829244909, 34.671072209019052 ], [ 112.626509112703374, 34.671171305483625 ], [ 112.626578498331199, 34.668279824945373 ], [ 112.620537887783144, 34.668180731876888 ], [ 112.62046829244909, 34.671072209019052 ] ] ] ] } }
]
}
