{
"type": "FeatureCollection",
"name": "州镇治所",
"crs": { "type": "name", "properties": { "name": "urn:ogc:def:crs:OGC:1.3:CRS84" } },
"features": [
{ "type": "Feature", "properties": { "名称": "沃野镇", "今地": "乌拉特前旗" }, "geometry": { "type": "Point", "coordinates": [ 108.653297874000032, 40.596434177000049 ] } },
{ "type": "Feature", "properties": { "名称": "薄骨律镇", "今地": "灵武" }, "geometry": { "type": "Point", "coordinates": [ 106.339839876000042, 38.003037198000072 ] } },
{ "type": "Feature", "properties": { "名称": "高平镇", "今地": "固原" }, "geometry": { "type": "Point", "coordinates": [ 106.289332017000049, 36.037914241000067 ] } },
{ "type": "Feature", "properties": { "名称": "大兴郡", "今地": "定边" }, "geometry": { "type": "Point", "coordinates": [ 107.590389518000052, 37.583997499000077 ] } },
{ "type": "Feature", "properties": { "名称": "定安", "今地": "宁县" }, "geometry": { "type": "Point", "coordinates": [ 107.939813285000071, 35.546624558000076 ] } },
{ "type": "Feature", "properties": { "名称": "中部", "今地": "黄陵" }, "geometry": { "type": "Point", "coordinates": [ 109.248828443000036, 35.545318192000082 ] } },
{ "type": "Feature", "properties": { "名称": "李润堡", "今地": "大荔" }, "geometry": { "type": "Point", "coordinates": [ 109.921063466000078, 35.065966702000082 ] } },
{ "type": "Feature", "properties": { "名称": "岩绿", "今地": "靖边" }, "geometry": { "type": "Point", "coordinates": [ 108.854269153000075, 38.029763709000065 ] } },
{ "type": "Feature", "properties": { "名称": "长安", "今地": "西安" }, "geometry": { "type": "Point", "coordinates": [ 108.893688057000077, 34.403460748000043 ] } },
{ "type": "Feature", "properties": { "名称": "雍城", "今地": "凤翔" }, "geometry": { "type": "Point", "coordinates": [ 107.375078675000054, 34.564425481000058 ] } },
{ "type": "Feature", "properties": { "名称": "上封", "今地": "天水" }, "geometry": { "type": "Point", "coordinates": [ 105.656336066000051, 34.643271380000044 ] } },
{ "type": "Feature", "properties": { "名称": "骆谷城", "今地": "西和" }, "geometry": { "type": "Point", "coordinates": [ 105.195776444000046, 33.834339502000034 ] } },
{ "type": "Feature", "properties": { "名称": "怀朔镇", "今地": "固阳" }, "geometry": { "type": "Point", "coordinates": [ 109.923653119000051, 41.018708317000062 ] } },
{ "type": "Feature", "properties": { "名称": "武川镇", "今地": "武川" }, "geometry": { "type": "Point", "coordinates": [ 111.055180399000051, 41.177459906000081 ] } },
{ "type": "Feature", "properties": { "名称": "枹罕", "今地": "临夏" }, "geometry": { "type": "Point", "coordinates": [ 103.137475433000077, 35.612531954000076 ] } },
{ "type": "Feature", "properties": { "名称": "姑臧", "今地": "武威" }, "geometry": { "type": "Point", "coordinates": [ 102.575910395000051, 37.899299746000054 ] } },
{ "type": "Feature", "properties": { "名称": "敦煌镇", "今地": "敦煌" }, "geometry": { "type": "Point", "coordinates": [ 94.754286296000032, 40.26633421400004 ] } },
{ "type": "Feature", "properties": { "名称": "抚冥镇", "今地": "四子王旗" }, "geometry": { "type": "Point", "coordinates": [ 111.807689495000034, 41.496568012000068 ] } },
{ "type": "Feature", "properties": { "名称": "柔玄镇", "今地": "尚义" }, "geometry": { "type": "Point", "coordinates": [ 113.853930702000071, 41.118748965000066 ] } },
{ "type": "Feature", "properties": { "名称": "怀荒镇", "今地": "张北" }, "geometry": { "type": "Point", "coordinates": [ 114.756684176000022, 41.158871342000054 ] } },
{ "type": "Feature", "properties": { "名称": "御夷镇", "今地": "赤城" }, "geometry": { "type": "Point", "coordinates": [ 115.819927156000062, 41.001725367000063 ] } },
{ "type": "Feature", "properties": { "名称": "蓟县", "今地": "北京" }, "geometry": { "type": "Point", "coordinates": [ 116.309134677000088, 39.845734233000087 ] } },
{ "type": "Feature", "properties": { "名称": "方城", "今地": "隆化" }, "geometry": { "type": "Point", "coordinates": [ 117.610334357000056, 41.28769118200006 ] } },
{ "type": "Feature", "properties": { "名称": "肥如", "今地": "迁安" }, "geometry": { "type": "Point", "coordinates": [ 118.773685403000059, 40.048300046000065 ] } },
{ "type": "Feature", "properties": { "名称": "和龙城", "今地": "朝阳" }, "geometry": { "type": "Point", "coordinates": [ 120.478878088000101, 41.611560725000061 ] } },
{ "type": "Feature", "properties": { "名称": "赵都军城", "今地": "河间" }, "geometry": { "type": "Point", "coordinates": [ 116.089201443000093, 38.429558977000056 ] } },
{ "type": "Feature", "properties": { "名称": "卢奴", "今地": "定县" }, "geometry": { "type": "Point", "coordinates": [ 114.989210645000071, 38.517207646000088 ] } },
{ "type": "Feature", "properties": { "名称": "广宁", "今地": "逐鹿" }, "geometry": { "type": "Point", "coordinates": [ 115.183944888000042, 40.371139311000036 ] } },
{ "type": "Feature", "properties": { "名称": "信都", "今地": "衡水" }, "geometry": { "type": "Point", "coordinates": [ 115.59563192600001, 37.566355225000052 ] } },
{ "type": "Feature", "properties": { "名称": "邺县", "今地": "磁县" }, "geometry": { "type": "Point", "coordinates": [ 114.425545520000014, 36.271558561000063 ] } },
{ "type": "Feature", "properties": { "名称": "历城", "今地": "济南" }, "geometry": { "type": "Point", "coordinates": [ 117.044345872, 36.648102485000038 ] } },
{ "type": "Feature", "properties": { "名称": "碻磝城", "今地": "聊城" }, "geometry": { "type": "Point", "coordinates": [ 116.180437006000034, 36.399813717000086 ] } },
{ "type": "Feature", "properties": { "名称": "瑕丘", "今地": "兖州" }, "geometry": { "type": "Point", "coordinates": [ 116.843727271000034, 35.571936483000059 ] } },
{ "type": "Feature", "properties": { "名称": "彭城", "今地": "徐州" }, "geometry": { "type": "Point", "coordinates": [ 117.220325040000034, 34.24141331800007 ] } },
{ "type": "Feature", "properties": { "名称": "团城", "今地": "沂水" }, "geometry": { "type": "Point", "coordinates": [ 118.713595569000063, 35.744037215000048 ] } },
{ "type": "Feature", "properties": { "名称": "东阳城", "今地": "青州" }, "geometry": { "type": "Point", "coordinates": [ 118.555301108000094, 36.650605301000041 ] } },
{ "type": "Feature", "properties": { "名称": "掖县", "今地": "莱州" }, "geometry": { "type": "Point", "coordinates": [ 119.960037572000033, 37.121428612000045 ] } },
{ "type": "Feature", "properties": { "名称": "洛阳", "今地": "洛阳" }, "geometry": { "type": "Point", "coordinates": [ 112.629529838000053, 34.709987711000053 ] } },
{ "type": "Feature", "properties": { "名称": "山北", "今地": "鲁山" }, "geometry": { "type": "Point", "coordinates": [ 112.895497963000025, 33.711170184000082 ] } },
{ "type": "Feature", "properties": { "名称": "上洛", "今地": "商洛" }, "geometry": { "type": "Point", "coordinates": [ 109.887773106000054, 33.891931604000035 ] } },
{ "type": "Feature", "properties": { "名称": "悬瓠城", "今地": "汝南" }, "geometry": { "type": "Point", "coordinates": [ 114.315963711000109, 32.984343084000045 ] } },
{ "type": "Feature", "properties": { "名称": "新息县", "今地": "息县" }, "geometry": { "type": "Point", "coordinates": [ 114.729159939000056, 32.343805959000065 ] } },
{ "type": "Feature", "properties": { "名称": "盛乐", "今地": "和林格尔" }, "geometry": { "type": "Point", "coordinates": [ 111.830921574000058, 40.390792517000079 ] } },
{ "type": "Feature", "properties": { "名称": "平成", "今地": "大同" }, "geometry": { "type": "Point", "coordinates": [ 113.383294546, 40.09702423400006 ] } },
{ "type": "Feature", "properties": { "名称": "九原城", "今地": "忻州" }, "geometry": { "type": "Point", "coordinates": [ 112.724572150000085, 38.41803339900008 ] } },
{ "type": "Feature", "properties": { "名称": "晋阳", "今地": "太原" }, "geometry": { "type": "Point", "coordinates": [ 112.529671329000053, 37.811108627000067 ] } },
{ "type": "Feature", "properties": { "名称": "蒲子城", "今地": "隰县" }, "geometry": { "type": "Point", "coordinates": [ 110.933476560000031, 36.695524488000046 ] } },
{ "type": "Feature", "properties": { "名称": "宿豫", "今地": "宿迁" }, "geometry": { "type": "Point", "coordinates": [ 118.514272167000058, 33.764640468000039 ] } }
]
}
