{
"type": "FeatureCollection",
"name": "二里头",
"crs": { "type": "name", "properties": { "name": "urn:ogc:def:crs:OGC:1.3:CRS84" } },
"features": [
{ "type": "Feature", "properties": { }, "geometry": { "type": "MultiPolygon", "coordinates": [ [ [ [ 112.672675669606193, 34.697748195456619 ], [ 112.672821097010257, 34.698041881772738 ], [ 112.672931920645695, 34.698133097887165 ], [ 112.673264258752326, 34.698342784170414 ], [ 112.673685011846686, 34.698506657606636 ], [ 112.673983876975825, 34.698579330323739 ], [ 112.674415370089775, 34.698587851154947 ], [ 112.675057029880563, 34.698577795393426 ], [ 112.675886941364382, 34.698649700404779 ], [ 112.676639526908232, 34.698776534716281 ], [ 112.67701615037285, 34.698995284422864 ], [ 112.67712729100792, 34.699232693264378 ], [ 112.677127816054366, 34.699479399487409 ], [ 112.677050993631397, 34.699771904063596 ], [ 112.677051518455087, 34.700018610267108 ], [ 112.6772843214722, 34.70023756771576 ], [ 112.677428733000298, 34.700511476240727 ], [ 112.67750701747309, 34.700904266284226 ], [ 112.677563251951725, 34.701333637585691 ], [ 112.678093969784982, 34.70181828319722 ], [ 112.678215898161199, 34.702246415236274 ], [ 112.678372279755962, 34.702617389609479 ], [ 112.678424968784853, 34.703002792217553 ], [ 112.678563605920615, 34.703159636809872 ], [ 112.678805816282122, 34.703244943768212 ], [ 112.679307340172585, 34.703329870371952 ], [ 112.67970513999461, 34.703414947718194 ], [ 112.680241087024015, 34.703428434037235 ], [ 112.680586467475734, 34.703256599211386 ], [ 112.681053076961391, 34.703184522018354 ], [ 112.681294761233517, 34.703027116680772 ], [ 112.681415214006549, 34.702769950924974 ], [ 112.68151834665322, 34.702498534011362 ], [ 112.681794196854554, 34.702155474933342 ], [ 112.682208530511218, 34.70189787016394 ], [ 112.682743559057059, 34.701497313530965 ], [ 112.683762528473864, 34.701053195382556 ], [ 112.684574389935392, 34.700766429600989 ], [ 112.685386881834361, 34.700765197873821 ], [ 112.686389435671671, 34.700720839266708 ], [ 112.687461264121197, 34.700733475003304 ], [ 112.688395023813413, 34.700846253056618 ], [ 112.689018364646273, 34.701287876947141 ], [ 112.689815885487192, 34.702300307607267 ], [ 112.690196730283176, 34.702528146888007 ], [ 112.690577544471722, 34.702741708227336 ], [ 112.691061822906903, 34.702840890264234 ], [ 112.691511429473792, 34.702897293522923 ], [ 112.69173554170618, 34.702625677994611 ], [ 112.691994096047651, 34.702296899774424 ], [ 112.692321599605762, 34.701882349759856 ], [ 112.692856248546292, 34.701338979541113 ], [ 112.693320182511187, 34.700124697710535 ], [ 112.693595412717329, 34.699538902610307 ], [ 112.693905909282179, 34.699252869045175 ], [ 112.694216771281987, 34.699123881621396 ], [ 112.694458451121264, 34.69898072596866 ], [ 112.694717350802435, 34.698808988751637 ], [ 112.694993368511575, 34.698565838703615 ], [ 112.695182784737952, 34.698251440763826 ], [ 112.695597091075513, 34.698008068032728 ], [ 112.696167377462046, 34.697935766676807 ], [ 112.697360144306757, 34.697933843209107 ], [ 112.697965136842129, 34.697918586331021 ], [ 112.698621681067948, 34.697774749487053 ], [ 112.699104813107823, 34.697402758785408 ], [ 112.699259434050418, 34.697002749453461 ], [ 112.6992586820882, 34.696688655494086 ], [ 112.699084590092994, 34.696174966433958 ], [ 112.698599046355568, 34.695533290435279 ], [ 112.6982475980884, 34.694943149218652 ], [ 112.698107243162269, 34.69271258932713 ], [ 112.697971140324483, 34.692266652043692 ], [ 112.697619131961318, 34.691887989208105 ], [ 112.697213375616826, 34.691620950447231 ], [ 112.696699642803495, 34.691376393000276 ], [ 112.696023865211828, 34.691132093847429 ], [ 112.695428905747647, 34.690798430046449 ], [ 112.694590620531258, 34.690353612536349 ], [ 112.693589832999663, 34.689708275686108 ], [ 112.691100742887471, 34.687793720387347 ], [ 112.690667867684937, 34.687459779267556 ], [ 112.689992241426083, 34.68726006170931 ], [ 112.68939789214042, 34.687171754332994 ], [ 112.688425855620295, 34.687262491009712 ], [ 112.687885823831522, 34.687307940088836 ], [ 112.687022362080455, 34.687643885194596 ], [ 112.686267569740622, 34.688269661344179 ], [ 112.685431644919618, 34.688850939896028 ], [ 112.68462177647163, 34.689008323452377 ], [ 112.683785045758853, 34.689232665933659 ], [ 112.68316480994956, 34.689657448421727 ], [ 112.682490015280109, 34.68983692257418 ], [ 112.681950158606028, 34.689971576533672 ], [ 112.681437647836518, 34.690262341824464 ], [ 112.68143847448178, 34.69064157497953 ], [ 112.681709573856523, 34.691109637328132 ], [ 112.681710353047961, 34.691466561966315 ], [ 112.681468108186209, 34.691846156825058 ], [ 112.681253500589392, 34.692515712063042 ], [ 112.681012025716655, 34.693252230501898 ], [ 112.68063492182975, 34.693721255008036 ], [ 112.679366856459154, 34.694347746552211 ], [ 112.67782839525853, 34.694840771676894 ], [ 112.676856588375614, 34.695087570747063 ], [ 112.676020482182338, 34.695646476657252 ], [ 112.674536135970243, 34.696206305788621 ], [ 112.672754986765838, 34.696922691579644 ], [ 112.672675669606193, 34.697748195456619 ] ] ] ] } }
]
}
