{
"type": "FeatureCollection",
"name": "其他要素",
"crs": { "type": "name", "properties": { "name": "urn:ogc:def:crs:OGC:1.3:CRS84" } },
"features": [
{ "type": "Feature", "properties": { "名称": "故宫" }, "geometry": { "type": "MultiPolygon", "coordinates": [ [ [ [ 116.386469371999965, 39.920773810000014 ], [ 116.394799982, 39.920991807 ], [ 116.395249528000022, 39.912638314999981 ], [ 116.386665247999986, 39.912395737999987 ], [ 116.386662984000054, 39.91239864 ], [ 116.386469371999965, 39.920773810000014 ] ] ] ] } },
{ "type": "Feature", "properties": { "名称": "天坛" }, "geometry": { "type": "MultiPolygon", "coordinates": [ [ [ [ 116.399293141000044, 39.87993370800001 ], [ 116.399197610999977, 39.881167730000016 ], [ 116.399324984000032, 39.881913019000024 ], [ 116.399818557, 39.882780476999983 ], [ 116.400407659000052, 39.883415791 ], [ 116.401219665999974, 39.88390449000002 ], [ 116.402413793000051, 39.884185490999982 ], [ 116.406008273999987, 39.884374127 ], [ 116.407231059999958, 39.884381946000019 ], [ 116.408606694000014, 39.884264659 ], [ 116.409462644999962, 39.883975351 ], [ 116.410128247999978, 39.883583454000018 ], [ 116.410591276, 39.883133067000017 ], [ 116.411021697000024, 39.88259259900002 ], [ 116.411308643999973, 39.882032107999976 ], [ 116.411393627000052, 39.881167730000016 ], [ 116.41142547100003, 39.879994798999974 ], [ 116.411694228999977, 39.873833161999983 ], [ 116.39981457600004, 39.873408144999985 ], [ 116.399293141000044, 39.87993370800001 ] ] ] ] } },
{ "type": "Feature", "properties": { "名称": "先农坛" }, "geometry": { "type": "MultiPolygon", "coordinates": [ [ [ [ 116.381860691000043, 39.870671873 ], [ 116.381471978000036, 39.877712213 ], [ 116.391228679000051, 39.877891196 ], [ 116.391500778000022, 39.871149206999974 ], [ 116.381860691000043, 39.870671873 ] ] ] ] } },
{ "type": "Feature", "properties": { "名称": "景山" }, "geometry": { "type": "MultiPolygon", "coordinates": [ [ [ [ 116.387450386999944, 39.926923086999977 ], [ 116.39317224499996, 39.927018476 ], [ 116.393246878000014, 39.922153481 ], [ 116.38752502, 39.922058085 ], [ 116.387450386999944, 39.926923086999977 ] ] ] ] } },
{ "type": "Feature", "properties": { "名称": "地坛" }, "geometry": { "type": "MultiPolygon", "coordinates": [ [ [ [ 116.406282764000025, 39.95534305000001 ], [ 116.409292959000027, 39.955610028000024 ], [ 116.412203643999987, 39.95578165500001 ], [ 116.412850462000051, 39.950289355999985 ], [ 116.407053970999982, 39.949850716000014 ], [ 116.406282764000025, 39.95534305000001 ] ] ] ] } },
{ "type": "Feature", "properties": { "名称": "日坛" }, "geometry": { "type": "MultiPolygon", "coordinates": [ [ [ [ 116.434966619999955, 39.916278804 ], [ 116.440306596000028, 39.916311257000018 ], [ 116.440303710999956, 39.912019263 ], [ 116.434918538000034, 39.912000823000028 ], [ 116.434966619999955, 39.916278804 ] ] ] ] } },
{ "type": "Feature", "properties": { "名称": "月坛" }, "geometry": { "type": "MultiPolygon", "coordinates": [ [ [ [ 116.34322573999998, 39.916935705000014 ], [ 116.347321360000024, 39.916935705000014 ], [ 116.347295762000044, 39.912660902000027 ], [ 116.343123349000052, 39.912763293000012 ], [ 116.34322573999998, 39.916935705000014 ] ] ] ] } }
]
}
