{
"type": "FeatureCollection",
"name": "城范围",
"crs": { "type": "name", "properties": { "name": "urn:ogc:def:crs:OGC:1.3:CRS84" } },
"features": [
{ "type": "Feature", "properties": { }, "geometry": { "type": "MultiPolygon", "coordinates": [ [ [ [ 116.437540971999965, 39.872323881999989 ], [ 116.437161370000013, 39.870648682000024 ], [ 116.429189712000039, 39.870648682000024 ], [ 116.414859708999984, 39.871522705000018 ], [ 116.39275923699995, 39.870738997999979 ], [ 116.368263472999956, 39.869483302 ], [ 116.345263343000056, 39.867895439 ], [ 116.344655978, 39.870319463999977 ], [ 116.344291559999988, 39.876239321000014 ], [ 116.343589295000015, 39.895262721999984 ], [ 116.344063797999979, 39.896427663999987 ], [ 116.348144527000045, 39.896718897000028 ], [ 116.350517044999947, 39.89737416600002 ], [ 116.351086449000036, 39.899194324 ], [ 116.351086449000036, 39.903853707999986 ], [ 116.349712988999954, 39.940276981000011 ], [ 116.349983658000042, 39.941290186 ], [ 116.35071605600001, 39.942132478000019 ], [ 116.351779968999949, 39.942732251 ], [ 116.356394956000031, 39.944014102999972 ], [ 116.362029684000049, 39.946174063 ], [ 116.365588460000026, 39.947538214000019 ], [ 116.401176215999953, 39.947538214000019 ], [ 116.425939363999987, 39.948333956 ], [ 116.427570468999988, 39.946742463000021 ], [ 116.427718752000033, 39.935373578999986 ], [ 116.428608445, 39.914563629999975 ], [ 116.429942986000015, 39.899549249000017 ], [ 116.43083267999998, 39.89875294 ], [ 116.433501762, 39.898297902000024 ], [ 116.437060537999969, 39.897046532 ], [ 116.438869582000052, 39.883175274 ], [ 116.439438986000027, 39.877786206999986 ], [ 116.438300177999963, 39.875018683 ], [ 116.437540971999965, 39.872323881999989 ] ] ] ] } }
]
}
