{
"type": "FeatureCollection",
"name": "水系",
"crs": { "type": "name", "properties": { "name": "urn:ogc:def:crs:OGC:1.3:CRS84" } },
"features": [
{ "type": "Feature", "properties": { "名称": "南海" }, "geometry": { "type": "MultiPolygon", "coordinates": [ [ [ [ 116.377779202000056, 39.911293038999986 ], [ 116.378101367999989, 39.911461487 ], [ 116.378817843999968, 39.911375998999972 ], [ 116.379757223999945, 39.911046258999988 ], [ 116.38060107299998, 39.91077758199998 ], [ 116.38122202, 39.91047226500001 ], [ 116.382543520000013, 39.909592944999986 ], [ 116.382893796999952, 39.909531879999975 ], [ 116.383196309000027, 39.909531879999975 ], [ 116.383228153, 39.909373113000015 ], [ 116.383084857999961, 39.909043364000013 ], [ 116.382734580000033, 39.909043364000013 ], [ 116.382591285, 39.908933446999981 ], [ 116.382559442, 39.90865254800002 ], [ 116.38278234500001, 39.908444927 ], [ 116.382893796999952, 39.90826173 ], [ 116.382830109999986, 39.907675499 ], [ 116.380951351000022, 39.906482992 ], [ 116.380166730000042, 39.90635011 ], [ 116.379759133999983, 39.906561157999988 ], [ 116.379320969, 39.906334476999973 ], [ 116.378220461999945, 39.906311027000015 ], [ 116.377429359999951, 39.906492526000022 ], [ 116.376729676999958, 39.90735724000001 ], [ 116.376457577, 39.908758649 ], [ 116.376496449, 39.909921499 ], [ 116.377157260999979, 39.910666905000028 ], [ 116.377779202000056, 39.911293038999986 ] ] ] ] } },
{ "type": "Feature", "properties": { "名称": "中海" }, "geometry": { "type": "MultiPolygon", "coordinates": [ [ [ [ 116.380811164999955, 39.920863245000021 ], [ 116.381938432999959, 39.920893057 ], [ 116.382676988999947, 39.920743997999978 ], [ 116.383571029, 39.920445880999978 ], [ 116.38353215799998, 39.918776397999977 ], [ 116.383376672000054, 39.918478272000016 ], [ 116.382871345000012, 39.918359021000015 ], [ 116.382093919, 39.918180145 ], [ 116.382132790000014, 39.916957809 ], [ 116.383415543999945, 39.916629861 ], [ 116.383065701999953, 39.91588452000002 ], [ 116.382987959000047, 39.914304370000025 ], [ 116.382754730999977, 39.912992519 ], [ 116.382676988999947, 39.911799906 ], [ 116.382404888999986, 39.91132285499998 ], [ 116.381705206, 39.911293038999986 ], [ 116.380811164999955, 39.911948984 ], [ 116.380033739000055, 39.912455846 ], [ 116.379722767999965, 39.912903073999985 ], [ 116.379372925999974, 39.914155296999979 ], [ 116.379061955999987, 39.915228613000011 ], [ 116.379411797999978, 39.916510607000021 ], [ 116.379722767999965, 39.91752426 ], [ 116.379955996000035, 39.918716773000028 ], [ 116.380500194999968, 39.920058326 ], [ 116.380811164999955, 39.920863245000021 ] ] ] ] } },
{ "type": "Feature", "properties": { "名称": "北海" }, "geometry": { "type": "MultiPolygon", "coordinates": [ [ [ [ 116.380577937, 39.921578721 ], [ 116.379722767999965, 39.92351643 ], [ 116.378789857000015, 39.925185796 ], [ 116.378440015000024, 39.927093593999984 ], [ 116.378789857000015, 39.928047473 ], [ 116.37948954, 39.928554216 ], [ 116.379955996000035, 39.928613832999986 ], [ 116.381161006999946, 39.92915038000001 ], [ 116.381471978000036, 39.929209996 ], [ 116.382871345000012, 39.929984999 ], [ 116.383260058000019, 39.930491728 ], [ 116.383920870999987, 39.931356138000012 ], [ 116.384698297, 39.931534981000027 ], [ 116.38485378300004, 39.93141575300001 ], [ 116.385242496000046, 39.930640765000021 ], [ 116.385242496000046, 39.929984999 ], [ 116.385242496000046, 39.929537883000023 ], [ 116.385203624000042, 39.929090764000023 ], [ 116.385048139, 39.92846479100001 ], [ 116.385281366999948, 39.927838813999983 ], [ 116.385320237999963, 39.927242638999985 ], [ 116.385281366999948, 39.926258938999979 ], [ 116.384892654000055, 39.925692560000016 ], [ 116.384192969999958, 39.92506655699998 ], [ 116.384465069000044, 39.924529979 ], [ 116.384737169, 39.924023206000015 ], [ 116.384931524999956, 39.923725102999981 ], [ 116.384970395999972, 39.923188513000014 ], [ 116.38485378300004, 39.922502866 ], [ 116.384192969999958, 39.921876833 ], [ 116.383415543999945, 39.921727777 ], [ 116.382871345000012, 39.922025889 ], [ 116.382560375000025, 39.922025889 ], [ 116.382210533000034, 39.922025889 ], [ 116.382016175999979, 39.921876833 ], [ 116.382016175999979, 39.921370040999989 ], [ 116.381122136000045, 39.921370040999989 ], [ 116.380577937, 39.921370040999989 ], [ 116.380577937, 39.921578721 ] ] ] ] } },
{ "type": "Feature", "properties": { "名称": "后海" }, "geometry": { "type": "MultiPolygon", "coordinates": [ [ [ [ 116.387268791, 39.937725711999974 ], [ 116.387091406999957, 39.937626797 ], [ 116.387087698999949, 39.937628435000022 ], [ 116.384110214999964, 39.938164094 ], [ 116.381899009999984, 39.938601619 ], [ 116.380492806, 39.939273526000022 ], [ 116.379279572999963, 39.940545542999985 ], [ 116.376588806999962, 39.941253565000011 ], [ 116.374343847999967, 39.942193513 ], [ 116.374296083, 39.942462068 ], [ 116.374423457000034, 39.943048001000022 ], [ 116.374534908999976, 39.943755996999982 ], [ 116.374917029000017, 39.943987924999988 ], [ 116.377926228999968, 39.942584137999972 ], [ 116.379040747999966, 39.942242341999986 ], [ 116.379582085000038, 39.941802887 ], [ 116.38026671800003, 39.941265772 ], [ 116.381046880999975, 39.941033834 ], [ 116.383091226000033, 39.93942978299998 ], [ 116.384446481000055, 39.938757877 ], [ 116.386455281000053, 39.938044519000016 ], [ 116.387268791, 39.937725711999974 ] ] ] ] } },
{ "type": "Feature", "properties": { "名称": "西海" }, "geometry": { "type": "MultiPolygon", "coordinates": [ [ [ [ 116.367911484000047, 39.946124069 ], [ 116.368643882000015, 39.946380401 ], [ 116.36947181000005, 39.946392608 ], [ 116.370490798999981, 39.946221719 ], [ 116.371255040000051, 39.946209512999985 ], [ 116.372194420000028, 39.946197306999977 ], [ 116.37248101, 39.945965386000012 ], [ 116.372624305000045, 39.945696844999986 ], [ 116.372608384000046, 39.945294032 ], [ 116.372528774999978, 39.944866804000014 ], [ 116.372401402000037, 39.944402953 ], [ 116.372401402000037, 39.944109992 ], [ 116.372401402000037, 39.94376820399998 ], [ 116.372321792999969, 39.943585101999986 ], [ 116.371939673000043, 39.94397571899998 ], [ 116.371414256999969, 39.944305299 ], [ 116.371095823000019, 39.944488399000022 ], [ 116.37050671999998, 39.944756945 ], [ 116.369694714000047, 39.94489121700002 ], [ 116.368930472999978, 39.94489121700002 ], [ 116.36858019500005, 39.945086522 ], [ 116.368086622999954, 39.945782290000011 ], [ 116.367959249000023, 39.94595318 ], [ 116.367911484000047, 39.946124069 ] ] ] ] } },
{ "type": "Feature", "properties": { "名称": "前海" }, "geometry": { "type": "MultiPolygon", "coordinates": [ [ [ [ 116.387091406999957, 39.937626797 ], [ 116.387268791, 39.937725711999974 ], [ 116.387574774999962, 39.937605799999972 ], [ 116.388022572999944, 39.937338753 ], [ 116.38837086, 39.937224303 ], [ 116.388619636000044, 39.936308702000019 ], [ 116.388818657, 39.935469391000026 ], [ 116.388943045000019, 39.934782674000019 ], [ 116.387425508999968, 39.934134100999984 ], [ 116.386604547000047, 39.933409219 ], [ 116.386405525999976, 39.932531719 ], [ 116.386209331000032, 39.932483830000024 ], [ 116.386046291999946, 39.932483830000024 ], [ 116.385832305, 39.932624475000011 ], [ 116.385526607999964, 39.933015153999975 ], [ 116.384870380000052, 39.934168113 ], [ 116.384818207999956, 39.934408141 ], [ 116.384733428, 39.934928199000012 ], [ 116.384863858000017, 39.93504821099998 ], [ 116.385248628, 39.93518822599998 ], [ 116.385574704999954, 39.935213229 ], [ 116.385744263999982, 39.935258233000013 ], [ 116.386005125, 39.935363243999973 ], [ 116.386083384000017, 39.935473254999977 ], [ 116.386892053, 39.935796724 ], [ 116.387411736999979, 39.935952988 ], [ 116.387686863999988, 39.936140505000026 ], [ 116.387809142000037, 39.936578043 ], [ 116.38776838299998, 39.937148400000012 ], [ 116.387472469000045, 39.93745842300001 ], [ 116.387091406999957, 39.937626797 ] ] ] ] } }
]
}
