{
"type": "FeatureCollection",
"name": "街道",
"crs": { "type": "name", "properties": { "name": "urn:ogc:def:crs:OGC:1.3:CRS84" } },
"features": [
{ "type": "Feature", "properties": { }, "geometry": { "type": "MultiLineString", "coordinates": [ [ [ 116.419134561999954, 39.948152145 ], [ 116.421020132999956, 39.899672789000022 ], [ 116.421053154999981, 39.899723456 ] ] ] } },
{ "type": "Feature", "properties": { }, "geometry": { "type": "MultiLineString", "coordinates": [ [ [ 116.410179500000027, 39.947873524999977 ], [ 116.412296402000038, 39.899308915 ] ] ] } },
{ "type": "Feature", "properties": { }, "geometry": { "type": "MultiLineString", "coordinates": [ [ [ 116.427754609999965, 39.939855650000027 ], [ 116.387469237, 39.939215491000027 ], [ 116.386430486, 39.939592635 ], [ 116.384874063999973, 39.940618901999983 ], [ 116.38125307200005, 39.943234284000027 ], [ 116.378213183999947, 39.944632644000023 ], [ 116.375705276999952, 39.946030975999975 ], [ 116.373349364999967, 39.94748754 ] ] ] } },
{ "type": "Feature", "properties": { }, "geometry": { "type": "MultiLineString", "coordinates": [ [ [ 116.402157046999946, 39.947720587999981 ], [ 116.402513283999951, 39.932243055000015 ], [ 116.402990820000014, 39.926082661 ], [ 116.404453857000021, 39.926130404 ], [ 116.405508332999943, 39.899278596999977 ] ] ] } },
{ "type": "Feature", "properties": { }, "geometry": { "type": "MultiLineString", "coordinates": [ [ [ 116.387609475999966, 39.947508514999981 ], [ 116.387804029, 39.939230156 ] ] ] } },
{ "type": "Feature", "properties": { }, "geometry": { "type": "MultiLineString", "coordinates": [ [ [ 116.389652281000053, 39.940833699999985 ], [ 116.39013477200001, 39.931907075000026 ] ] ] } },
{ "type": "Feature", "properties": { }, "geometry": { "type": "MultiLineString", "coordinates": [ [ [ 116.419479656000021, 39.932104650999975 ], [ 116.390235939000036, 39.931995094 ], [ 116.373212569999964, 39.931622131999973 ], [ 116.36681360700004, 39.931230519999986 ] ] ] } },
{ "type": "Feature", "properties": { }, "geometry": { "type": "MultiLineString", "coordinates": [ [ [ 116.428281080000033, 39.923045920999982 ], [ 116.385812902999987, 39.921672619999981 ], [ 116.384368956, 39.921031492999987 ], [ 116.382849013000055, 39.921031492999987 ], [ 116.381329069, 39.92108977800001 ], [ 116.367345587000045, 39.921148061999986 ] ] ] } },
{ "type": "Feature", "properties": { }, "geometry": { "type": "MultiLineString", "coordinates": [ [ [ 116.350626206000015, 39.922080606 ], [ 116.371145446000014, 39.922430307000013 ] ] ] } },
{ "type": "Feature", "properties": { }, "geometry": { "type": "MultiLineString", "coordinates": [ [ [ 116.400404362000017, 39.917184608000014 ], [ 116.411499951, 39.917417758999989 ] ] ] } },
{ "type": "Feature", "properties": { }, "geometry": { "type": "MultiLineString", "coordinates": [ [ [ 116.395160557000054, 39.91386212499998 ], [ 116.420206378999978, 39.914251942000021 ] ] ] } },
{ "type": "Feature", "properties": { }, "geometry": { "type": "MultiLineString", "coordinates": [ [ [ 116.350977693, 39.905923213999984 ], [ 116.376864233999981, 39.905741035 ], [ 116.400969591000035, 39.906469749999985 ], [ 116.429231045000051, 39.907107369000016 ] ] ] } },
{ "type": "Feature", "properties": { }, "geometry": { "type": "MultiLineString", "coordinates": [ [ [ 116.396484975000021, 39.947521274999986 ], [ 116.39714904799996, 39.932034379000015 ] ] ] } },
{ "type": "Feature", "properties": { }, "geometry": { "type": "MultiLineString", "coordinates": [ [ [ 116.373463758999947, 39.947521274999986 ], [ 116.373353080000015, 39.944848445 ], [ 116.373021043, 39.94247250799998 ], [ 116.372965703999967, 39.940860218000012 ], [ 116.37324240099997, 39.931567597000026 ] ] ] } },
{ "type": "Feature", "properties": { }, "geometry": { "type": "MultiLineString", "coordinates": [ [ [ 116.372799685000018, 39.941029935000017 ], [ 116.369866694000052, 39.941114793 ], [ 116.368483207000054, 39.940732930000024 ], [ 116.366878362999955, 39.940223777000028 ], [ 116.366269629000044, 39.940054058999976 ] ] ] } },
{ "type": "Feature", "properties": { }, "geometry": { "type": "MultiLineString", "coordinates": [ [ [ 116.365550215999974, 39.947478849999982 ], [ 116.366214289000027, 39.940011629000026 ], [ 116.366823024000041, 39.933307406999972 ], [ 116.366878362999955, 39.931185680999988 ], [ 116.367294922000042, 39.921335866999982 ], [ 116.367970453, 39.898536461 ] ] ] } },
{ "type": "Feature", "properties": { }, "geometry": { "type": "MultiLineString", "coordinates": [ [ [ 116.349612450999985, 39.938908448 ], [ 116.362506545999963, 39.93924789 ], [ 116.36649098700002, 39.940096488999984 ] ] ] } },
{ "type": "Feature", "properties": { }, "geometry": { "type": "MultiLineString", "coordinates": [ [ [ 116.350006744999973, 39.931021245000011 ], [ 116.367040923, 39.93122016 ] ] ] } },
{ "type": "Feature", "properties": { }, "geometry": { "type": "MultiLineString", "coordinates": [ [ [ 116.350612019999971, 39.916963114999987 ], [ 116.367473261999976, 39.917162071 ] ] ] } },
{ "type": "Feature", "properties": { }, "geometry": { "type": "MultiLineString", "coordinates": [ [ [ 116.351044359999946, 39.90217243799998 ], [ 116.389047004999952, 39.902786016 ] ] ] } },
{ "type": "Feature", "properties": { }, "geometry": { "type": "MultiLineString", "coordinates": [ [ [ 116.367835346999982, 39.900505800000019 ], [ 116.405394844000057, 39.901438625000026 ], [ 116.408438297999965, 39.901219889 ], [ 116.410596536999947, 39.900625534000028 ], [ 116.412256720999949, 39.899521718000017 ] ] ] } },
{ "type": "Feature", "properties": { }, "geometry": { "type": "MultiLineString", "coordinates": [ [ [ 116.369807896, 39.940966291 ], [ 116.370240234999983, 39.934137514999975 ], [ 116.370413171, 39.931419074000019 ], [ 116.370888946000036, 39.921156949000022 ] ] ] } },
{ "type": "Feature", "properties": { }, "geometry": { "type": "MultiLineString", "coordinates": [ [ [ 116.367911005999986, 39.898606943 ], [ 116.368077060000019, 39.887976211000023 ] ] ] } },
{ "type": "Feature", "properties": { }, "geometry": { "type": "MultiLineString", "coordinates": [ [ [ 116.343734210999969, 39.888249551 ], [ 116.353233860000046, 39.888158438 ], [ 116.368195805000028, 39.88788509699998 ], [ 116.377101725999978, 39.88788509699998 ], [ 116.384345207000024, 39.888249551 ], [ 116.391113706000056, 39.889525122 ], [ 116.397763459999965, 39.891073999000014 ], [ 116.411537950000024, 39.891985085999977 ], [ 116.437305745, 39.892349518 ] ] ] } },
{ "type": "Feature", "properties": { }, "geometry": { "type": "MultiLineString", "coordinates": [ [ [ 116.357465952999974, 39.88815114800002 ], [ 116.358073930000046, 39.868730345000017 ] ] ] } },
{ "type": "Feature", "properties": { }, "geometry": { "type": "MultiLineString", "coordinates": [ [ [ 116.391614261999962, 39.89884209500002 ], [ 116.393165394, 39.870749495999974 ] ] ] } },
{ "type": "Feature", "properties": { }, "geometry": { "type": "MultiLineString", "coordinates": [ [ [ 116.412296402000038, 39.899434848999988 ], [ 116.412487915000042, 39.891983337 ] ] ] } }
]
}
