{
"type": "FeatureCollection",
"name": "行省府治",
"crs": { "type": "name", "properties": { "name": "urn:ogc:def:crs:OGC:1.3:CRS84" } },
"features": [
{ "type": "Feature", "properties": { "Name": "辽阳", "Note": null }, "geometry": { "type": "Point", "coordinates": [ 123.110610085000076, 41.156890303000068, 0.0 ] } },
{ "type": "Feature", "properties": { "Name": "大都", "Note": null }, "geometry": { "type": "Point", "coordinates": [ 116.619786941000029, 40.01700124000007, 0.0 ] } },
{ "type": "Feature", "properties": { "Name": "汴梁", "Note": null }, "geometry": { "type": "Point", "coordinates": [ 114.149390161000042, 34.661717403000068, 0.0 ] } },
{ "type": "Feature", "properties": { "Name": "杭州", "Note": null }, "geometry": { "type": "Point", "coordinates": [ 120.116977472000031, 30.29985903100004, 0.0 ] } },
{ "type": "Feature", "properties": { "Name": "龙兴", "Note": null }, "geometry": { "type": "Point", "coordinates": [ 116.043865053000104, 28.574493153000049, 0.0 ] } },
{ "type": "Feature", "properties": { "Name": "武昌", "Note": null }, "geometry": { "type": "Point", "coordinates": [ 114.554065487, 30.291507734000049, 0.0 ] } },
{ "type": "Feature", "properties": { "Name": "中庆", "Note": null }, "geometry": { "type": "Point", "coordinates": [ 102.662528131000045, 25.026595692000058, 0.0 ] } },
{ "type": "Feature", "properties": { "Name": "成都", "Note": null }, "geometry": { "type": "Point", "coordinates": [ 104.149132003000034, 30.694938400000069, 0.0 ] } },
{ "type": "Feature", "properties": { "Name": "奉元", "Note": null }, "geometry": { "type": "Point", "coordinates": [ 108.963770643000032, 34.185470304000035, 0.0 ] } },
{ "type": "Feature", "properties": { "Name": "甘州", "Note": null }, "geometry": { "type": "Point", "coordinates": [ 100.813410238000074, 38.95826657300006, 0.0 ] } },
{ "type": "Feature", "properties": { "Name": "和林", "Note": null }, "geometry": { "type": "Point", "coordinates": [ 103.258507178000059, 47.143781391000061, 0.0 ] } },
{ "type": "Feature", "properties": { "Name": "萨斯迦", "Note": null }, "geometry": { "type": "Point", "coordinates": [ 87.934040259000028, 29.004396150000048, 0.0 ] } }
]
}
