{
"type": "FeatureCollection",
"name": "偃师商城",
"crs": { "type": "name", "properties": { "name": "urn:ogc:def:crs:OGC:1.3:CRS84" } },
"features": [
{ "type": "Feature", "properties": { }, "geometry": { "type": "MultiPolygon", "coordinates": [ [ [ [ 112.758786576875565, 34.734265080266717 ], [ 112.763348763392287, 34.733779423650894 ], [ 112.770934597551033, 34.732454098655502 ], [ 112.772085300470195, 34.731777347653178 ], [ 112.772030649848887, 34.729754895408156 ], [ 112.772366124559198, 34.729516197323285 ], [ 112.771760414626854, 34.720554761489993 ], [ 112.771230393338172, 34.720040381698006 ], [ 112.771228066424044, 34.719326535940752 ], [ 112.766904199752886, 34.718979143356371 ], [ 112.766614748703049, 34.71858319186363 ], [ 112.766220740377278, 34.715530356314815 ], [ 112.757721369633117, 34.716064159764478 ], [ 112.758786576875565, 34.734265080266717 ] ] ] ] } }
]
}
