{
"type": "FeatureCollection",
"name": "其他要素",
"crs": { "type": "name", "properties": { "name": "urn:ogc:def:crs:OGC:1.3:CRS84" } },
"features": [
{ "type": "Feature", "properties": { }, "geometry": { "type": "MultiLineString", "coordinates": [ [ [ 112.758392805057454, 34.727543227829287 ], [ 112.767004516137106, 34.72710639635573 ], [ 112.767240421020603, 34.726967530290189 ], [ 112.766582543346445, 34.718539304173305 ] ] ] } },
{ "type": "Feature", "properties": { }, "geometry": { "type": "MultiLineString", "coordinates": [ [ [ 112.761209936162786, 34.720249429041459 ], [ 112.764200703345836, 34.720110328702852 ], [ 112.764040313194002, 34.717982407532453 ], [ 112.761035497976238, 34.718111498619741 ], [ 112.761209266197682, 34.720246066354889 ] ] ] } }
]
}
