{
"type": "FeatureCollection",
"name": "上阳宫",
"crs": { "type": "name", "properties": { "name": "urn:ogc:def:crs:OGC:1.3:CRS84" } },
"features": [
{ "type": "Feature", "properties": { "殿": "上清观" }, "geometry": { "type": "MultiPolygon", "coordinates": [ [ [ [ 112.421944542310399, 34.679905555392047 ], [ 112.419458691592908, 34.679743219309749 ], [ 112.418914305115933, 34.683796598742703 ], [ 112.421335406673506, 34.683976760384347 ], [ 112.421944542310399, 34.679905555392047 ] ] ] ] } },
{ "type": "Feature", "properties": { "殿": "芬芳殿" }, "geometry": { "type": "MultiPolygon", "coordinates": [ [ [ [ 112.430739663760306, 34.685402894572931 ], [ 112.435950598318925, 34.68575743264725 ], [ 112.437058500755569, 34.676610581652085 ], [ 112.435785777732889, 34.676529914714578 ], [ 112.435287610124035, 34.680245462976941 ], [ 112.43302981943684, 34.680097952501335 ], [ 112.432403275534469, 34.684974149655417 ], [ 112.430812201042301, 34.684893254185887 ], [ 112.430739663760306, 34.685402894572931 ] ] ] ] } },
{ "type": "Feature", "properties": { "殿": "仙居殿" }, "geometry": { "type": "MultiPolygon", "coordinates": [ [ [ [ 112.435473482405484, 34.676531375191693 ], [ 112.432042274267602, 34.67620441975027 ], [ 112.431504211063952, 34.67970212030211 ], [ 112.435014332950999, 34.679951108669471 ], [ 112.435473482405484, 34.676531375191693 ] ] ] ] } },
{ "type": "Feature", "properties": { "殿": "翰林院" }, "geometry": { "type": "MultiPolygon", "coordinates": [ [ [ [ 112.425453481812937, 34.663776261272702 ], [ 112.422724416290052, 34.663531031307095 ], [ 112.422608910335526, 34.664339397970991 ], [ 112.425362970164002, 34.664523164604951 ], [ 112.425453481812937, 34.663776261272702 ] ] ] ] } },
{ "type": "Feature", "properties": { "殿": "甘汤院" }, "geometry": { "type": "MultiPolygon", "coordinates": [ [ [ [ 112.426846758190891, 34.659543627628722 ], [ 112.423919775244968, 34.659333776604036 ], [ 112.423555482107631, 34.661869282473646 ], [ 112.42651403319212, 34.662079159325124 ], [ 112.426846758190891, 34.659543627628722 ] ] ] ] } },
{ "type": "Feature", "properties": { "殿": "小上阳宫" }, "geometry": { "type": "MultiPolygon", "coordinates": [ [ [ [ 112.421682714538775, 34.66286775579654 ], [ 112.416986153326718, 34.662580192236391 ], [ 112.416416116626735, 34.6670092052196 ], [ 112.421162114055761, 34.667296820520797 ], [ 112.421682714538775, 34.66286775579654 ] ] ] ] } },
{ "type": "Feature", "properties": { "殿": "西上阳宫" }, "geometry": { "type": "MultiPolygon", "coordinates": [ [ [ [ 112.412517761681329, 34.658046041407069 ], [ 112.400977060740431, 34.657223701023241 ], [ 112.399278127219659, 34.670340867105494 ], [ 112.412870380337012, 34.671293891096155 ], [ 112.413315873227774, 34.6685918698522 ], [ 112.413220383865209, 34.66582850741495 ], [ 112.412927981495073, 34.663247868404319 ], [ 112.412512625728624, 34.66068745773341 ], [ 112.412456087916283, 34.659227778251839 ], [ 112.412517761681329, 34.658046041407069 ] ] ] ] } },
{ "type": "Feature", "properties": { "殿": "甘露殿" }, "geometry": { "type": "MultiPolygon", "coordinates": [ [ [ [ 112.431973898097127, 34.668607512255306 ], [ 112.427104871546547, 34.668273257278685 ], [ 112.426728665460658, 34.671347451626133 ], [ 112.43157016907972, 34.671727420106663 ], [ 112.431973898097127, 34.668607512255306 ] ] ] ] } },
{ "type": "Feature", "properties": { "殿": "麟趾殿" }, "geometry": { "type": "MultiPolygon", "coordinates": [ [ [ [ 112.435831553573109, 34.670986847609058 ], [ 112.433051112013374, 34.670825346751982 ], [ 112.432618963579586, 34.674905283999067 ], [ 112.435302676349522, 34.675101028207827 ], [ 112.435831553573109, 34.670986847609058 ] ] ] ] } },
{ "type": "Feature", "properties": { "殿": "飞龙殿" }, "geometry": { "type": "MultiPolygon", "coordinates": [ [ [ [ 112.423236410519124, 34.684063085984207 ], [ 112.425723532383813, 34.684231606077084 ], [ 112.426115774503501, 34.680961768495735 ], [ 112.42358664908916, 34.680799489467141 ], [ 112.423236410519124, 34.684063085984207 ] ] ] ] } },
{ "type": "Feature", "properties": { "殿": "本枝院" }, "geometry": { "type": "MultiPolygon", "coordinates": [ [ [ [ 112.432076507122858, 34.664680075336605 ], [ 112.429923122675802, 34.664524133780048 ], [ 112.429569185341919, 34.667364077892152 ], [ 112.431783432652367, 34.667520722193082 ], [ 112.432076507122858, 34.664680075336605 ] ] ] ] } },
{ "type": "Feature", "properties": { "殿": "春丽殿" }, "geometry": { "type": "MultiPolygon", "coordinates": [ [ [ [ 112.429923122675802, 34.664524133780048 ], [ 112.427583221027589, 34.664354641124433 ], [ 112.427236453950471, 34.66719900526423 ], [ 112.429569185341919, 34.667364077892152 ], [ 112.429923122675802, 34.664524133780048 ] ] ] ] } },
{ "type": "Feature", "properties": { "殿": "观风殿" }, "geometry": { "type": "MultiPolygon", "coordinates": [ [ [ [ 112.432076507122858, 34.664680075336605 ], [ 112.431783432652367, 34.667520722193082 ], [ 112.436212089729395, 34.667833896572546 ], [ 112.436632308035868, 34.66500986559808 ], [ 112.432076507122858, 34.664680075336605 ] ] ] ] } },
{ "type": "Feature", "properties": { "殿": "荫殿" }, "geometry": { "type": "MultiPolygon", "coordinates": [ [ [ [ 112.425541962914963, 34.663046096112062 ], [ 112.422810282176883, 34.662930111763302 ], [ 112.422724416290052, 34.663531031307095 ], [ 112.425453481812937, 34.663776261272702 ], [ 112.425541962914963, 34.663046096112062 ] ] ] ] } },
{ "type": "Feature", "properties": { "殿": "课省院" }, "geometry": { "type": "MultiPolygon", "coordinates": [ [ [ [ 112.422810282176883, 34.662930111763302 ], [ 112.425541962914963, 34.663046096112062 ], [ 112.425616655651424, 34.662429716313177 ], [ 112.422909892710365, 34.662232979363452 ], [ 112.422810282176883, 34.662930111763302 ] ] ] ] } },
{ "type": "Feature", "properties": { "殿": null }, "geometry": { "type": "MultiPolygon", "coordinates": [ [ [ [ 112.443987494858646, 34.670419095159431 ], [ 112.443066589554888, 34.670354482500997 ], [ 112.439452754429354, 34.670100848484303 ], [ 112.43825316556952, 34.670016629610139 ], [ 112.43868429713379, 34.666908140134652 ], [ 112.448145640222975, 34.667609701739366 ], [ 112.447708534740258, 34.670734986371599 ], [ 112.443987494858646, 34.670419095159431 ], [ 112.447940440931959, 34.670815756291901 ], [ 112.447967128789116, 34.670555741338966 ], [ 112.448404746175044, 34.667411175229361 ], [ 112.438362349733865, 34.666667686356611 ], [ 112.438408365541434, 34.666301215160601 ], [ 112.437106969131278, 34.66622547723356 ], [ 112.437667521863716, 34.661840736640791 ], [ 112.426652336536577, 34.661025239095203 ], [ 112.426608439445602, 34.661359749935336 ], [ 112.433372991483452, 34.661801319119085 ], [ 112.433110082274339, 34.663709985324125 ], [ 112.433442437852833, 34.663760100088197 ], [ 112.433708820421103, 34.661823232010242 ], [ 112.437326040797771, 34.662059186544688 ], [ 112.436550173564527, 34.668235562578339 ], [ 112.424786861919955, 34.667400277985379 ], [ 112.424979501051013, 34.666010557175824 ], [ 112.424616925775993, 34.665960398891841 ], [ 112.424404128215372, 34.667358429557481 ], [ 112.422157986241643, 34.667223858388795 ], [ 112.42210737264547, 34.667490142777794 ], [ 112.424352978186249, 34.667663361546531 ], [ 112.423368018729064, 34.675323965273755 ], [ 112.41898672081976, 34.674887846083124 ], [ 112.418936508874282, 34.675287854300677 ], [ 112.423332431219066, 34.675602250079052 ], [ 112.422015406877406, 34.684808806373468 ], [ 112.422457919640507, 34.684838954541441 ], [ 112.422538830339789, 34.684293972128692 ], [ 112.430535510131577, 34.684858810255278 ], [ 112.430480782030116, 34.685385269548206 ], [ 112.430739664857569, 34.685402889166213 ], [ 112.430812201042301, 34.684893254185887 ], [ 112.432403275534469, 34.684974149655417 ], [ 112.43302981943684, 34.680097952501335 ], [ 112.435287610124035, 34.680245462976941 ], [ 112.435785777732889, 34.676529914714578 ], [ 112.437058500755569, 34.676610581652085 ], [ 112.43595059832171, 34.685757429045267 ], [ 112.441804572195664, 34.686155450353006 ], [ 112.443987494858646, 34.670419095159431 ] ], [ [ 112.436398307871656, 34.685477793495025 ], [ 112.438211099382158, 34.670782354684569 ], [ 112.438239055342095, 34.670393779701826 ], [ 112.443647716322573, 34.670796414960293 ], [ 112.443578253829926, 34.671230688851388 ], [ 112.441498783215181, 34.685815178436052 ], [ 112.436398307871656, 34.685477793495025 ] ], [ [ 112.43832460536008, 34.666953674810536 ], [ 112.437165961845537, 34.676289194791657 ], [ 112.435804187462836, 34.676199198321257 ], [ 112.437038230093691, 34.666827297809981 ], [ 112.43832460536008, 34.666953674810536 ] ], [ [ 112.424678456953572, 34.667664772691587 ], [ 112.432719610889436, 34.668299339389641 ], [ 112.431679858885559, 34.675901490476299 ], [ 112.423712322316348, 34.67534449929704 ], [ 112.424678456953572, 34.667664772691587 ] ], [ [ 112.423637271709595, 34.675653290896491 ], [ 112.431695947949379, 34.676243237452262 ], [ 112.431205161604666, 34.679662938204849 ], [ 112.423240602675847, 34.679073021702571 ], [ 112.423637271709595, 34.675653290896491 ] ], [ [ 112.423229908259657, 34.679387376408904 ], [ 112.431161629743201, 34.679957935795045 ], [ 112.43109039353584, 34.680440658160208 ], [ 112.431400267620205, 34.680484720637565 ], [ 112.431402817548673, 34.68046646364553 ], [ 112.43147102621495, 34.679978246098251 ], [ 112.432720695421892, 34.680090553853596 ], [ 112.432660106596188, 34.680570304673665 ], [ 112.432142750012076, 34.684666313542571 ], [ 112.429695967890112, 34.684500660892354 ], [ 112.428051610090193, 34.684389303453614 ], [ 112.425723532383813, 34.684231606077084 ], [ 112.423236410519124, 34.684063085984207 ], [ 112.422583833368193, 34.684018857013463 ], [ 112.423229908259657, 34.679387376408904 ] ], [ [ 112.431504211063952, 34.67970212030211 ], [ 112.432042274267602, 34.67620441975027 ], [ 112.435473482405484, 34.676531375191693 ], [ 112.435014332950999, 34.679951108669471 ], [ 112.431504211063952, 34.67970212030211 ] ], [ [ 112.43553668721114, 34.676219319565895 ], [ 112.431979534487695, 34.675931305943834 ], [ 112.432993076955199, 34.668298679542964 ], [ 112.436526209107925, 34.668531188455198 ], [ 112.43553668721114, 34.676219319565895 ] ] ] ] } }
]
}
