{
"type": "FeatureCollection",
"name": "上阳宫城墙",
"crs": { "type": "name", "properties": { "name": "urn:ogc:def:crs:OGC:1.3:CRS84" } },
"features": [
{ "type": "Feature", "properties": { }, "geometry": { "type": "MultiLineString", "coordinates": [ [ [ 112.447967128789116, 34.670555741338966 ], [ 112.448404746175044, 34.667411175229361 ], [ 112.438362349733865, 34.666667686356611 ], [ 112.438999479189022, 34.661593301192724 ], [ 112.432932674527734, 34.661114140583592 ], [ 112.427019972592831, 34.658193320637515 ], [ 112.400233397824024, 34.656396449529787 ], [ 112.398466391380325, 34.671065154597969 ], [ 112.419283179320232, 34.672526040295082 ], [ 112.417777497196909, 34.684519995322383 ], [ 112.441804572195664, 34.686155450353006 ], [ 112.443987494858646, 34.670419095159431 ], [ 112.447940440931959, 34.670815756291901 ], [ 112.447967128789116, 34.670555741338966 ] ] ] } }
]
}
