{
"type": "FeatureCollection",
"name": "上阳宫门",
"crs": { "type": "name", "properties": { "name": "urn:ogc:def:crs:OGC:1.3:CRS84" } },
"features": [
{ "type": "Feature", "properties": { "门": "含露门" }, "geometry": { "type": "MultiPoint", "coordinates": [ [ 112.399364715644197, 34.663608418702715 ] ] } },
{ "type": "Feature", "properties": { "门": "芬芳门" }, "geometry": { "type": "MultiPoint", "coordinates": [ [ 112.430588902751595, 34.685392628165275 ] ] } },
{ "type": "Feature", "properties": { "门": "元武门" }, "geometry": { "type": "MultiPoint", "coordinates": [ [ 112.422246591490818, 34.68482455764785 ] ] } },
{ "type": "Feature", "properties": { "门": "通仙门" }, "geometry": { "type": "MultiPoint", "coordinates": [ [ 112.425612799348414, 34.658099074045552 ] ] } },
{ "type": "Feature", "properties": { "门": "仙洛门" }, "geometry": { "type": "MultiPoint", "coordinates": [ [ 112.433837516739118, 34.661185625193902 ] ] } },
{ "type": "Feature", "properties": { "门": "提象门" }, "geometry": { "type": "MultiPoint", "coordinates": [ [ 112.438362349733865, 34.666667686356611 ] ] } },
{ "type": "Feature", "properties": { "门": "星躔门" }, "geometry": { "type": "MultiPoint", "coordinates": [ [ 112.437145304454504, 34.676482353107751 ] ] } }
]
}
