{
"type": "FeatureCollection",
"name": "外郭城墙",
"crs": { "type": "name", "properties": { "name": "urn:ogc:def:crs:OGC:1.3:CRS84" } },
"features": [
{ "type": "Feature", "properties": { }, "geometry": { "type": "MultiLineString", "coordinates": [ [ [ 112.511708881375213, 34.673216336940683 ], [ 112.516989256625237, 34.636375940466941 ], [ 112.436633280991614, 34.630779408402624 ], [ 112.436130593856944, 34.633440500178693 ], [ 112.436149986083322, 34.636040768490986 ], [ 112.43635012483189, 34.637120249054242 ], [ 112.438161872744743, 34.639627991648368 ], [ 112.437007075411515, 34.641762954246474 ], [ 112.436800052558297, 34.642509862520981 ], [ 112.437015728702633, 34.643495591667701 ], [ 112.438373529460705, 34.64574511911286 ], [ 112.43996239900622, 34.647519831864265 ] ] ] } },
{ "type": "Feature", "properties": { }, "geometry": { "type": "MultiLineString", "coordinates": [ [ [ 112.510999421567774, 34.678163615522628 ], [ 112.507570895240448, 34.702020305524371 ], [ 112.44108994419139, 34.693732391106607 ], [ 112.441612687862118, 34.689564699239305 ], [ 112.441776216093345, 34.688313386768939 ], [ 112.442116862057304, 34.685706691705128 ], [ 112.444090261615059, 34.670506562043435 ] ] ] } }
]
}
