{
"type": "FeatureCollection",
"name": "太微城",
"crs": { "type": "name", "properties": { "name": "urn:ogc:def:crs:OGC:1.3:CRS84" } },
"features": [
{ "type": "Feature", "properties": { "宫_城": "皇城" }, "geometry": { "type": "MultiPolygon", "coordinates": [ [ [ [ 112.444100206553742, 34.670526452135086 ], [ 112.443406704485838, 34.675835035207186 ], [ 112.448909944903932, 34.676325680746231 ], [ 112.448970278674835, 34.675867461118592 ], [ 112.461087694081641, 34.676972003912979 ], [ 112.461018693833836, 34.677404026644453 ], [ 112.466735235530479, 34.677912825219231 ], [ 112.467427267391514, 34.672604110495016 ], [ 112.444100206553742, 34.670526452135086 ] ] ] ] } },
{ "type": "Feature", "properties": { "宫_城": "东城" }, "geometry": { "type": "MultiPolygon", "coordinates": [ [ [ [ 112.46510820921354, 34.690391440998958 ], [ 112.471681022818302, 34.690976030458906 ], [ 112.473285113505838, 34.678665901268992 ], [ 112.466720181310976, 34.678028306705613 ], [ 112.46510820921354, 34.690391440998958 ] ] ] ] } },
{ "type": "Feature", "properties": { "宫_城": "含嘉仓城" }, "geometry": { "type": "MultiPolygon", "coordinates": [ [ [ [ 112.46510820921354, 34.690391440998958 ], [ 112.46428592694906, 34.696621667283239 ], [ 112.470814633849727, 34.697437686691686 ], [ 112.471681022818302, 34.690976030458906 ], [ 112.46510820921354, 34.690391440998958 ] ] ] ] } }
]
}
