{
"type": "FeatureCollection",
"name": "市",
"crs": { "type": "name", "properties": { "name": "urn:ogc:def:crs:OGC:1.3:CRS84" } },
"features": [
{ "type": "Feature", "properties": { "里坊": "北市" }, "geometry": { "type": "MultiPolygon", "coordinates": [ [ [ [ 112.486389249518353, 34.690086819808698 ], [ 112.492533594601824, 34.690522034681635 ], [ 112.493144992747759, 34.686471633413795 ], [ 112.486938660464816, 34.686051218609947 ], [ 112.486389249518353, 34.690086819808698 ] ] ] ] } },
{ "type": "Feature", "properties": { "里坊": "南市" }, "geometry": { "type": "MultiPolygon", "coordinates": [ [ [ [ 112.494724782604578, 34.657131049797201 ], [ 112.489204746006394, 34.656680248074828 ], [ 112.488620796523406, 34.660894627695313 ], [ 112.488546394857096, 34.661431552531553 ], [ 112.487961495178197, 34.665652295195493 ], [ 112.493451331888338, 34.666080711582531 ], [ 112.494047707156682, 34.661889703293824 ], [ 112.494126327423558, 34.66133716527218 ], [ 112.494724782604578, 34.657131049797201 ] ] ] ] } },
{ "type": "Feature", "properties": { "里坊": "西市" }, "geometry": { "type": "MultiPolygon", "coordinates": [ [ [ [ 112.442333678102628, 34.636508403398167 ], [ 112.447900531443679, 34.636886794798663 ], [ 112.448558312349533, 34.632274989398077 ], [ 112.442865914862793, 34.631890738347643 ], [ 112.442333678102628, 34.636508403398167 ] ] ] ] } }
]
}
