{
"type": "FeatureCollection",
"name": "离宫",
"crs": { "type": "name", "properties": { "name": "urn:ogc:def:crs:OGC:1.3:CRS84" } },
"features": [
{ "type": "Feature", "properties": { "名称": "上清宫", "类型": "离宫" }, "geometry": { "type": "MultiPolygon", "coordinates": [ [ [ [ 112.437601636287482, 34.724529054980323 ], [ 112.439190622909905, 34.724722805499297 ], [ 112.438938635686867, 34.727581536930828 ], [ 112.45053761935425, 34.728278955800171 ], [ 112.450846322129721, 34.725459199419987 ], [ 112.451314058538813, 34.725475801783162 ], [ 112.451314954554803, 34.725375647839215 ], [ 112.452122043766735, 34.719228123557251 ], [ 112.458067665624384, 34.719672602350315 ], [ 112.459034996275278, 34.713303936237317 ], [ 112.439217769795491, 34.712145717129623 ], [ 112.437601636287482, 34.724529054980323 ] ] ] ] } },
{ "type": "Feature", "properties": { "名称": "下清宫", "类型": "离宫" }, "geometry": { "type": "MultiPolygon", "coordinates": [ [ [ [ 112.454590166722681, 34.711754342940111 ], [ 112.459035605921045, 34.712065520936065 ], [ 112.459466253719668, 34.70764274744419 ], [ 112.455342469958353, 34.707199016021306 ], [ 112.454590166722681, 34.711754342940111 ] ] ] ] } },
{ "type": "Feature", "properties": { "名称": "玉清宫", "类型": "离宫" }, "geometry": { "type": "MultiPolygon", "coordinates": [ [ [ [ 112.43326626131973, 34.719838477287304 ], [ 112.437229818353842, 34.720327100550826 ], [ 112.438252085647804, 34.714268232074289 ], [ 112.434181720642854, 34.713735354625207 ], [ 112.43326626131973, 34.719838477287304 ] ] ] ] } },
{ "type": "Feature", "properties": { "名称": "宿羽宫", "类型": "离宫" }, "geometry": { "type": "MultiPolygon", "coordinates": [ [ [ [ 112.389057772713926, 34.68635169728234 ], [ 112.391555324220121, 34.686555236225502 ], [ 112.392172110582237, 34.680718292711923 ], [ 112.389957712602055, 34.680556682227675 ], [ 112.390409525120148, 34.677647005822152 ], [ 112.384805748368919, 34.677289579626041 ], [ 112.384372977901108, 34.681868583823722 ], [ 112.386687694732444, 34.682021725221738 ], [ 112.386563525143686, 34.683732598966735 ], [ 112.389426582530831, 34.683886196940584 ], [ 112.389057772713926, 34.68635169728234 ] ] ] ] } },
{ "type": "Feature", "properties": { "名称": "", "类型": "" }, "geometry": { "type": "MultiPolygon", "coordinates": [ [ [ [ 112.370248382291976, 34.673887579875476 ], [ 112.377291582139605, 34.673816237668539 ], [ 112.377585321359149, 34.668233792271231 ], [ 112.370638497171399, 34.667833471607786 ], [ 112.370248382291976, 34.673887579875476 ] ] ] ] } },
{ "type": "Feature", "properties": { "名称": "", "类型": "" }, "geometry": { "type": "MultiPolygon", "coordinates": [ [ [ [ 112.367427121638116, 34.663254253054802 ], [ 112.373613061788944, 34.663103560110059 ], [ 112.373811256210459, 34.657914166408688 ], [ 112.36760528767141, 34.657747815564328 ], [ 112.367427121638116, 34.663254253054802 ] ] ] ] } },
{ "type": "Feature", "properties": { "名称": "凝碧宫", "类型": "离宫" }, "geometry": { "type": "MultiPolygon", "coordinates": [ [ [ [ 112.374018814519687, 34.657828680062309 ], [ 112.380848592132736, 34.658098740454321 ], [ 112.381454937524012, 34.652719475942568 ], [ 112.374271747995579, 34.652320644340037 ], [ 112.374018814519687, 34.657828680062309 ] ] ] ] } },
{ "type": "Feature", "properties": { "名称": "", "类型": "" }, "geometry": { "type": "MultiPolygon", "coordinates": [ [ [ [ 112.364611190266487, 34.647184075519284 ], [ 112.371794208885234, 34.647377351469835 ], [ 112.37220229727761, 34.641503214421846 ], [ 112.364969936903734, 34.641289294044768 ], [ 112.364611190266487, 34.647184075519284 ] ] ] ] } },
{ "type": "Feature", "properties": { "名称": "积翠宫", "类型": "离宫" }, "geometry": { "type": "MultiPolygon", "coordinates": [ [ [ [ 112.384192207099716, 34.630327441436265 ], [ 112.384734440755423, 34.631130483801051 ], [ 112.386432583157259, 34.633100287322399 ], [ 112.387390145947947, 34.633919132591956 ], [ 112.388316529097949, 34.634942431324454 ], [ 112.389890959184797, 34.637039877304765 ], [ 112.391064020415371, 34.638676843901429 ], [ 112.391495497568883, 34.639827479770638 ], [ 112.392359745176933, 34.641157424170856 ], [ 112.392667902717776, 34.642026774760673 ], [ 112.39405820733694, 34.643178240211505 ], [ 112.394954200074508, 34.643920288751303 ], [ 112.396407887779318, 34.643895970460271 ], [ 112.398574836115586, 34.642313002977438 ], [ 112.401761954237671, 34.641037556537633 ], [ 112.403741598000735, 34.640809084937239 ], [ 112.406432451690605, 34.640683374209225 ], [ 112.408968379116331, 34.640813099189579 ], [ 112.409958120713299, 34.640762712871222 ], [ 112.410360263280978, 34.64068632507707 ], [ 112.409773468846183, 34.639919058456883 ], [ 112.406527930993292, 34.638280701329549 ], [ 112.404921314530128, 34.636899158066072 ], [ 112.403129882224974, 34.634929539684308 ], [ 112.400813757032324, 34.632167072548114 ], [ 112.399084277000611, 34.630274126711811 ], [ 112.397050947486733, 34.628183353339836 ], [ 112.392637928538647, 34.627292005396868 ], [ 112.390624331632893, 34.627036539573304 ], [ 112.389775565666852, 34.626648449541179 ], [ 112.386972228164979, 34.626497958762457 ], [ 112.384050287381186, 34.625854213071889 ], [ 112.381246213746962, 34.626245976161883 ], [ 112.380469567471394, 34.627083450342312 ], [ 112.382138024555317, 34.628317771868758 ], [ 112.382971961548549, 34.629156807218976 ], [ 112.384192207099716, 34.630327441436265 ] ] ] ] } },
{ "type": "Feature", "properties": { "名称": "冷泉宫", "类型": "离宫" }, "geometry": { "type": "MultiPolygon", "coordinates": [ [ [ [ 112.405813239269349, 34.634200539548004 ], [ 112.411371404748905, 34.6343963319189 ], [ 112.411896405438497, 34.629795051524965 ], [ 112.406175656523189, 34.629440483353264 ], [ 112.405813239269349, 34.634200539548004 ] ] ] ] } },
{ "type": "Feature", "properties": { "名称": "望春宫", "类型": "离宫" }, "geometry": { "type": "MultiPolygon", "coordinates": [ [ [ [ 112.40404467657072, 34.627093894826089 ], [ 112.414860178511702, 34.62791827741853 ], [ 112.416281763554721, 34.617228954925373 ], [ 112.404856222469405, 34.616520843010385 ], [ 112.40404467657072, 34.627093894826089 ] ] ] ] } },
{ "type": "Feature", "properties": { "名称": "天经宫", "类型": "离宫" }, "geometry": { "type": "MultiPolygon", "coordinates": [ [ [ [ 112.431468298198808, 34.619143258300632 ], [ 112.437487075903718, 34.61937973674565 ], [ 112.437819835930952, 34.614559547093805 ], [ 112.431801469143764, 34.614245336797751 ], [ 112.431468298198808, 34.619143258300632 ] ] ] ] } },
{ "type": "Feature", "properties": { "名称": "甘泉宫", "类型": "离宫" }, "geometry": { "type": "MultiPolygon", "coordinates": [ [ [ [ 112.376349903516001, 34.58788156065129 ], [ 112.382390927455461, 34.58799498399938 ], [ 112.383857183403705, 34.584638773262043 ], [ 112.383961162445871, 34.57993820543355 ], [ 112.373731114918243, 34.579928033050884 ], [ 112.373626394914893, 34.584736036794396 ], [ 112.376349903516001, 34.58788156065129 ] ] ] ] } },
{ "type": "Feature", "properties": { "名称": "", "类型": "" }, "geometry": { "type": "MultiPolygon", "coordinates": [ [ [ [ 112.373531812674457, 34.593966859952644 ], [ 112.377856682874196, 34.593932397797552 ], [ 112.377768195648656, 34.590161523776985 ], [ 112.373631607692801, 34.590157304214522 ], [ 112.373531812674457, 34.593966859952644 ] ] ] ] } },
{ "type": "Feature", "properties": { "名称": "", "类型": "" }, "geometry": { "type": "MultiPolygon", "coordinates": [ [ [ [ 112.367122192923304, 34.588902837423795 ], [ 112.371141935976539, 34.589066223087272 ], [ 112.371380926449191, 34.586500784501297 ], [ 112.367338838468427, 34.586302080773351 ], [ 112.367122192923304, 34.588902837423795 ] ] ] ] } },
{ "type": "Feature", "properties": { "名称": "", "类型": "" }, "geometry": { "type": "MultiPolygon", "coordinates": [ [ [ [ 112.361625822258077, 34.583011609770459 ], [ 112.367268169080035, 34.583297951908257 ], [ 112.3677274612307, 34.578372177879544 ], [ 112.362003531657322, 34.578114749055949 ], [ 112.361625822258077, 34.583011609770459 ] ] ] ] } },
{ "type": "Feature", "properties": { "名称": "明德宫", "类型": "离宫" }, "geometry": { "type": "MultiPolygon", "coordinates": [ [ [ [ 112.352786979702927, 34.592689379704225 ], [ 112.356899979733512, 34.592815760073023 ], [ 112.357651913573164, 34.582612186962898 ], [ 112.353347688613312, 34.582528606317901 ], [ 112.353621497126667, 34.577565918434111 ], [ 112.339888812707429, 34.577548645672124 ], [ 112.339872125997474, 34.586234569632943 ], [ 112.353165254149545, 34.58643353580829 ], [ 112.352786979702927, 34.592689379704225 ] ] ] ] } },
{ "type": "Feature", "properties": { "名称": "射堂", "类型": "离宫" }, "geometry": { "type": "MultiPolygon", "coordinates": [ [ [ [ 112.348208050598927, 34.613132130218645 ], [ 112.357890943907151, 34.613276493013956 ], [ 112.358055582761708, 34.610844040672802 ], [ 112.356558063236506, 34.610621137418093 ], [ 112.356781780517579, 34.604959968508453 ], [ 112.348651379908219, 34.604684763783887 ], [ 112.348208050598927, 34.613132130218645 ] ] ] ] } },
{ "type": "Feature", "properties": { "名称": "官马坊", "类型": "离宫" }, "geometry": { "type": "MultiPolygon", "coordinates": [ [ [ [ 112.339918343075169, 34.611838857181709 ], [ 112.345428540026177, 34.611845969452538 ], [ 112.345810877207583, 34.607600380263918 ], [ 112.340247890548028, 34.607372066350869 ], [ 112.339918343075169, 34.611838857181709 ] ] ] ] } },
{ "type": "Feature", "properties": { "名称": "黄女宫", "类型": "离宫" }, "geometry": { "type": "MultiPolygon", "coordinates": [ [ [ [ 112.348626247631756, 34.623367720327728 ], [ 112.346216925969543, 34.62335357834192 ], [ 112.345885671438111, 34.628881885090429 ], [ 112.35803191554227, 34.628940864342908 ], [ 112.358201776177665, 34.623456567018323 ], [ 112.355794148778031, 34.623409513709099 ], [ 112.356287821370657, 34.616377550939433 ], [ 112.348792642663469, 34.616145238035777 ], [ 112.348626247631756, 34.623367720327728 ] ] ] ] } },
{ "type": "Feature", "properties": { "名称": "合璧宫", "类型": "离宫" }, "geometry": { "type": "MultiPolygon", "coordinates": [ [ [ [ 112.29476117473385, 34.606720505025649 ], [ 112.311753432055625, 34.606980180652386 ], [ 112.312051346648531, 34.591472810060374 ], [ 112.295217315859247, 34.591234829202975 ], [ 112.29476117473385, 34.606720505025649 ] ] ] ] } },
{ "type": "Feature", "properties": { "名称": "", "类型": "" }, "geometry": { "type": "MultiPolygon", "coordinates": [ [ [ [ 112.2990993644799, 34.62813925486612 ], [ 112.30287236150393, 34.628206569370931 ], [ 112.302948290060826, 34.625296052003513 ], [ 112.29917542371048, 34.625228739815221 ], [ 112.2990993644799, 34.62813925486612 ] ] ] ] } },
{ "type": "Feature", "properties": { "名称": "", "类型": "" }, "geometry": { "type": "MultiPolygon", "coordinates": [ [ [ [ 112.30216019742771, 34.642743226421445 ], [ 112.306356323141941, 34.642686332012133 ], [ 112.306233114287096, 34.636486849358285 ], [ 112.302037299723921, 34.6365437386876 ], [ 112.30216019742771, 34.642743226421445 ] ] ] ] } },
{ "type": "Feature", "properties": { "名称": "", "类型": "" }, "geometry": { "type": "MultiPolygon", "coordinates": [ [ [ [ 112.328757096567571, 34.630469258261627 ], [ 112.33560347424411, 34.630697277200234 ], [ 112.335894177611124, 34.624728164303853 ], [ 112.329048289714223, 34.624500161471012 ], [ 112.328757096567571, 34.630469258261627 ] ] ] ] } },
{ "type": "Feature", "properties": { "名称": "流芳堂", "类型": "离宫" }, "geometry": { "type": "MultiPolygon", "coordinates": [ [ [ [ 112.334226545101615, 34.638607245990571 ], [ 112.334177030734793, 34.636831427521727 ], [ 112.330163846350871, 34.636907800612349 ], [ 112.330213275200293, 34.638683620682492 ], [ 112.334226545101615, 34.638607245990571 ] ] ], [ [ [ 112.334760590008997, 34.64047462581118 ], [ 112.328645801326616, 34.64022083585926 ], [ 112.328373156095552, 34.644705058880945 ], [ 112.334488274278598, 34.644958861406984 ], [ 112.334760590008997, 34.64047462581118 ] ] ] ] } },
{ "type": "Feature", "properties": { "名称": "", "类型": "" }, "geometry": { "type": "MultiPolygon", "coordinates": [ [ [ [ 112.321148932514532, 34.636871451913926 ], [ 112.325322955851533, 34.636877503311283 ], [ 112.325330747154027, 34.633162215542441 ], [ 112.321156909994571, 34.633156164411218 ], [ 112.321148932514532, 34.636871451913926 ] ] ] ] } },
{ "type": "Feature", "properties": { "名称": "", "类型": "" }, "geometry": { "type": "MultiPolygon", "coordinates": [ [ [ [ 112.307312649570207, 34.633473293809239 ], [ 112.311791601367545, 34.633597205649927 ], [ 112.311924277221962, 34.630318522065764 ], [ 112.307445500428159, 34.630194615027349 ], [ 112.307312649570207, 34.633473293809239 ] ] ] ] } },
{ "type": "Feature", "properties": { "名称": "", "类型": "" }, "geometry": { "type": "MultiPolygon", "coordinates": [ [ [ [ 112.347862945401886, 34.641403815525592 ], [ 112.357800112084462, 34.641462473978187 ], [ 112.357821009040435, 34.639027431143631 ], [ 112.347884132866483, 34.638968774382008 ], [ 112.347862945401886, 34.641403815525592 ] ] ] ] } },
{ "type": "Feature", "properties": { "名称": "", "类型": "" }, "geometry": { "type": "MultiPolygon", "coordinates": [ [ [ [ 112.360771535359319, 34.640355443897647 ], [ 112.373181011180947, 34.640629742162773 ], [ 112.37331279473706, 34.636547673206287 ], [ 112.360903926659688, 34.636273388200756 ], [ 112.360771535359319, 34.640355443897647 ] ] ] ] } },
{ "type": "Feature", "properties": { "名称": "龙鳞宫", "类型": "离宫" }, "geometry": { "type": "MultiPolygon", "coordinates": [ [ [ [ 112.353697881929136, 34.671416660494366 ], [ 112.365521348977282, 34.671615453247682 ], [ 112.365815904525718, 34.659621315949437 ], [ 112.353994139849519, 34.659422551449858 ], [ 112.353697881929136, 34.671416660494366 ] ] ] ] } },
{ "type": "Feature", "properties": { "名称": "", "类型": "" }, "geometry": { "type": "MultiPolygon", "coordinates": [ [ [ [ 112.345788642264068, 34.663853414758343 ], [ 112.352933351376961, 34.664357998417984 ], [ 112.353505902791611, 34.658820760427446 ], [ 112.346361664224276, 34.658316210773222 ], [ 112.345788642264068, 34.663853414758343 ] ] ] ] } },
{ "type": "Feature", "properties": { "名称": "", "类型": "" }, "geometry": { "type": "MultiPolygon", "coordinates": [ [ [ [ 112.328705599012267, 34.667147834019502 ], [ 112.332988206122764, 34.667153773315157 ], [ 112.332998763084973, 34.661890472773685 ], [ 112.328716426680799, 34.661884533848443 ], [ 112.328705599012267, 34.667147834019502 ] ] ] ] } },
{ "type": "Feature", "properties": { "名称": "凌波宫", "类型": "离宫" }, "geometry": { "type": "MultiPolygon", "coordinates": [ [ [ [ 112.393833792996048, 34.655433012523403 ], [ 112.400054307788253, 34.655469234245018 ], [ 112.400110564140391, 34.648842799739349 ], [ 112.393890544281362, 34.648806580856238 ], [ 112.393833792996048, 34.655433012523403 ] ] ] ] } },
{ "type": "Feature", "properties": { "名称": "高山宫", "类型": "离宫" }, "geometry": { "type": "MultiPolygon", "coordinates": [ [ [ [ 112.28338704702989, 34.677490939894227 ], [ 112.287357429374822, 34.677409938787882 ], [ 112.287589661990324, 34.684443984564403 ], [ 112.302056024673433, 34.68428249765919 ], [ 112.302522625888699, 34.670568390277026 ], [ 112.283749092046676, 34.670305276355833 ], [ 112.28338704702989, 34.677490939894227 ] ] ] ] } },
{ "type": "Feature", "properties": { "名称": "", "类型": "" }, "geometry": { "type": "MultiPolygon", "coordinates": [ [ [ [ 112.315407583076407, 34.670919928294957 ], [ 112.321430133095092, 34.670894327605197 ], [ 112.321398101570693, 34.665780389991411 ], [ 112.315375921444883, 34.665805990032155 ], [ 112.315407583076407, 34.670919928294957 ] ] ] ] } },
{ "type": "Feature", "properties": { "名称": "", "类型": "" }, "geometry": { "type": "MultiPolygon", "coordinates": [ [ [ [ 112.338859048310965, 34.679126552444316 ], [ 112.346723979645944, 34.67934632542962 ], [ 112.347047581012859, 34.671433519131824 ], [ 112.339183395224836, 34.671213766760168 ], [ 112.338859048310965, 34.679126552444316 ] ] ] ] } },
{ "type": "Feature", "properties": { "名称": "青城宫", "类型": "离宫" }, "geometry": { "type": "MultiPolygon", "coordinates": [ [ [ [ 112.368237778052276, 34.702995963709306 ], [ 112.364697044235442, 34.702992089012248 ], [ 112.364690252541664, 34.707169414853446 ], [ 112.368231164089465, 34.707173289742627 ], [ 112.368237778052276, 34.702995963709306 ] ] ], [ [ [ 112.363425904592475, 34.708119515526562 ], [ 112.363319794177599, 34.705616306628606 ], [ 112.359234950863794, 34.705734325272807 ], [ 112.359340938560393, 34.70823753767727 ], [ 112.363425904592475, 34.708119515526562 ] ] ], [ [ [ 112.365809326121209, 34.709680251917554 ], [ 112.358866784957101, 34.709514041700238 ], [ 112.358816615742782, 34.715175229869374 ], [ 112.365686890844984, 34.71521655248997 ], [ 112.365809326121209, 34.709680251917554 ] ] ] ] } },
{ "type": "Feature", "properties": { "名称": "阜涧宫", "类型": "离宫" }, "geometry": { "type": "MultiPolygon", "coordinates": [ [ [ [ 112.292704855286786, 34.695354001634989 ], [ 112.291784225489721, 34.696184513173861 ], [ 112.289643097491464, 34.700325079472847 ], [ 112.289689072702402, 34.706956883263203 ], [ 112.303402682079906, 34.706891272431065 ], [ 112.303372745060187, 34.702673268181961 ], [ 112.302651203883613, 34.700655866739559 ], [ 112.30209314586196, 34.698718748937956 ], [ 112.301491980381499, 34.695940180732237 ], [ 112.301420029512215, 34.695312261679163 ], [ 112.292704855286786, 34.695354001634989 ] ] ] ] } },
{ "type": "Feature", "properties": { "名称": "", "类型": "" }, "geometry": { "type": "MultiPolygon", "coordinates": [ [ [ [ 112.308185706496303, 34.705135114495356 ], [ 112.317668455042309, 34.70529361248996 ], [ 112.317756407734294, 34.701696361597747 ], [ 112.308274067798891, 34.70153787036336 ], [ 112.308185706496303, 34.705135114495356 ] ] ] ] } },
{ "type": "Feature", "properties": { "名称": "", "类型": "" }, "geometry": { "type": "MultiPolygon", "coordinates": [ [ [ [ 112.32932501286102, 34.709695587413769 ], [ 112.333328778614501, 34.709755324077683 ], [ 112.333411619239001, 34.705964748403282 ], [ 112.329408035790209, 34.705905014426996 ], [ 112.32932501286102, 34.709695587413769 ] ] ] ] } },
{ "type": "Feature", "properties": { "名称": "", "类型": "" }, "geometry": { "type": "MultiPolygon", "coordinates": [ [ [ [ 112.32550613454201, 34.700009285271442 ], [ 112.329727194682249, 34.700153595958838 ], [ 112.329900024895366, 34.696703599878688 ], [ 112.325679140512776, 34.69655929510018 ], [ 112.32550613454201, 34.700009285271442 ] ] ] ] } },
{ "type": "Feature", "properties": { "名称": "", "类型": "" }, "geometry": { "type": "MultiPolygon", "coordinates": [ [ [ [ 112.310398231610108, 34.696873001098531 ], [ 112.314692663542729, 34.69676235464668 ], [ 112.314553725593115, 34.693086279984378 ], [ 112.310259483141593, 34.693196921606535 ], [ 112.310398231610108, 34.696873001098531 ] ] ] ] } },
{ "type": "Feature", "properties": { "名称": "翠微宫", "类型": "离宫" }, "geometry": { "type": "MultiPolygon", "coordinates": [ [ [ [ 112.294981014368659, 34.660473351585459 ], [ 112.299434565128877, 34.660480756838133 ], [ 112.299450859442331, 34.653715421921284 ], [ 112.294997670494965, 34.653708017262105 ], [ 112.294981014368659, 34.660473351585459 ] ] ] ] } },
{ "type": "Feature", "properties": { "名称": "", "类型": "" }, "geometry": { "type": "MultiPolygon", "coordinates": [ [ [ [ 112.301441110004788, 34.652275023668437 ], [ 112.30546549730812, 34.652252337678568 ], [ 112.305425900811699, 34.647469259123845 ], [ 112.301401744634518, 34.647491943828662 ], [ 112.301441110004788, 34.652275023668437 ] ] ] ] } },
{ "type": "Feature", "properties": { "名称": "", "类型": "" }, "geometry": { "type": "MultiPolygon", "coordinates": [ [ [ [ 112.319613031005233, 34.651595989399311 ], [ 112.325612711495623, 34.651511757261694 ], [ 112.325514939314345, 34.646764084532663 ], [ 112.319515601848209, 34.646848311037473 ], [ 112.319613031005233, 34.651595989399311 ] ] ] ] } },
{ "type": "Feature", "properties": { "名称": "", "类型": "" }, "geometry": { "type": "MultiPolygon", "coordinates": [ [ [ [ 112.326845018388497, 34.652607993104965 ], [ 112.335383138899601, 34.6524188123351 ], [ 112.335282490915418, 34.649321681107367 ], [ 112.326744687708867, 34.649510854035043 ], [ 112.326845018388497, 34.652607993104965 ] ] ] ] } },
{ "type": "Feature", "properties": { "名称": "", "类型": "" }, "geometry": { "type": "MultiPolygon", "coordinates": [ [ [ [ 112.3570578503994, 34.655472472270326 ], [ 112.363241236261018, 34.65538193078612 ], [ 112.363181759437879, 34.652613073307407 ], [ 112.356998579107781, 34.652703610919332 ], [ 112.3570578503994, 34.655472472270326 ] ] ] ] } },
{ "type": "Feature", "properties": { "名称": "", "类型": "" }, "geometry": { "type": "MultiPolygon", "coordinates": [ [ [ [ 112.347853287291016, 34.653424383937306 ], [ 112.35353032174568, 34.653343376365108 ], [ 112.353470819652003, 34.650500424923585 ], [ 112.347793977854565, 34.650581429770973 ], [ 112.347853287291016, 34.653424383937306 ] ] ] ] } },
{ "type": "Feature", "properties": { "名称": "", "类型": "" }, "geometry": { "type": "MultiPolygon", "coordinates": [ [ [ [ 112.349877922161127, 34.647547694784102 ], [ 112.355408027202557, 34.647645782892205 ], [ 112.35549560175231, 34.644269362390709 ], [ 112.349965719712216, 34.644171278203096 ], [ 112.349877922161127, 34.647547694784102 ] ] ] ] } },
{ "type": "Feature", "properties": { "名称": "", "类型": "" }, "geometry": { "type": "MultiPolygon", "coordinates": [ [ [ [ 112.341837022045368, 34.667208332762598 ], [ 112.3456485238802, 34.667213215716508 ], [ 112.345654467753647, 34.664006842630947 ], [ 112.341843112694292, 34.664001959862546 ], [ 112.341837022045368, 34.667208332762598 ] ] ] ] } },
{ "type": "Feature", "properties": { "名称": "", "类型": "" }, "geometry": { "type": "MultiPolygon", "coordinates": [ [ [ [ 112.33393335644125, 34.674519512515587 ], [ 112.337814448379788, 34.674635303946538 ], [ 112.337959352766774, 34.671318549853204 ], [ 112.334078415238281, 34.67120276297473 ], [ 112.33393335644125, 34.674519512515587 ] ] ] ] } },
{ "type": "Feature", "properties": { "名称": "", "类型": "" }, "geometry": { "type": "MultiPolygon", "coordinates": [ [ [ [ 112.320029440919598, 34.662189579154777 ], [ 112.323551835401503, 34.662144547793709 ], [ 112.323500180926047, 34.659389065393462 ], [ 112.319977902977925, 34.65943409528002 ], [ 112.320029440919598, 34.662189579154777 ] ] ] ] } },
{ "type": "Feature", "properties": { "名称": "", "类型": "" }, "geometry": { "type": "MultiPolygon", "coordinates": [ [ [ [ 112.358253867048404, 34.678042856958776 ], [ 112.366737577392698, 34.677988122759835 ], [ 112.366713700397625, 34.675475843030057 ], [ 112.358230244958932, 34.67553057560184 ], [ 112.358253867048404, 34.678042856958776 ] ] ] ] } },
{ "type": "Feature", "properties": { "名称": "", "类型": "" }, "geometry": { "type": "MultiPolygon", "coordinates": [ [ [ [ 112.36989528855041, 34.679659015486145 ], [ 112.378754827324499, 34.679496613476005 ], [ 112.378700884254741, 34.67749233547039 ], [ 112.369841558675617, 34.677654733621324 ], [ 112.36989528855041, 34.679659015486145 ] ] ] ] } },
{ "type": "Feature", "properties": { "名称": "仙都宫", "类型": "离宫" }, "geometry": { "type": "MultiPolygon", "coordinates": [ [ [ [ 112.408913485684366, 34.593179831972165 ], [ 112.404771992279265, 34.593033957845158 ], [ 112.404541059465473, 34.597515224820697 ], [ 112.408682775179713, 34.597661106674146 ], [ 112.408913485684366, 34.593179831972165 ] ] ], [ [ [ 112.416306288446393, 34.592816123093705 ], [ 112.40977252641558, 34.592461593889027 ], [ 112.409390376513059, 34.598059171136384 ], [ 112.415971782833196, 34.598219382571244 ], [ 112.416306288446393, 34.592816123093705 ] ] ] ] } },
{ "type": "Feature", "properties": { "名称": "", "类型": "" }, "geometry": { "type": "MultiPolygon", "coordinates": [ [ [ [ 112.308441461282541, 34.686978289443658 ], [ 112.312255856202512, 34.687110258568111 ], [ 112.312556608556505, 34.68117602702268 ], [ 112.308742486161407, 34.681044066284102 ], [ 112.308441461282541, 34.686978289443658 ] ] ] ] } }
]
}
