{
"type": "FeatureCollection",
"name": "紫薇城",
"crs": { "type": "name", "properties": { "name": "urn:ogc:def:crs:OGC:1.3:CRS84" } },
"features": [
{ "type": "Feature", "properties": { "宫_城": "宫城" }, "geometry": { "type": "MultiPolygon", "coordinates": [ [ [ [ 112.461087694081641, 34.676972003912979 ], [ 112.448970278674835, 34.675867461118592 ], [ 112.447610122303885, 34.686196367893174 ], [ 112.459445853206773, 34.687250552272914 ], [ 112.461087694081641, 34.676972003912979 ] ] ] ] } },
{ "type": "Feature", "properties": { "宫_城": "玄武城" }, "geometry": { "type": "MultiPolygon", "coordinates": [ [ [ [ 112.441776220483291, 34.688313352517596 ], [ 112.46510820921354, 34.690391440998958 ], [ 112.465448129732948, 34.687784710532028 ], [ 112.442116863153203, 34.685706687200998 ], [ 112.441776220483291, 34.688313352517596 ] ] ] ] } },
{ "type": "Feature", "properties": { "宫_城": "左藏宫" }, "geometry": { "type": "MultiPolygon", "coordinates": [ [ [ [ 112.464389410149707, 34.677704096172754 ], [ 112.462967850117622, 34.687564022069601 ], [ 112.465448129732948, 34.687784710532028 ], [ 112.466735235530479, 34.677912825219231 ], [ 112.464389410149707, 34.677704096172754 ] ] ] ] } },
{ "type": "Feature", "properties": { "宫_城": "东宫" }, "geometry": { "type": "MultiPolygon", "coordinates": [ [ [ [ 112.461004240753283, 34.677402810501803 ], [ 112.459445853206773, 34.687250552272914 ], [ 112.462967850117622, 34.687564022069601 ], [ 112.464389410149707, 34.677704096172754 ], [ 112.461004240753283, 34.677402810501803 ] ] ] ] } },
{ "type": "Feature", "properties": { "宫_城": "宝城" }, "geometry": { "type": "MultiPolygon", "coordinates": [ [ [ [ 112.445488716978289, 34.676020670797719 ], [ 112.443406702293373, 34.675835049627118 ], [ 112.442116862057304, 34.685706691705128 ], [ 112.444104356235428, 34.685883888117885 ], [ 112.445488716978289, 34.676020670797719 ] ] ] ] } },
{ "type": "Feature", "properties": { "宫_城": "西隔城" }, "geometry": { "type": "MultiPolygon", "coordinates": [ [ [ [ 112.445488716978289, 34.676020670797719 ], [ 112.444104356235428, 34.685883888117885 ], [ 112.447610122303885, 34.686196367893174 ], [ 112.448915476808224, 34.676326104030174 ], [ 112.445488716978289, 34.676020670797719 ] ] ] ] } },
{ "type": "Feature", "properties": { "宫_城": "曜仪城" }, "geometry": { "type": "MultiPolygon", "coordinates": [ [ [ [ 112.441612687862118, 34.689564699239305 ], [ 112.464945027662537, 34.691642783415112 ], [ 112.46510820921354, 34.690391440998958 ], [ 112.441776216093345, 34.688313386768939 ], [ 112.441612687862118, 34.689564699239305 ] ] ] ] } },
{ "type": "Feature", "properties": { "宫_城": "圆壁城" }, "geometry": { "type": "MultiPolygon", "coordinates": [ [ [ [ 112.441091041663029, 34.693731499224739 ], [ 112.464285932306751, 34.696621898049443 ], [ 112.464945027662537, 34.691642783415112 ], [ 112.441612687862118, 34.689564699239305 ], [ 112.441091041663029, 34.693731499224739 ] ] ] ] } }
]
}
