{
"type": "FeatureCollection",
"name": "苑墙",
"crs": { "type": "name", "properties": { "name": "urn:ogc:def:crs:OGC:1.3:CRS84" } },
"features": [
{ "type": "Feature", "properties": { }, "geometry": { "type": "MultiLineString", "coordinates": [ [ [ 112.445864288941721, 34.631425049561344 ], [ 112.446519167679142, 34.624005736430341 ], [ 112.440788473954598, 34.598351832114091 ], [ 112.422864128664742, 34.585774787192598 ], [ 112.372492865403899, 34.574798254198555 ], [ 112.31907998780359, 34.574397832434101 ], [ 112.308889647734503, 34.578704302323018 ], [ 112.306113530312601, 34.580069550347893 ], [ 112.281646164713237, 34.590351365432838 ], [ 112.279424683078858, 34.59943364668991 ], [ 112.274477539974669, 34.615919655059258 ], [ 112.26441297259592, 34.647213156134413 ], [ 112.262613106282927, 34.685231817945663 ], [ 112.264617334158103, 34.694601416465218 ], [ 112.269352526025656, 34.718837196044099 ], [ 112.274087387151894, 34.72238648574433 ], [ 112.301084786004765, 34.723261353074889 ], [ 112.325677089863433, 34.727885679280753 ], [ 112.38758394660583, 34.726647902482981 ], [ 112.424883017145632, 34.729079122965132 ], [ 112.449485623945534, 34.730839103889132 ], [ 112.459541709755129, 34.725164059492151 ], [ 112.464285100823261, 34.696629105607833 ] ] ] } }
]
}
