{
"type": "FeatureCollection",
"name": "里坊",
"crs": { "type": "name", "properties": { "name": "urn:ogc:def:crs:OGC:1.3:CRS84" } },
"features": [
{ "type": "Feature", "properties": { "里坊": "温雒", "旨意": "小康" }, "geometry": { "type": "MultiPolygon", "coordinates": [ [ [ [ 112.503438831685386, 34.677792311214468 ], [ 112.502805806338486, 34.681566552675243 ], [ 112.50960240157724, 34.682099262728521 ], [ 112.510178017302295, 34.678265951155588 ], [ 112.503438831685386, 34.677792311214468 ] ] ] ] } },
{ "type": "Feature", "properties": { "里坊": "上林", "旨意": "地理" }, "geometry": { "type": "MultiPolygon", "coordinates": [ [ [ [ 112.495219266635758, 34.68100201714784 ], [ 112.501896465874978, 34.681538103110732 ], [ 112.502438578362714, 34.67768808602515 ], [ 112.495715651915006, 34.677183459720638 ], [ 112.495219266635758, 34.68100201714784 ] ] ] ] } },
{ "type": "Feature", "properties": { "里坊": "立德", "旨意": "德" }, "geometry": { "type": "MultiPolygon", "coordinates": [ [ [ [ 112.480045388471126, 34.680472814421549 ], [ 112.473863477198506, 34.680019406443961 ], [ 112.47337172098959, 34.683899158861571 ], [ 112.479492745591159, 34.684327431382833 ], [ 112.480045388471126, 34.680472814421549 ] ] ] ] } },
{ "type": "Feature", "properties": { "里坊": "敦厚", "旨意": "礼" }, "geometry": { "type": "MultiPolygon", "coordinates": [ [ [ [ 112.485779964285385, 34.694561749733055 ], [ 112.491858935842217, 34.694991058335638 ], [ 112.492444783395214, 34.691110358761577 ], [ 112.486312058787647, 34.690653781459247 ], [ 112.485779964285385, 34.694561749733055 ] ] ] ] } },
{ "type": "Feature", "properties": { "里坊": "道光", "旨意": "道" }, "geometry": { "type": "MultiPolygon", "coordinates": [ [ [ [ 112.472142263938608, 34.693597512454097 ], [ 112.478337430220989, 34.694035726082987 ], [ 112.47879293693947, 34.690093560266703 ], [ 112.472644610323826, 34.689635121291069 ], [ 112.472142263938608, 34.693597512454097 ] ] ] ] } },
{ "type": "Feature", "properties": { "里坊": "通远", "旨意": "礼" }, "geometry": { "type": "MultiPolygon", "coordinates": [ [ [ [ 112.502587710907378, 34.700842693805093 ], [ 112.506924973489689, 34.701404285670691 ], [ 112.507574944517955, 34.696718016684052 ], [ 112.503274203634703, 34.696403954646186 ], [ 112.502587710907378, 34.700842693805093 ] ] ] ] } },
{ "type": "Feature", "properties": { "里坊": "审教", "旨意": "教" }, "geometry": { "type": "MultiPolygon", "coordinates": [ [ [ [ 112.496995643522908, 34.700118389096218 ], [ 112.501949180168296, 34.700760002622346 ], [ 112.502591336746505, 34.696354074441167 ], [ 112.497557523966464, 34.695986256123177 ], [ 112.496995643522908, 34.700118389096218 ] ] ] ] } },
{ "type": "Feature", "properties": { "里坊": "丰财", "旨意": "小康" }, "geometry": { "type": "MultiPolygon", "coordinates": [ [ [ [ 112.49233502177924, 34.699514523342572 ], [ 112.496130001814052, 34.700006243633375 ], [ 112.496682881292458, 34.695922324386899 ], [ 112.492940948732837, 34.695648739377376 ], [ 112.49233502177924, 34.699514523342572 ] ] ] ] } },
{ "type": "Feature", "properties": { "里坊": "履顺", "旨意": "礼" }, "geometry": { "type": "MultiPolygon", "coordinates": [ [ [ [ 112.479011264530769, 34.694083370648961 ], [ 112.485089839913883, 34.694512993046253 ], [ 112.485590291118115, 34.69060002560942 ], [ 112.479490020038241, 34.69014551688317 ], [ 112.479011264530769, 34.694083370648961 ] ] ] ] } },
{ "type": "Feature", "properties": { "里坊": "积德", "旨意": "德" }, "geometry": { "type": "MultiPolygon", "coordinates": [ [ [ [ 112.505473876347253, 34.682334502018634 ], [ 112.504873204783181, 34.686099914309082 ], [ 112.509007414053045, 34.686388125895455 ], [ 112.509528355750902, 34.682630844058593 ], [ 112.505473876347253, 34.682334502018634 ] ] ] ] } },
{ "type": "Feature", "properties": { "里坊": "毓财", "旨意": "小康" }, "geometry": { "type": "MultiPolygon", "coordinates": [ [ [ [ 112.499454649311772, 34.681894305003034 ], [ 112.498953368258611, 34.68568697230296 ], [ 112.504098523147206, 34.686045892319164 ], [ 112.504662217657753, 34.68227516139963 ], [ 112.499454649311772, 34.681894305003034 ] ] ] ] } },
{ "type": "Feature", "properties": { "里坊": "时邑", "旨意": "小康" }, "geometry": { "type": "MultiPolygon", "coordinates": [ [ [ [ 112.495102182304819, 34.681575812791372 ], [ 112.494539962714029, 34.68537892344915 ], [ 112.498075078670155, 34.685625681681344 ], [ 112.498585829807666, 34.681830741060296 ], [ 112.495102182304819, 34.681575812791372 ] ] ] ] } },
{ "type": "Feature", "properties": { "里坊": "景行", "旨意": "行" }, "geometry": { "type": "MultiPolygon", "coordinates": [ [ [ [ 112.487561587658774, 34.681023655430863 ], [ 112.4870864711542, 34.684858312532825 ], [ 112.493330849637204, 34.685294500566776 ], [ 112.493923975120993, 34.681489569776964 ], [ 112.487561587658774, 34.681023655430863 ] ] ] ] } },
{ "type": "Feature", "properties": { "里坊": "归义", "旨意": "义" }, "geometry": { "type": "MultiPolygon", "coordinates": [ [ [ [ 112.480719478026245, 34.680522235441195 ], [ 112.480205452959794, 34.684377277253034 ], [ 112.486319382666409, 34.684804706673937 ], [ 112.486771648777179, 34.680965785395443 ], [ 112.480719478026245, 34.680522235441195 ] ] ] ] } },
{ "type": "Feature", "properties": { "里坊": "清化", "旨意": "礼" }, "geometry": { "type": "MultiPolygon", "coordinates": [ [ [ [ 112.472710319054087, 34.689116790379643 ], [ 112.47885542240185, 34.689552757465272 ], [ 112.479319649876416, 34.685534676615688 ], [ 112.473216897842306, 34.68512058257285 ], [ 112.472710319054087, 34.689116790379643 ] ] ] ] } },
{ "type": "Feature", "properties": { "里坊": "教业", "旨意": "教" }, "geometry": { "type": "MultiPolygon", "coordinates": [ [ [ [ 112.504057694246001, 34.691337459331024 ], [ 112.508279734534327, 34.691635927200529 ], [ 112.508848537311565, 34.687533950476983 ], [ 112.504689284586064, 34.687252783679156 ], [ 112.504057694246001, 34.691337459331024 ] ] ] ] } },
{ "type": "Feature", "properties": { "里坊": "德懋", "旨意": "德" }, "geometry": { "type": "MultiPolygon", "coordinates": [ [ [ [ 112.49824548684272, 34.690926335709989 ], [ 112.503329914491431, 34.691285995488478 ], [ 112.503925144225576, 34.687201112010854 ], [ 112.498799064173312, 34.68685435690724 ], [ 112.49824548684272, 34.690926335709989 ] ] ] ] } },
{ "type": "Feature", "properties": { "里坊": "立行", "旨意": "行" }, "geometry": { "type": "MultiPolygon", "coordinates": [ [ [ [ 112.493731138142493, 34.69060682176395 ], [ 112.497367571419005, 34.690864212538841 ], [ 112.497918370224014, 34.686794759825318 ], [ 112.494366192526229, 34.686554318025323 ], [ 112.493731138142493, 34.69060682176395 ] ] ] ] } },
{ "type": "Feature", "properties": { "里坊": "思恭", "旨意": "礼" }, "geometry": { "type": "MultiPolygon", "coordinates": [ [ [ [ 112.479556041846791, 34.689602443631088 ], [ 112.485662509834555, 34.690035322800071 ], [ 112.486178589686475, 34.685999709345197 ], [ 112.480044561579405, 34.685583844002757 ], [ 112.479556041846791, 34.689602443631088 ] ] ] ] } },
{ "type": "Feature", "properties": { "里坊": "修义", "旨意": "义" }, "geometry": { "type": "MultiPolygon", "coordinates": [ [ [ [ 112.485230936050371, 34.698593704216997 ], [ 112.491198227704274, 34.699367203307162 ], [ 112.491772545074667, 34.695563290337098 ], [ 112.485704047084937, 34.695119295370922 ], [ 112.485230936050371, 34.698593704216997 ] ] ] ] } },
{ "type": "Feature", "properties": { "里坊": "道政", "旨意": "道" }, "geometry": { "type": "MultiPolygon", "coordinates": [ [ [ [ 112.47173081704085, 34.696842645936243 ], [ 112.47792027368466, 34.697645655469977 ], [ 112.478275074758784, 34.694575344699281 ], [ 112.472075882807928, 34.69412108795008 ], [ 112.47173081704085, 34.696842645936243 ] ] ] ] } },
{ "type": "Feature", "properties": { "里坊": "兴义", "旨意": "义" }, "geometry": { "type": "MultiPolygon", "coordinates": [ [ [ [ 112.503367148638219, 34.695802947192036 ], [ 112.507659891514777, 34.696105512400514 ], [ 112.508190256529389, 34.69228116432285 ], [ 112.503960371112981, 34.691966840254828 ], [ 112.503367148638219, 34.695802947192036 ] ] ] ] } },
{ "type": "Feature", "properties": { "里坊": "毓德", "旨意": "德" }, "geometry": { "type": "MultiPolygon", "coordinates": [ [ [ [ 112.497637392875873, 34.695398857952625 ], [ 112.502678731387249, 34.695754411649148 ], [ 112.503238518463846, 34.691913184314537 ], [ 112.49816263135267, 34.691535767291832 ], [ 112.497637392875873, 34.695398857952625 ] ] ] ] } },
{ "type": "Feature", "properties": { "里坊": "殖业", "旨意": "小康" }, "geometry": { "type": "MultiPolygon", "coordinates": [ [ [ [ 112.493031061105427, 34.695073800688526 ], [ 112.496762103566212, 34.695337104611241 ], [ 112.497285501987179, 34.69147052642024 ], [ 112.493638306822305, 34.691199179480911 ], [ 112.493031061105427, 34.695073800688526 ] ] ] ] } },
{ "type": "Feature", "properties": { "里坊": "进得", "旨意": "礼" }, "geometry": { "type": "MultiPolygon", "coordinates": [ [ [ [ 112.478567915674518, 34.697729660320881 ], [ 112.484578701007152, 34.698509141025099 ], [ 112.485018708552431, 34.695069133524058 ], [ 112.478945477315563, 34.694624451125627 ], [ 112.478567915674518, 34.697729660320881 ] ] ] ] } },
{ "type": "Feature", "properties": { "里坊": "雒滨", "旨意": "地理" }, "geometry": { "type": "MultiPolygon", "coordinates": [ [ [ [ 112.450566443058335, 34.658261656798174 ], [ 112.446000374626806, 34.657879749211297 ], [ 112.445335366032964, 34.662383025638988 ], [ 112.449949081650587, 34.662731872264573 ], [ 112.450566443058335, 34.658261656798174 ] ] ] ] } },
{ "type": "Feature", "properties": { "里坊": "仁风", "旨意": "仁" }, "geometry": { "type": "MultiPolygon", "coordinates": [ [ [ [ 112.506664525486329, 34.66711081436091 ], [ 112.511888820758486, 34.66751769923971 ], [ 112.512473522411568, 34.663422369094043 ], [ 112.507231103313273, 34.662986592199282 ], [ 112.506664525486329, 34.66711081436091 ] ] ] ] } },
{ "type": "Feature", "properties": { "里坊": "睦仁", "旨意": "仁" }, "geometry": { "type": "MultiPolygon", "coordinates": [ [ [ [ 112.500064801423434, 34.669083042482569 ], [ 112.505723427500243, 34.669539457040955 ], [ 112.505977276427316, 34.667686042424542 ], [ 112.500323080114455, 34.667218644761483 ], [ 112.500064801423434, 34.669083042482569 ] ] ] ] } },
{ "type": "Feature", "properties": { "里坊": "富教", "旨意": "教" }, "geometry": { "type": "MultiPolygon", "coordinates": [ [ [ [ 112.493734453433348, 34.668572130656024 ], [ 112.499504721574155, 34.669037852833775 ], [ 112.499764300092906, 34.667172439469596 ], [ 112.49399784063813, 34.666695459947462 ], [ 112.493734453433348, 34.668572130656024 ] ] ] ] } },
{ "type": "Feature", "properties": { "里坊": "惠和", "旨意": "礼" }, "geometry": { "type": "MultiPolygon", "coordinates": [ [ [ [ 112.481497624653201, 34.667583567580671 ], [ 112.487042607776971, 34.668031679402269 ], [ 112.487307768479653, 34.666141733369905 ], [ 112.481768069374553, 34.665682937875438 ], [ 112.481497624653201, 34.667583567580671 ] ] ] ] } },
{ "type": "Feature", "properties": { "里坊": "道德", "旨意": "道" }, "geometry": { "type": "MultiPolygon", "coordinates": [ [ [ [ 112.480787105572048, 34.665601668499527 ], [ 112.475048532160372, 34.665126084262027 ], [ 112.474464605391134, 34.669426280526984 ], [ 112.480211900436885, 34.669869571619351 ], [ 112.480787105572048, 34.665601668499527 ] ] ] ] } },
{ "type": "Feature", "properties": { "里坊": "劝善", "旨意": "善" }, "geometry": { "type": "MultiPolygon", "coordinates": [ [ [ [ 112.468929038166124, 34.664165089216652 ], [ 112.474591716471664, 34.664607889337034 ], [ 112.475181180174872, 34.660317436557932 ], [ 112.469521409733531, 34.659845190976093 ], [ 112.468929038166124, 34.664165089216652 ] ] ] ] } },
{ "type": "Feature", "properties": { "里坊": "旌善", "旨意": "善" }, "geometry": { "type": "MultiPolygon", "coordinates": [ [ [ [ 112.468858964353529, 34.65978990022348 ], [ 112.463596200484957, 34.659350510572381 ], [ 112.462990098229412, 34.663716955911504 ], [ 112.468250681054784, 34.664113918802464 ], [ 112.468858964353529, 34.65978990022348 ] ] ] ] } },
{ "type": "Feature", "properties": { "里坊": "尚善", "旨意": "善" }, "geometry": { "type": "MultiPolygon", "coordinates": [ [ [ [ 112.462895653724331, 34.659292004809096 ], [ 112.457892139724535, 34.658874016104413 ], [ 112.457278490814446, 34.663285691708147 ], [ 112.462281662110655, 34.66366347696551 ], [ 112.462895653724331, 34.659292004809096 ] ] ] ] } },
{ "type": "Feature", "properties": { "里坊": "积善", "旨意": "善" }, "geometry": { "type": "MultiPolygon", "coordinates": [ [ [ [ 112.456275189268482, 34.658738892282358 ], [ 112.451197941311619, 34.658314461868997 ], [ 112.450583533569016, 34.662779831979691 ], [ 112.455675848089726, 34.663164630998708 ], [ 112.456275189268482, 34.658738892282358 ] ] ] ] } },
{ "type": "Feature", "properties": { "里坊": "通济", "旨意": "地理" }, "geometry": { "type": "MultiPolygon", "coordinates": [ [ [ [ 112.436551774973964, 34.63611512123704 ], [ 112.44182783284883, 34.636474006843656 ], [ 112.442358715577527, 34.631856488451646 ], [ 112.4368896568282, 34.631487036539248 ], [ 112.436551774973964, 34.63611512123704 ] ] ] ] } },
{ "type": "Feature", "properties": { "里坊": "从政", "旨意": "大同" }, "geometry": { "type": "MultiPolygon", "coordinates": [ [ [ [ 112.448999126682253, 34.636961439228671 ], [ 112.453465325032042, 34.6372647896725 ], [ 112.454102398175152, 34.632648969743087 ], [ 112.449602059134975, 34.632345415450303 ], [ 112.448999126682253, 34.636961439228671 ] ] ] ] } },
{ "type": "Feature", "properties": { "里坊": "里仁", "旨意": "仁" }, "geometry": { "type": "MultiPolygon", "coordinates": [ [ [ [ 112.510236023222888, 34.641106291696552 ], [ 112.515606964017962, 34.641468339533063 ], [ 112.5162694806274, 34.636825005237178 ], [ 112.510873391981065, 34.636463798969878 ], [ 112.510236023222888, 34.641106291696552 ] ] ] ] } },
{ "type": "Feature", "properties": { "里坊": "崇让", "旨意": "礼" }, "geometry": { "type": "MultiPolygon", "coordinates": [ [ [ [ 112.503997507217861, 34.640685460016506 ], [ 112.509622134866873, 34.641064894667821 ], [ 112.510257502418796, 34.636422556729514 ], [ 112.504639723860009, 34.636046225640904 ], [ 112.503997507217861, 34.640685460016506 ] ] ] ] } },
{ "type": "Feature", "properties": { "里坊": "嘉庆", "旨意": "小康" }, "geometry": { "type": "MultiPolygon", "coordinates": [ [ [ [ 112.497706612103443, 34.640260767314565 ], [ 112.50345388417999, 34.640648773851368 ], [ 112.504098919572741, 34.636009983922087 ], [ 112.498356758895241, 34.635625022856416 ], [ 112.497706612103443, 34.640260767314565 ] ] ] ] } },
{ "type": "Feature", "properties": { "里坊": "仁和", "旨意": "仁" }, "geometry": { "type": "MultiPolygon", "coordinates": [ [ [ [ 112.485501541953838, 34.639435876605631 ], [ 112.491001175858571, 34.639807727891963 ], [ 112.491650669002198, 34.635175092663637 ], [ 112.486159803979845, 34.634806417362292 ], [ 112.485501541953838, 34.639435876605631 ] ] ] ] } },
{ "type": "Feature", "properties": { "里坊": "兴教", "旨意": "教" }, "geometry": { "type": "MultiPolygon", "coordinates": [ [ [ [ 112.491537009250422, 34.639843944404412 ], [ 112.497130042955021, 34.640221827589919 ], [ 112.497789160252751, 34.63558695622185 ], [ 112.492178689205915, 34.635210533325591 ], [ 112.491537009250422, 34.639843944404412 ] ] ] ] } },
{ "type": "Feature", "properties": { "里坊": "归德", "旨意": "德" }, "geometry": { "type": "MultiPolygon", "coordinates": [ [ [ [ 112.478599133340012, 34.638968823610369 ], [ 112.484323020153013, 34.639356160299108 ], [ 112.484946725904408, 34.634724933570439 ], [ 112.479227138786001, 34.634340576043748 ], [ 112.478599133340012, 34.638968823610369 ] ] ] ] } },
{ "type": "Feature", "properties": { "里坊": "尚贤", "旨意": "贤" }, "geometry": { "type": "MultiPolygon", "coordinates": [ [ [ [ 112.472440370938159, 34.638551754646628 ], [ 112.478117819577051, 34.638936240585018 ], [ 112.478753194389498, 34.634308715191167 ], [ 112.473074172859441, 34.633926792963592 ], [ 112.472440370938159, 34.638551754646628 ] ] ] ] } },
{ "type": "Feature", "properties": { "里坊": "乐和", "旨意": "小康" }, "geometry": { "type": "MultiPolygon", "coordinates": [ [ [ [ 112.466537868236017, 34.638151743667891 ], [ 112.471851333303619, 34.638511848807951 ], [ 112.472501352779787, 34.633888254978444 ], [ 112.467179000654426, 34.633530047698883 ], [ 112.466537868236017, 34.638151743667891 ] ] ] ] } },
{ "type": "Feature", "properties": { "里坊": "明教", "旨意": "教" }, "geometry": { "type": "MultiPolygon", "coordinates": [ [ [ [ 112.46082749616707, 34.637764477721532 ], [ 112.465870325387357, 34.638106486025997 ], [ 112.466518941846346, 34.633485610476427 ], [ 112.461469575912545, 34.633145533116547 ], [ 112.46082749616707, 34.637764477721532 ] ] ] ] } },
{ "type": "Feature", "properties": { "里坊": "宁人", "旨意": "礼" }, "geometry": { "type": "MultiPolygon", "coordinates": [ [ [ [ 112.454087539761616, 34.637307038715271 ], [ 112.459130292886655, 34.637649323999568 ], [ 112.459755456106819, 34.633030038278044 ], [ 112.454722316025553, 34.632690771216602 ], [ 112.454087539761616, 34.637307038715271 ] ] ] ] } },
{ "type": "Feature", "properties": { "里坊": "淳和", "旨意": "礼" }, "geometry": { "type": "MultiPolygon", "coordinates": [ [ [ [ 112.441723631008628, 34.637380272811441 ], [ 112.436890612523001, 34.637045595568374 ], [ 112.436938930038991, 34.637178272057433 ], [ 112.438758926482322, 34.639792281877348 ], [ 112.43757652444674, 34.641572121515807 ], [ 112.441216000711279, 34.641794972806757 ], [ 112.441723631008628, 34.637380272811441 ] ] ] ] } },
{ "type": "Feature", "properties": { "里坊": "广利", "旨意": "小康" }, "geometry": { "type": "MultiPolygon", "coordinates": [ [ [ [ 112.447770453728069, 34.637798729310269 ], [ 112.442229145388552, 34.63741526728387 ], [ 112.441720709062395, 34.641825868339865 ], [ 112.447148610623671, 34.642157995255687 ], [ 112.447770453728069, 34.637798729310269 ] ] ] ] } },
{ "type": "Feature", "properties": { "里坊": "大同", "旨意": "大同" }, "geometry": { "type": "MultiPolygon", "coordinates": [ [ [ [ 112.448310995117936, 34.642229086613497 ], [ 112.452734697616961, 34.642557802745387 ], [ 112.453338477513711, 34.638183783194606 ], [ 112.448879731637973, 34.637875461687919 ], [ 112.448310995117936, 34.642229086613497 ] ] ] ] } },
{ "type": "Feature", "properties": { "里坊": "永通", "旨意": "大同" }, "geometry": { "type": "MultiPolygon", "coordinates": [ [ [ [ 112.509459935403569, 34.646758484234411 ], [ 112.514795874633066, 34.647152247454734 ], [ 112.515465088258807, 34.64246262530515 ], [ 112.510100354783376, 34.642094406754133 ], [ 112.509459935403569, 34.646758484234411 ] ] ] ] } },
{ "type": "Feature", "properties": { "里坊": "履道", "旨意": "道" }, "geometry": { "type": "MultiPolygon", "coordinates": [ [ [ [ 112.503220492267005, 34.646297746470751 ], [ 112.508848963542775, 34.646713382740217 ], [ 112.509486985939262, 34.642052291468367 ], [ 112.503861772729664, 34.641665908718963 ], [ 112.503220492267005, 34.646297746470751 ] ] ] ] } },
{ "type": "Feature", "properties": { "里坊": "集贤", "旨意": "贤" }, "geometry": { "type": "MultiPolygon", "coordinates": [ [ [ [ 112.496925093789699, 34.645832547735161 ], [ 112.502673896487394, 34.646257369177377 ], [ 112.503317638329747, 34.641628518853885 ], [ 112.497570189324378, 34.641233442317663 ], [ 112.496925093789699, 34.645832547735161 ] ] ] ] } },
{ "type": "Feature", "properties": { "里坊": "正俗", "旨意": "礼" }, "geometry": { "type": "MultiPolygon", "coordinates": [ [ [ [ 112.484720274062511, 34.644929731894344 ], [ 112.490225857556922, 34.645337144894192 ], [ 112.490865941606231, 34.640772248400843 ], [ 112.485365356904182, 34.640393577029627 ], [ 112.484720274062511, 34.644929731894344 ] ] ] ] } },
{ "type": "Feature", "properties": { "里坊": "宣教", "旨意": "教" }, "geometry": { "type": "MultiPolygon", "coordinates": [ [ [ [ 112.490770582636912, 34.645377440832341 ], [ 112.496338223699112, 34.645789164487375 ], [ 112.49699183024704, 34.641193670785867 ], [ 112.491403318940755, 34.640809229125516 ], [ 112.490770582636912, 34.645377440832341 ] ] ] ] } },
{ "type": "Feature", "properties": { "里坊": "康俗", "旨意": "礼" }, "geometry": { "type": "MultiPolygon", "coordinates": [ [ [ [ 112.477859149447141, 34.644421655407392 ], [ 112.483583645789579, 34.644845590432148 ], [ 112.484194161078477, 34.640312916569165 ], [ 112.47847025673741, 34.639918548125515 ], [ 112.477859149447141, 34.644421655407392 ] ] ] ] } },
{ "type": "Feature", "properties": { "里坊": "敦行", "旨意": "行" }, "geometry": { "type": "MultiPolygon", "coordinates": [ [ [ [ 112.471698436812872, 34.643965110462645 ], [ 112.477369542029223, 34.644385383795672 ], [ 112.477987504567565, 34.63988527563999 ], [ 112.472311250584738, 34.639493897926904 ], [ 112.471698436812872, 34.643965110462645 ] ] ] ] } },
{ "type": "Feature", "properties": { "里坊": "正平", "旨意": "大同" }, "geometry": { "type": "MultiPolygon", "coordinates": [ [ [ [ 112.465792092366257, 34.643527119816078 ], [ 112.471090913294603, 34.643920072961642 ], [ 112.471719004451032, 34.639453047828567 ], [ 112.466408174238154, 34.639086597934167 ], [ 112.465792092366257, 34.643527119816078 ] ] ] ] } },
{ "type": "Feature", "properties": { "里坊": "宜人", "旨意": "小康" }, "geometry": { "type": "MultiPolygon", "coordinates": [ [ [ [ 112.460085208614402, 34.643103643314724 ], [ 112.46511639496471, 34.643476993483006 ], [ 112.465739222838394, 34.639040423341321 ], [ 112.460698502155324, 34.638692365343857 ], [ 112.460085208614402, 34.643103643314724 ] ] ] ] } },
{ "type": "Feature", "properties": { "里坊": "宽政", "旨意": "大同" }, "geometry": { "type": "MultiPolygon", "coordinates": [ [ [ [ 112.453359049924146, 34.642604183946517 ], [ 112.458408873464265, 34.642979199951128 ], [ 112.459004954397074, 34.638575380264982 ], [ 112.453961053072703, 34.638226820864986 ], [ 112.453359049924146, 34.642604183946517 ] ] ] ] } },
{ "type": "Feature", "properties": { "里坊": "承义", "旨意": "义" }, "geometry": { "type": "MultiPolygon", "coordinates": [ [ [ [ 112.447608016659231, 34.646991250578694 ], [ 112.452071696221964, 34.647360307029068 ], [ 112.452673886482998, 34.642998316035353 ], [ 112.448247728285665, 34.642657703171302 ], [ 112.44807362147057, 34.643837206236036 ], [ 112.447608016659231, 34.646991250578694 ] ] ] ] } },
{ "type": "Feature", "properties": { "里坊": "利仁", "旨意": "仁" }, "geometry": { "type": "MultiPolygon", "coordinates": [ [ [ [ 112.508735910141837, 34.652030807481701 ], [ 112.514037447457838, 34.652466408145195 ], [ 112.51470984811246, 34.647755059455704 ], [ 112.509379043767865, 34.647347569598637 ], [ 112.508735910141837, 34.652030807481701 ] ] ] ] } },
{ "type": "Feature", "properties": { "里坊": "履信", "旨意": "礼" }, "geometry": { "type": "MultiPolygon", "coordinates": [ [ [ [ 112.502497665945384, 34.651517941068704 ], [ 112.5081278545929, 34.6519808317613 ], [ 112.508768539770486, 34.647300886558526 ], [ 112.503141196847622, 34.646870443256617 ], [ 112.502497665945384, 34.651517941068704 ] ] ] ] } },
{ "type": "Feature", "properties": { "里坊": "尊贤", "旨意": "贤" }, "geometry": { "type": "MultiPolygon", "coordinates": [ [ [ [ 112.496200209238296, 34.650999876018126 ], [ 112.501948494506905, 34.651472775809999 ], [ 112.502594448958916, 34.646828607097305 ], [ 112.496847081425514, 34.646388683887018 ], [ 112.496200209238296, 34.650999876018126 ] ] ] ] } },
{ "type": "Feature", "properties": { "里坊": "永丰", "旨意": "小康" }, "geometry": { "type": "MultiPolygon", "coordinates": [ [ [ [ 112.483999825709247, 34.649995258789723 ], [ 112.489508989728648, 34.650449054997438 ], [ 112.490150331374849, 34.64587574413617 ], [ 112.484645737347691, 34.645453837354111 ], [ 112.483999825709247, 34.649995258789723 ] ] ] ] } },
{ "type": "Feature", "properties": { "里坊": "陶化", "旨意": "礼" }, "geometry": { "type": "MultiPolygon", "coordinates": [ [ [ [ 112.490061733152913, 34.650494570441587 ], [ 112.495604008498546, 34.650950811760787 ], [ 112.496259351282021, 34.646343681265868 ], [ 112.490695769854483, 34.645917535941635 ], [ 112.490061733152913, 34.650494570441587 ] ] ] ] } },
{ "type": "Feature", "properties": { "里坊": "敦化", "旨意": "礼" }, "geometry": { "type": "MultiPolygon", "coordinates": [ [ [ [ 112.477178982359902, 34.649433067455547 ], [ 112.482902128976718, 34.649904810636208 ], [ 112.483513409903722, 34.645367017632999 ], [ 112.477790423309173, 34.644928050031766 ], [ 112.477178982359902, 34.649433067455547 ] ] ] ] } },
{ "type": "Feature", "properties": { "里坊": "崇政", "旨意": "礼" }, "geometry": { "type": "MultiPolygon", "coordinates": [ [ [ [ 112.471018570771292, 34.648924975413188 ], [ 112.476681933991642, 34.649392084448749 ], [ 112.477300183951712, 34.644890433994853 ], [ 112.471631245405874, 34.644455319489978 ], [ 112.471018570771292, 34.648924975413188 ] ] ] ] } },
{ "type": "Feature", "properties": { "里坊": "修行", "旨意": "行" }, "geometry": { "type": "MultiPolygon", "coordinates": [ [ [ [ 112.465110755739943, 34.648437419045628 ], [ 112.470394353991324, 34.648873474455606 ], [ 112.471022224634964, 34.644408558662882 ], [ 112.465726230900742, 34.644001799722702 ], [ 112.465110755739943, 34.648437419045628 ] ] ] ] } },
{ "type": "Feature", "properties": { "里坊": "淳化", "旨意": "礼" }, "geometry": { "type": "MultiPolygon", "coordinates": [ [ [ [ 112.459409044318662, 34.647966594815649 ], [ 112.464427860535309, 34.648381042662223 ], [ 112.465050009086312, 34.643949845668537 ], [ 112.460021289807713, 34.643563370544634 ], [ 112.459409044318662, 34.647966594815649 ] ] ] ] } },
{ "type": "Feature", "properties": { "里坊": "淳风", "旨意": "礼" }, "geometry": { "type": "MultiPolygon", "coordinates": [ [ [ [ 112.452697765276326, 34.647412056662013 ], [ 112.457752253779574, 34.647829732728461 ], [ 112.458347220700915, 34.643434665109595 ], [ 112.453298236769029, 34.64304634896321 ], [ 112.452697765276326, 34.647412056662013 ] ] ] ] } },
{ "type": "Feature", "properties": { "里坊": "明义", "旨意": "义" }, "geometry": { "type": "MultiPolygon", "coordinates": [ [ [ [ 112.44684373838453, 34.652168036174977 ], [ 112.45135843358581, 34.652526262050408 ], [ 112.452002272959433, 34.647863147618814 ], [ 112.447534714818516, 34.647487790494651 ], [ 112.44684373838453, 34.652168036174977 ] ] ] ] } },
{ "type": "Feature", "properties": { "里坊": "归仁", "旨意": "仁" }, "geometry": { "type": "MultiPolygon", "coordinates": [ [ [ [ 112.508052023711912, 34.657010224365031 ], [ 112.5133294971574, 34.657426259952501 ], [ 112.513954007502775, 34.653051015270549 ], [ 112.508656550642385, 34.652608659904843 ], [ 112.508052023711912, 34.657010224365031 ] ] ] ] } },
{ "type": "Feature", "properties": { "里坊": "会节", "旨意": "礼" }, "geometry": { "type": "MultiPolygon", "coordinates": [ [ [ [ 112.501805307956445, 34.656517479505659 ], [ 112.507445794579226, 34.656962418515121 ], [ 112.508048848645302, 34.652557899524943 ], [ 112.502418797920328, 34.65208748547883 ], [ 112.501805307956445, 34.656517479505659 ] ] ] ] } },
{ "type": "Feature", "properties": { "里坊": "章善", "旨意": "善" }, "geometry": { "type": "MultiPolygon", "coordinates": [ [ [ [ 112.495495963123858, 34.656019464384833 ], [ 112.501252812709765, 34.65647388329463 ], [ 112.501869377307514, 34.652041564470046 ], [ 112.496121487738961, 34.651561004240961 ], [ 112.495495963123858, 34.656019464384833 ] ] ] ] } },
{ "type": "Feature", "properties": { "里坊": "修善", "旨意": "善" }, "geometry": { "type": "MultiPolygon", "coordinates": [ [ [ [ 112.483280211710195, 34.65505429424023 ], [ 112.488801884201493, 34.655490717951608 ], [ 112.489431534867478, 34.651001333310752 ], [ 112.483922321976678, 34.650540159025205 ], [ 112.483280211710195, 34.65505429424023 ] ] ] ] } },
{ "type": "Feature", "properties": { "里坊": "嘉善", "旨意": "善" }, "geometry": { "type": "MultiPolygon", "coordinates": [ [ [ [ 112.489363410832652, 34.655535086200018 ], [ 112.494889740781119, 34.655971596112131 ], [ 112.495524310051096, 34.651511060672604 ], [ 112.489985111934445, 34.651047658655052 ], [ 112.489363410832652, 34.655535086200018 ] ] ] ] } },
{ "type": "Feature", "properties": { "里坊": "道化", "旨意": "道" }, "geometry": { "type": "MultiPolygon", "coordinates": [ [ [ [ 112.476488864510998, 34.654517169245466 ], [ 112.48221966510043, 34.65497044179267 ], [ 112.482828871475064, 34.650448597513382 ], [ 112.477106207038346, 34.649969233931657 ], [ 112.476488864510998, 34.654517169245466 ] ] ] ] } },
{ "type": "Feature", "properties": { "里坊": "宣范", "旨意": "礼" }, "geometry": { "type": "MultiPolygon", "coordinates": [ [ [ [ 112.470318879068842, 34.654028853081712 ], [ 112.475983472325836, 34.654477182408201 ], [ 112.476608393236177, 34.649927521220782 ], [ 112.470946197598451, 34.649452930818697 ], [ 112.470318879068842, 34.654028853081712 ] ] ] ] } },
{ "type": "Feature", "properties": { "里坊": "崇业", "旨意": "小康" }, "geometry": { "type": "MultiPolygon", "coordinates": [ [ [ [ 112.46439986358979, 34.653560100876632 ], [ 112.469676456983947, 34.653977991299456 ], [ 112.470320245060407, 34.649400448311361 ], [ 112.465038588825394, 34.648957483516924 ], [ 112.46439986358979, 34.653560100876632 ] ] ] ] } },
{ "type": "Feature", "properties": { "里坊": "安业", "旨意": "小康" }, "geometry": { "type": "MultiPolygon", "coordinates": [ [ [ [ 112.458694080720349, 34.653107958966487 ], [ 112.463708318205931, 34.653505316240597 ], [ 112.464354974259692, 34.648900132979712 ], [ 112.459337778520904, 34.648479103162991 ], [ 112.458694080720349, 34.653107958966487 ] ] ] ] } },
{ "type": "Feature", "properties": { "里坊": "宣风", "旨意": "礼" }, "geometry": { "type": "MultiPolygon", "coordinates": [ [ [ [ 112.451987399031282, 34.652576154968919 ], [ 112.457055237967566, 34.652978042774635 ], [ 112.45768314633645, 34.648340204533646 ], [ 112.452628482708121, 34.647915747710663 ], [ 112.451987399031282, 34.652576154968919 ] ] ] ] } },
{ "type": "Feature", "properties": { "里坊": "教义", "旨意": "教" }, "geometry": { "type": "MultiPolygon", "coordinates": [ [ [ [ 112.446061596969841, 34.65746514762742 ], [ 112.450625550888134, 34.657833641512134 ], [ 112.451214204303895, 34.653570789252164 ], [ 112.446691402034418, 34.653199802019259 ], [ 112.446061596969841, 34.65746514762742 ] ] ] ] } },
{ "type": "Feature", "properties": { "里坊": "怀仁", "旨意": "仁" }, "geometry": { "type": "MultiPolygon", "coordinates": [ [ [ [ 112.507312229216311, 34.66239602599029 ], [ 112.51255994313, 34.662817026251481 ], [ 112.513157025546818, 34.658634497536362 ], [ 112.50788791665083, 34.65820500647127 ], [ 112.507312229216311, 34.66239602599029 ] ] ] ] } },
{ "type": "Feature", "properties": { "里坊": "绥福", "旨意": "小康" }, "geometry": { "type": "MultiPolygon", "coordinates": [ [ [ [ 112.501060624343822, 34.661894187020046 ], [ 112.506708387570626, 34.662347567345009 ], [ 112.507282411871216, 34.658155635787445 ], [ 112.501642143909223, 34.657695605650716 ], [ 112.501060624343822, 34.661894187020046 ] ] ] ] } },
{ "type": "Feature", "properties": { "里坊": "永泰", "旨意": "小康" }, "geometry": { "type": "MultiPolygon", "coordinates": [ [ [ [ 112.494742846590029, 34.661386705387009 ], [ 112.500504931091129, 34.661849564365745 ], [ 112.501089128183409, 34.657650486195926 ], [ 112.495333029188501, 34.65718070739792 ], [ 112.494742846590029, 34.661386705387009 ] ] ] ] } },
{ "type": "Feature", "properties": { "里坊": "思顺", "旨意": "礼" }, "geometry": { "type": "MultiPolygon", "coordinates": [ [ [ [ 112.482519172308585, 34.66040387897263 ], [ 112.488050311447296, 34.660848757012673 ], [ 112.4886414905218, 34.656634234730895 ], [ 112.483119647867198, 34.656183005025397 ], [ 112.482519172308585, 34.66040387897263 ] ] ] ] } },
{ "type": "Feature", "properties": { "里坊": "温柔", "旨意": "礼" }, "geometry": { "type": "MultiPolygon", "coordinates": [ [ [ [ 112.475763512299963, 34.659860164930059 ], [ 112.481498619690072, 34.660321766725822 ], [ 112.482067874632449, 34.656097028716822 ], [ 112.476338004198894, 34.655628479963354 ], [ 112.475763512299963, 34.659860164930059 ] ] ] ] } },
{ "type": "Feature", "properties": { "里坊": "恭安", "旨意": "礼" }, "geometry": { "type": "MultiPolygon", "coordinates": [ [ [ [ 112.469587557293536, 34.659362773345698 ], [ 112.475249684934781, 34.659818795130775 ], [ 112.475831020717493, 34.655587008438708 ], [ 112.470168775536663, 34.655123696319109 ], [ 112.469587557293536, 34.659362773345698 ] ] ] ] } },
{ "type": "Feature", "properties": { "里坊": "修业", "旨意": "小康" }, "geometry": { "type": "MultiPolygon", "coordinates": [ [ [ [ 112.463660792688984, 34.658885150722668 ], [ 112.46892653861471, 34.659309517839489 ], [ 112.469522751391892, 34.655070818155203 ], [ 112.464250113135563, 34.654639115107749 ], [ 112.463660792688984, 34.658885150722668 ] ] ] ] } },
{ "type": "Feature", "properties": { "里坊": "修文", "旨意": "小康" }, "geometry": { "type": "MultiPolygon", "coordinates": [ [ [ [ 112.457954589691042, 34.658425025773546 ], [ 112.462960721250965, 34.658828714251925 ], [ 112.4635570718048, 34.654582355049186 ], [ 112.458546125697751, 34.654171833665934 ], [ 112.457954589691042, 34.658425025773546 ] ] ] ] } },
{ "type": "Feature", "properties": { "里坊": "观德", "旨意": "德" }, "geometry": { "type": "MultiPolygon", "coordinates": [ [ [ [ 112.451257081912914, 34.657884618189769 ], [ 112.456335378557796, 34.658294409117637 ], [ 112.456911737956574, 34.654037891295445 ], [ 112.451843470008058, 34.653622392136327 ], [ 112.451257081912914, 34.657884618189769 ] ] ] ] } },
{ "type": "Feature", "properties": { "里坊": "从善", "旨意": "善" }, "geometry": { "type": "MultiPolygon", "coordinates": [ [ [ [ 112.500405586900484, 34.666623048156978 ], [ 112.506062483073705, 34.667063911019632 ], [ 112.506627748232987, 34.662936423115518 ], [ 112.500981313396025, 34.662466776378928 ], [ 112.500405586900484, 34.666623048156978 ] ] ] ] } },
{ "type": "Feature", "properties": { "里坊": "临阖", "旨意": "大同" }, "geometry": { "type": "MultiPolygon", "coordinates": [ [ [ [ 112.494396673648694, 34.66385354739117 ], [ 112.500158419669688, 34.664340033700007 ], [ 112.50042549089288, 34.662420531692796 ], [ 112.49466505065736, 34.661941100783274 ], [ 112.494396673648694, 34.66385354739117 ] ] ] ] } },
{ "type": "Feature", "properties": { "里坊": "福善", "旨意": "善" }, "geometry": { "type": "MultiPolygon", "coordinates": [ [ [ [ 112.481840439454601, 34.665174322137439 ], [ 112.487382773322466, 34.665607118324111 ], [ 112.487975231086779, 34.661383970520468 ], [ 112.482445295116847, 34.660923153799565 ], [ 112.481840439454601, 34.665174322137439 ] ] ] ] } },
{ "type": "Feature", "properties": { "里坊": "通利", "旨意": "小康" }, "geometry": { "type": "MultiPolygon", "coordinates": [ [ [ [ 112.487625217059772, 34.668078746761019 ], [ 112.493104022110742, 34.668521231674063 ], [ 112.493371227858248, 34.666643611507943 ], [ 112.487887020570781, 34.66618969155973 ], [ 112.487625217059772, 34.668078746761019 ] ] ] ] } },
{ "type": "Feature", "properties": { "里坊": "挥善", "旨意": "善" }, "geometry": { "type": "MultiPolygon", "coordinates": [ [ [ [ 112.475113357555145, 34.664648666720304 ], [ 112.480855070727998, 34.665097348866645 ], [ 112.48142899696235, 34.660838436454952 ], [ 112.475695604701045, 34.660360346406719 ], [ 112.475113357555145, 34.664648666720304 ] ] ] ] } },
{ "type": "Feature", "properties": { "里坊": "延庆", "旨意": "大同" }, "geometry": { "type": "MultiPolygon", "coordinates": [ [ [ [ 112.511469363354763, 34.670455405596066 ], [ 112.50625787451807, 34.670070653093809 ], [ 112.50601254660063, 34.671856185953786 ], [ 112.511212264881351, 34.67225588209191 ], [ 112.511469363354763, 34.670455405596066 ] ] ] ] } },
{ "type": "Feature", "properties": { "里坊": "静仁", "旨意": "仁" }, "geometry": { "type": "MultiPolygon", "coordinates": [ [ [ [ 112.506327485851287, 34.669563998366527 ], [ 112.511534691648563, 34.669997891555198 ], [ 112.511796144761746, 34.668166773720998 ], [ 112.506578669978097, 34.667735740644424 ], [ 112.506327485851287, 34.669563998366527 ] ] ] ] } },
{ "type": "Feature", "properties": { "里坊": "道术", "旨意": "道" }, "geometry": { "type": "MultiPolygon", "coordinates": [ [ [ [ 112.47207159176682, 34.664879261944733 ], [ 112.471437645761043, 34.669192700599332 ], [ 112.47393525797483, 34.669385437465309 ], [ 112.474526463389239, 34.665082804147424 ], [ 112.47207159176682, 34.664879261944733 ] ] ] ] } },
{ "type": "Feature", "properties": { "里坊": "惠训", "旨意": "礼" }, "geometry": { "type": "MultiPolygon", "coordinates": [ [ [ [ 112.471386702449422, 34.6648224663329 ], [ 112.468874784120914, 34.664614128293906 ], [ 112.468839353141902, 34.664907396869083 ], [ 112.468350347447938, 34.668954382125435 ], [ 112.470821405984879, 34.669145138641113 ], [ 112.471386702449422, 34.6648224663329 ] ] ] ] } },
{ "type": "Feature", "properties": { "里坊": "嘉献", "旨意": "礼" }, "geometry": { "type": "MultiPolygon", "coordinates": [ [ [ [ 112.505657344859827, 34.67002192140437 ], [ 112.49999837103455, 34.6695625588466 ], [ 112.49974737518744, 34.67137428649788 ], [ 112.505412424445524, 34.671810038349648 ], [ 112.505657344859827, 34.67002192140437 ] ] ] ] } },
{ "type": "Feature", "properties": { "里坊": "询善", "旨意": "善" }, "geometry": { "type": "MultiPolygon", "coordinates": [ [ [ [ 112.499438035964857, 34.669517058799116 ], [ 112.493667616286857, 34.669048347060844 ], [ 112.493409624666825, 34.67088647423838 ], [ 112.499185597617, 34.671331060507612 ], [ 112.499438035964857, 34.669517058799116 ] ] ] ] } },
{ "type": "Feature", "properties": { "里坊": "安众", "旨意": "大同" }, "geometry": { "type": "MultiPolygon", "coordinates": [ [ [ [ 112.48697627121166, 34.668504483029963 ], [ 112.481430760086596, 34.668053467351307 ], [ 112.481161904212072, 34.669942818958155 ], [ 112.486714413928382, 34.670370780795828 ], [ 112.48697627121166, 34.668504483029963 ] ] ] ] } },
{ "type": "Feature", "properties": { "里坊": "慈惠", "旨意": "礼" }, "geometry": { "type": "MultiPolygon", "coordinates": [ [ [ [ 112.493036305309829, 34.668997051056877 ], [ 112.487559638721535, 34.668551913151603 ], [ 112.487301281793108, 34.670416001314337 ], [ 112.492774366342985, 34.670837560060242 ], [ 112.493036305309829, 34.668997051056877 ] ] ] ] } },
{ "type": "Feature", "properties": { "里坊": "延福", "旨意": "小康" }, "geometry": { "type": "MultiPolygon", "coordinates": [ [ [ [ 112.500084209332272, 34.66487337397794 ], [ 112.494316888704361, 34.664422072174865 ], [ 112.494077263171903, 34.666129542495149 ], [ 112.499846808645614, 34.666579486231392 ], [ 112.500084209332272, 34.66487337397794 ] ] ] ] } },
{ "type": "Feature", "properties": { "里坊": "承福", "旨意": "小康" }, "geometry": { "type": "MultiPolygon", "coordinates": [ [ [ [ 112.480716633825779, 34.676049141412371 ], [ 112.474535047378183, 34.675595767150476 ], [ 112.4740433496913, 34.679475524937928 ], [ 112.48016405139326, 34.679903764065998 ], [ 112.480716633825779, 34.676049141412371 ] ] ] ] } },
{ "type": "Feature", "properties": { "里坊": "玉鸡", "旨意": "小康" }, "geometry": { "type": "MultiPolygon", "coordinates": [ [ [ [ 112.481390687960712, 34.676098558756969 ], [ 112.480876722381538, 34.679953606048841 ], [ 112.486858720206001, 34.680371804271516 ], [ 112.487442540694445, 34.676542075729031 ], [ 112.481390687960712, 34.676098558756969 ] ] ] ] } },
{ "type": "Feature", "properties": { "里坊": "铜驼", "旨意": "小康" }, "geometry": { "type": "MultiPolygon", "coordinates": [ [ [ [ 112.488255805329132, 34.676622681343879 ], [ 112.487692488850243, 34.680420089691971 ], [ 112.493972309605439, 34.680949828726106 ], [ 112.49451489352326, 34.67707152183462 ], [ 112.488255805329132, 34.676622681343879 ] ] ] ] } }
]
}
