{
"type": "FeatureCollection",
"name": "上阳宫",
"crs": { "type": "name", "properties": { "name": "urn:ogc:def:crs:OGC:1.3:CRS84" } },
"features": [
{ "type": "Feature", "properties": { "name": "上清观" }, "geometry": { "type": "MultiPolygon", "coordinates": [ [ [ [ 112.421398940745505, 34.679905205065481 ], [ 112.41891309110261, 34.679742857865037 ], [ 112.4183686780611, 34.683796234863394 ], [ 112.420789778427363, 34.683976407333517 ], [ 112.421398940745505, 34.679905205065481 ] ] ] ] } },
{ "type": "Feature", "properties": { "name": "芬芳殿" }, "geometry": { "type": "MultiPolygon", "coordinates": [ [ [ [ 112.430194026128589, 34.685402583583041 ], [ 112.435404958344449, 34.685757144963524 ], [ 112.436512920727253, 34.676610298923272 ], [ 112.435240198237594, 34.67652962629343 ], [ 112.434742006279834, 34.680245172327851 ], [ 112.43248421656746, 34.680097651754146 ], [ 112.431857640706923, 34.684973846106132 ], [ 112.430266566750902, 34.684892943520481 ], [ 112.430194026128589, 34.685402583583041 ] ] ] ] } },
{ "type": "Feature", "properties": { "name": "仙居殿" }, "geometry": { "type": "MultiPolygon", "coordinates": [ [ [ [ 112.434927902901705, 34.676531085373789 ], [ 112.431496696918813, 34.676204114586078 ], [ 112.430958610794448, 34.679701812731508 ], [ 112.434468731036944, 34.67995081679809 ], [ 112.434927902901705, 34.676531085373789 ] ] ] ] } },
{ "type": "Feature", "properties": { "name": "翰林院" }, "geometry": { "type": "MultiPolygon", "coordinates": [ [ [ [ 112.42490798592371, 34.663775926639367 ], [ 112.422178922018631, 34.663530684467908 ], [ 112.422063410768615, 34.664339050615183 ], [ 112.424817469381836, 34.664522829566813 ], [ 112.42490798592371, 34.663775926639367 ] ] ] ] } },
{ "type": "Feature", "properties": { "name": "甘汤院" }, "geometry": { "type": "MultiPolygon", "coordinates": [ [ [ [ 112.426301290024384, 34.65954329922674 ], [ 112.423374308464957, 34.659333435110923 ], [ 112.423009998719266, 34.661868939351322 ], [ 112.425968548416819, 34.662078829435124 ], [ 112.426301290024384, 34.65954329922674 ] ] ] ] } },
{ "type": "Feature", "properties": { "name": "小上阳宫" }, "geometry": { "type": "MultiPolygon", "coordinates": [ [ [ [ 112.42113722461707, 34.662867404298254 ], [ 112.416440665309395, 34.662579819732436 ], [ 112.415870599594996, 34.667008830166303 ], [ 112.420616595118744, 34.667296466694189 ], [ 112.42113722461707, 34.662867404298254 ] ] ] ] } },
{ "type": "Feature", "properties": { "name": "西上阳宫" }, "geometry": { "type": "MultiPolygon", "coordinates": [ [ [ [ 112.411972303387159, 34.658045648917735 ], [ 112.400431607891107, 34.657223256917419 ], [ 112.398732588443607, 34.670340415401846 ], [ 112.412324835247276, 34.671293500184561 ], [ 112.412770345840613, 34.668591480932996 ], [ 112.412674874583914, 34.665828118068482 ], [ 112.412382489122265, 34.663247477750005 ], [ 112.411967150131332, 34.660687065221254 ], [ 112.411910621881319, 34.659227385486723 ], [ 112.411972303387159, 34.658045648917735 ] ] ] ] } },
{ "type": "Feature", "properties": { "name": " " }, "geometry": { "type": "MultiPolygon", "coordinates": [ [ [ [ 112.447600119140461, 34.667609468598059 ], [ 112.438138780676908, 34.666907864677 ], [ 112.437707628746779, 34.670016352224316 ], [ 112.438907217050811, 34.670100576463653 ], [ 112.442521050502918, 34.67035422664339 ], [ 112.443441955380479, 34.670418843420656 ], [ 112.447162993181294, 34.670734751275383 ], [ 112.447600119140461, 34.667609468598059 ] ] ], [ [ [ 112.398732588443607, 34.670340415401846 ], [ 112.400431607891107, 34.657223256917419 ], [ 112.411972303387159, 34.658045648917735 ], [ 112.412162967567099, 34.65723363530963 ], [ 112.399687950397407, 34.656396002097836 ], [ 112.397920847862821, 34.671064699263844 ], [ 112.412130512242186, 34.672062367193064 ], [ 112.412324835247276, 34.671293500184561 ], [ 112.398732588443607, 34.670340415401846 ] ] ], [ [ [ 112.42156185243779, 34.667489793178959 ], [ 112.421612467778445, 34.667223509016289 ], [ 112.423858608861153, 34.667358090231019 ], [ 112.424071415580613, 34.665960060517072 ], [ 112.424433990525529, 34.666010220422692 ], [ 112.424241342289989, 34.667399940370721 ], [ 112.436004648417565, 34.668235277575718 ], [ 112.436780556113447, 34.662058905012017 ], [ 112.433163337295198, 34.661822934299302 ], [ 112.432896942038965, 34.66375980118594 ], [ 112.432564586790008, 34.663709684935384 ], [ 112.432827508502299, 34.661801019906065 ], [ 112.426062960472677, 34.66135942046818 ], [ 112.425968548416819, 34.662078829435124 ], [ 112.423009998719266, 34.661868939351322 ], [ 112.423374308464957, 34.659333435110923 ], [ 112.426301290024384, 34.65954329922674 ], [ 112.426106858665023, 34.661024909823681 ], [ 112.437122038609317, 34.661840456635382 ], [ 112.436561457152408, 34.666225194721186 ], [ 112.437862854151859, 34.666300938469348 ], [ 112.438453997551164, 34.661593027144534 ], [ 112.432387196049902, 34.661113839401231 ], [ 112.426474513270989, 34.658192993010189 ], [ 112.416024081034365, 34.657492626700936 ], [ 112.412911830159118, 34.657283876406574 ], [ 112.412504904373804, 34.659150488502476 ], [ 112.412973760346134, 34.662889829337807 ], [ 112.413476256168096, 34.666796608095325 ], [ 112.413338032422175, 34.669810033778795 ], [ 112.41291979612852, 34.672117734724132 ], [ 112.414081055726072, 34.672199182975461 ], [ 112.418737626127495, 34.672525678065121 ], [ 112.418441146696168, 34.674887482523694 ], [ 112.422822447184117, 34.675323621313488 ], [ 112.423807456834325, 34.667663021991238 ], [ 112.42156185243779, 34.667489793178959 ] ], [ [ 112.415870599594996, 34.667008830166303 ], [ 112.416440665309395, 34.662579819732436 ], [ 112.42113722461707, 34.662867404298254 ], [ 112.420616595118744, 34.667296466694189 ], [ 112.415870599594996, 34.667008830166303 ] ], [ [ 112.426690935629409, 34.667198678605452 ], [ 112.427037721340653, 34.664354316016492 ], [ 112.436086804022949, 34.665009580962646 ], [ 112.43566656721535, 34.667833610057826 ], [ 112.426690935629409, 34.667198678605452 ] ], [ [ 112.425071168583159, 34.662429382409563 ], [ 112.424817469381836, 34.664522829566813 ], [ 112.422063410768615, 34.664339050615183 ], [ 112.422364406942037, 34.662232633353739 ], [ 112.425071168583159, 34.662429382409563 ] ] ], [ [ [ 112.431134283523321, 34.675901183691209 ], [ 112.432174085338161, 34.668299037254634 ], [ 112.424132935591075, 34.667664434592034 ], [ 112.423166750635389, 34.675344156876719 ], [ 112.431134283523321, 34.675901183691209 ] ], [ [ 112.426183119959845, 34.671347122696439 ], [ 112.426559346187489, 34.668272930031499 ], [ 112.431428370529403, 34.668607206785076 ], [ 112.431024621070534, 34.67172711283083 ], [ 112.426183119959845, 34.671347122696439 ] ] ], [ [ [ 112.434991109752175, 34.676219030030623 ], [ 112.435980682024081, 34.668530903345399 ], [ 112.43244755140725, 34.668298378631029 ], [ 112.431433958928935, 34.675931000499055 ], [ 112.434991109752175, 34.676219030030623 ] ], [ [ 112.432073394742275, 34.674904981414088 ], [ 112.432505569909679, 34.670825046099736 ], [ 112.435286010401313, 34.670986559392468 ], [ 112.434757106219863, 34.675100737625939 ], [ 112.432073394742275, 34.674904981414088 ] ] ], [ [ [ 112.437779088606064, 34.666953397744095 ], [ 112.436492714172019, 34.666827014990204 ], [ 112.435258610134809, 34.676198909982439 ], [ 112.436620383923028, 34.67628891254342 ], [ 112.437779088606064, 34.666953397744095 ] ] ], [ [ [ 112.431150370347467, 34.676242930739164 ], [ 112.423091698005351, 34.675652948140502 ], [ 112.422695006561838, 34.679072677172648 ], [ 112.43065956159306, 34.679662629296757 ], [ 112.431150370347467, 34.676242930739164 ] ] ], [ [ [ 112.431597117203268, 34.68466600882811 ], [ 112.432114500632338, 34.680570002272944 ], [ 112.432175092602137, 34.680090251723804 ], [ 112.43092542413585, 34.679977938379295 ], [ 112.430857212270027, 34.680466155621481 ], [ 112.430854662221932, 34.680484412602141 ], [ 112.430544788427483, 34.68044034873887 ], [ 112.430616027798351, 34.679957626692278 ], [ 112.422684310085472, 34.679387031831155 ], [ 112.422038204840817, 34.684018509546249 ], [ 112.422690781699146, 34.684062741435731 ], [ 112.423041041658522, 34.680799146484972 ], [ 112.425570165998977, 34.680961436825186 ], [ 112.425177902449079, 34.684231272652333 ], [ 112.427505979112581, 34.684388980441312 ], [ 112.429150336176264, 34.684500345234476 ], [ 112.431597117203268, 34.68466600882811 ] ] ], [ [ [ 112.42146977317033, 34.684808460868666 ], [ 112.422786857850582, 34.675601905959695 ], [ 112.418390935402229, 34.675287490518834 ], [ 112.417231865405512, 34.684519626358707 ], [ 112.42146977317033, 34.684808460868666 ] ], [ [ 112.4183686780611, 34.683796234863394 ], [ 112.41891309110261, 34.679742857865037 ], [ 112.421398940745505, 34.679905205065481 ], [ 112.420789778427363, 34.683976407333517 ], [ 112.4183686780611, 34.683796234863394 ] ] ], [ [ [ 112.429989876066998, 34.684858498352348 ], [ 112.421993200009339, 34.684293624460238 ], [ 112.421912285735672, 34.6848386092148 ], [ 112.42993514451264, 34.685384960104173 ], [ 112.429989876066998, 34.684858498352348 ] ] ], [ [ [ 112.443102174373067, 34.670796161701915 ], [ 112.437693516048171, 34.670393502252871 ], [ 112.437665557542189, 34.670782077110637 ], [ 112.435852669728632, 34.685477507813694 ], [ 112.440953142843753, 34.685814915566802 ], [ 112.443032709035023, 34.671230435282311 ], [ 112.443102174373067, 34.670796161701915 ] ] ] ] } },
{ "type": "Feature", "properties": { "name": "甘露殿" }, "geometry": { "type": "MultiPolygon", "coordinates": [ [ [ [ 112.431428370529403, 34.668607206785076 ], [ 112.426559346187489, 34.668272930031499 ], [ 112.426183119959845, 34.671347122696439 ], [ 112.431024621070534, 34.67172711283083 ], [ 112.431428370529403, 34.668607206785076 ] ] ] ] } },
{ "type": "Feature", "properties": { "name": "麟趾殿" }, "geometry": { "type": "MultiPolygon", "coordinates": [ [ [ [ 112.435286010401313, 34.670986559392468 ], [ 112.432505569909679, 34.670825046099736 ], [ 112.432073394742275, 34.674904981414088 ], [ 112.434757106219863, 34.675100737625939 ], [ 112.435286010401313, 34.670986559392468 ] ] ] ] } },
{ "type": "Feature", "properties": { "name": "飞龙殿" }, "geometry": { "type": "MultiPolygon", "coordinates": [ [ [ [ 112.422690781699146, 34.684062741435731 ], [ 112.425177902449079, 34.684231272652333 ], [ 112.425570165998977, 34.680961436825186 ], [ 112.423041041658522, 34.680799146484972 ], [ 112.422690781699146, 34.684062741435731 ] ] ] ] } },
{ "type": "Feature", "properties": { "name": "本枝院" }, "geometry": { "type": "MultiPolygon", "coordinates": [ [ [ [ 112.431531005286772, 34.664679770325165 ], [ 112.429377621869421, 34.664523819137472 ], [ 112.429023665930274, 34.667363761666621 ], [ 112.4312379122061, 34.667520415870896 ], [ 112.431531005286772, 34.664679770325165 ] ] ] ] } },
{ "type": "Feature", "properties": { "name": "春丽殿" }, "geometry": { "type": "MultiPolygon", "coordinates": [ [ [ [ 112.429377621869421, 34.664523819137472 ], [ 112.427037721340653, 34.664354316016492 ], [ 112.426690935629409, 34.667198678605452 ], [ 112.429023665930274, 34.667363761666621 ], [ 112.429377621869421, 34.664523819137472 ] ] ] ] } },
{ "type": "Feature", "properties": { "name": "观风殿" }, "geometry": { "type": "MultiPolygon", "coordinates": [ [ [ [ 112.431531005286772, 34.664679770325165 ], [ 112.4312379122061, 34.667520415870896 ], [ 112.43566656721535, 34.667833610057826 ], [ 112.436086804022949, 34.665009580962646 ], [ 112.431531005286772, 34.664679770325165 ] ] ] ] } },
{ "type": "Feature", "properties": { "name": "荫殿" }, "geometry": { "type": "MultiPolygon", "coordinates": [ [ [ [ 112.424996471808939, 34.663045761874429 ], [ 112.422264791841926, 34.662929765308114 ], [ 112.422178922018631, 34.663530684467908 ], [ 112.42490798592371, 34.663775926639367 ], [ 112.424996471808939, 34.663045761874429 ] ] ] ] } },
{ "type": "Feature", "properties": { "name": "课省院" }, "geometry": { "type": "MultiPolygon", "coordinates": [ [ [ [ 112.422264791841926, 34.662929765308114 ], [ 112.424996471808939, 34.663045761874429 ], [ 112.425071168583159, 34.662429382409563 ], [ 112.422364406942037, 34.662232633353739 ], [ 112.422264791841926, 34.662929765308114 ] ] ] ] } }
]
}
