{
"type": "FeatureCollection",
"name": "上阳宫城墙",
"crs": { "type": "name", "properties": { "name": "urn:ogc:def:crs:OGC:1.3:CRS84" } },
"features": [
{ "type": "Feature", "properties": { "name": 0 }, "geometry": { "type": "MultiLineString", "coordinates": [ [ [ 112.447421588403913, 34.670555507399271 ], [ 112.447859226392538, 34.667410943246864 ], [ 112.437816834853479, 34.666667409459016 ], [ 112.438453997551164, 34.661593027144534 ], [ 112.432387196049902, 34.661113839401231 ], [ 112.426474513270989, 34.658192993010189 ], [ 112.399687950397407, 34.656396002097836 ], [ 112.397920847862821, 34.671064699263844 ], [ 112.418737626127495, 34.672525678065121 ], [ 112.417231865405512, 34.684519626358707 ], [ 112.44125892959282, 34.686155188851394 ], [ 112.443441955380479, 34.670418843420656 ], [ 112.447394898843086, 34.670815522232914 ], [ 112.447421588403913, 34.670555507399271 ] ] ] } }
]
}
