{
"type": "FeatureCollection",
"name": "外郭城墙",
"crs": { "type": "name", "properties": { "name": "urn:ogc:def:crs:OGC:1.3:CRS84" } },
"features": [
{ "type": "Feature", "properties": { "name": 0 }, "geometry": { "type": "MultiLineString", "coordinates": [ [ [ 112.511163323485036, 34.673216388089195 ], [ 112.516443940043061, 34.636376015233189 ], [ 112.436088001150225, 34.630779123770488 ], [ 112.435585296596756, 34.633440213298385 ], [ 112.435604671799595, 34.636040481697457 ], [ 112.435804803480011, 34.637119963155875 ], [ 112.43761653496756, 34.639627713853294 ], [ 112.436461723659022, 34.641762671286521 ], [ 112.436254695915778, 34.64250957863517 ], [ 112.436470365604706, 34.643495308746523 ], [ 112.437828151627457, 34.645744842264619 ], [ 112.439417009545679, 34.647519562122369 ] ] ] } },
{ "type": "Feature", "properties": { "name": 0 }, "geometry": { "type": "MultiLineString", "coordinates": [ [ [ 112.5104538312562, 34.678163663497926 ], [ 112.50702514853289, 34.702020338164964 ], [ 112.44054540175226, 34.693729753514482 ], [ 112.441067022911483, 34.689564436879614 ], [ 112.441230559345044, 34.688313125140603 ], [ 112.441571222395055, 34.685706431600252 ], [ 112.443554666371782, 34.670526200900433 ] ] ] } }
]
}
