{
"type": "FeatureCollection",
"name": "太微城_内城",
"crs": { "type": "name", "properties": { "name": "urn:ogc:def:crs:OGC:1.3:CRS84" } },
"features": [
{ "type": "Feature", "properties": { "name": "皇城" }, "geometry": { "type": "MultiPolygon", "coordinates": [ [ [ [ 112.443554666371782, 34.670526200900433 ], [ 112.4428611295194, 34.675834780870936 ], [ 112.448364366706031, 34.676325451023502 ], [ 112.448424703479645, 34.675867231665748 ], [ 112.460542111618309, 34.67697182865578 ], [ 112.460473108539375, 34.67740385107868 ], [ 112.466189646890285, 34.677912675220924 ], [ 112.46688171353928, 34.67260396359184 ], [ 112.443554666371782, 34.670526200900433 ] ] ] ] } },
{ "type": "Feature", "properties": { "name": "东城" }, "geometry": { "type": "MultiPolygon", "coordinates": [ [ [ [ 112.464562538783582, 34.690391283723862 ], [ 112.471135348544607, 34.690975902580973 ], [ 112.472739519919458, 34.678665780565332 ], [ 112.466174591913983, 34.678028156640011 ], [ 112.464562538783582, 34.690391283723862 ] ] ] ] } },
{ "type": "Feature", "properties": { "name": "含嘉仓城" }, "geometry": { "type": "MultiPolygon", "coordinates": [ [ [ [ 112.464562538783582, 34.690391283723862 ], [ 112.46373938950002, 34.696628944651408 ], [ 112.470268709425653, 34.69743871592371 ], [ 112.471135348544607, 34.690975902580973 ], [ 112.464562538783582, 34.690391283723862 ] ] ] ] } }
]
}
