{
"type": "FeatureCollection",
"name": "市",
"crs": { "type": "name", "properties": { "name": "urn:ogc:def:crs:OGC:1.3:CRS84" } },
"features": [
{ "type": "Feature", "properties": { "name": "北市" }, "geometry": { "type": "MultiPolygon", "coordinates": [ [ [ [ 112.485843581057026, 34.690086757713885 ], [ 112.491987923283716, 34.69052200006756 ], [ 112.492599347981098, 34.686471601534315 ], [ 112.486393018457477, 34.686051158972383 ], [ 112.485843581057026, 34.690086757713885 ] ] ] ] } },
{ "type": "Feature", "properties": { "name": "南市" }, "geometry": { "type": "MultiPolygon", "coordinates": [ [ [ [ 112.494179330096813, 34.657131024983656 ], [ 112.48865929645406, 34.656680198572587 ], [ 112.488075319364654, 34.66089457558131 ], [ 112.488000914181001, 34.661431500084802 ], [ 112.48741598685082, 34.665652240132673 ], [ 112.492905820751218, 34.66608068107336 ], [ 112.493502223476483, 34.661889675451988 ], [ 112.493580847363035, 34.66133713778202 ], [ 112.494179330096813, 34.657131024983656 ] ] ] ] } },
{ "type": "Feature", "properties": { "name": "西市" }, "geometry": { "type": "MultiPolygon", "coordinates": [ [ [ [ 112.441788360736908, 34.636508144261647 ], [ 112.447355211584025, 34.636886560560384 ], [ 112.448013022680513, 34.63227475810168 ], [ 112.442320627726005, 34.631890481591476 ], [ 112.441788360736908, 34.636508144261647 ] ] ] ] } }
]
}
