{
"type": "FeatureCollection",
"name": "紫薇城",
"crs": { "type": "name", "properties": { "name": "urn:ogc:def:crs:OGC:1.3:CRS84" } },
"features": [
{ "type": "Feature", "properties": { "name": "宫城" }, "geometry": { "type": "MultiPolygon", "coordinates": [ [ [ [ 112.460542111618309, 34.67697182865578 ], [ 112.448424703479645, 34.675867231665748 ], [ 112.447064479415403, 34.68619613235709 ], [ 112.458900203378178, 34.687250369672647 ], [ 112.460542111618309, 34.67697182865578 ] ] ] ] } },
{ "type": "Feature", "properties": { "name": "玄武城" }, "geometry": { "type": "MultiPolygon", "coordinates": [ [ [ [ 112.441230563735203, 34.688313090889253 ], [ 112.464562538783582, 34.690391283723862 ], [ 112.464902476390563, 34.687784554777224 ], [ 112.441571223490968, 34.685706427096136 ], [ 112.441230563735203, 34.688313090889253 ] ] ] ] } },
{ "type": "Feature", "properties": { "name": "左藏宫" }, "geometry": { "type": "MultiPolygon", "coordinates": [ [ [ [ 112.463843822881842, 34.677703935682672 ], [ 112.462422198226733, 34.687563855221669 ], [ 112.464902476390563, 34.687784554777224 ], [ 112.466189646890285, 34.677912675220924 ], [ 112.463843822881842, 34.677703935682672 ] ] ] ] } },
{ "type": "Feature", "properties": { "name": "东宫" }, "geometry": { "type": "MultiPolygon", "coordinates": [ [ [ [ 112.460458655466823, 34.677402634871441 ], [ 112.458900203378178, 34.687250369672647 ], [ 112.462422198226733, 34.687563855221669 ], [ 112.463843822881842, 34.677703935682672 ], [ 112.460458655466823, 34.677402634871441 ] ] ] ] } },
{ "type": "Feature", "properties": { "name": "宝城" }, "geometry": { "type": "MultiPolygon", "coordinates": [ [ [ [ 112.444943140789036, 34.676020425773359 ], [ 112.44286112732685, 34.675834795290839 ], [ 112.441571222395055, 34.685706431600252 ], [ 112.44355871540553, 34.685883636902155 ], [ 112.444943140789036, 34.676020425773359 ] ] ] ] } },
{ "type": "Feature", "properties": { "name": "西隔城" }, "geometry": { "type": "MultiPolygon", "coordinates": [ [ [ [ 112.444943140789036, 34.676020425773359 ], [ 112.44355871540553, 34.685883636902155 ], [ 112.447064479415403, 34.68619613235709 ], [ 112.448369898607538, 34.6763258743322 ], [ 112.444943140789036, 34.676020425773359 ] ] ] ] } },
{ "type": "Feature", "properties": { "name": "曜仪城" }, "geometry": { "type": "MultiPolygon", "coordinates": [ [ [ [ 112.441067022911483, 34.689564436879614 ], [ 112.464399349029435, 34.691642625410154 ], [ 112.464562538783582, 34.690391283723862 ], [ 112.441230559345044, 34.688313125140603 ], [ 112.441067022911483, 34.689564436879614 ] ] ] ] } },
{ "type": "Feature", "properties": { "name": "圆壁城" }, "geometry": { "type": "MultiPolygon", "coordinates": [ [ [ [ 112.44054540175226, 34.693729753514482 ], [ 112.46373938950002, 34.696628944651408 ], [ 112.464399349029435, 34.691642625410154 ], [ 112.441067022911483, 34.689564436879614 ], [ 112.44054540175226, 34.693729753514482 ] ] ] ] } }
]
}
