{
"type": "FeatureCollection",
"name": "里坊",
"crs": { "type": "name", "properties": { "name": "urn:ogc:def:crs:OGC:1.3:CRS84" } },
"features": [
{ "type": "Feature", "properties": { "name": "温雒", "旨意": "小康" }, "geometry": { "type": "MultiPolygon", "coordinates": [ [ [ [ 112.502893243804522, 34.677792325374682 ], [ 112.502260193721412, 34.681566564004221 ], [ 112.509056785470719, 34.682099304455519 ], [ 112.509632426319612, 34.678265995457089 ], [ 112.502893243804522, 34.677792325374682 ] ] ] ] } },
{ "type": "Feature", "properties": { "name": "上林", "旨意": "地理" }, "geometry": { "type": "MultiPolygon", "coordinates": [ [ [ [ 112.494673657719389, 34.68100199454566 ], [ 112.501350853444293, 34.681538110372621 ], [ 112.501892991164766, 34.67768809571173 ], [ 112.495170068024692, 34.677183439338599 ], [ 112.494673657719389, 34.68100199454566 ] ] ] ] } },
{ "type": "Feature", "properties": { "name": "立德", "旨意": "德" }, "geometry": { "type": "MultiPolygon", "coordinates": [ [ [ [ 112.479499783033745, 34.680472723953528 ], [ 112.473317874740573, 34.680019288327088 ], [ 112.472826093103365, 34.683899038545277 ], [ 112.478947114889849, 34.684327338443097 ], [ 112.479499783033745, 34.680472723953528 ] ] ] ] } },
{ "type": "Feature", "properties": { "name": "敦厚", "旨意": "礼" }, "geometry": { "type": "MultiPolygon", "coordinates": [ [ [ [ 112.485234266487183, 34.694561684913097 ], [ 112.491313235225505, 34.694991020704109 ], [ 112.491899108220281, 34.691110323750344 ], [ 112.485766386609583, 34.690653719019124 ], [ 112.485234266487183, 34.694561684913097 ] ] ] ] } },
{ "type": "Feature", "properties": { "name": "道光", "旨意": "道" }, "geometry": { "type": "MultiPolygon", "coordinates": [ [ [ [ 112.471596572477978, 34.693597386639112 ], [ 112.477791735878924, 34.694035627976035 ], [ 112.47824726844128, 34.690093464197069 ], [ 112.472098944839132, 34.689634997722798 ], [ 112.471596572477978, 34.693597386639112 ] ] ] ] } },
{ "type": "Feature", "properties": { "name": "通远", "旨意": "礼" }, "geometry": { "type": "MultiPolygon", "coordinates": [ [ [ [ 112.502041971920647, 34.700842704158298 ], [ 112.506379230821381, 34.701404315422423 ], [ 112.50702923257775, 34.696718049342927 ], [ 112.502728493752556, 34.696403968069824 ], [ 112.502041971920647, 34.700842704158298 ] ] ] ] } },
{ "type": "Feature", "properties": { "name": "审教", "旨意": "教" }, "geometry": { "type": "MultiPolygon", "coordinates": [ [ [ [ 112.496449909285815, 34.700118374438766 ], [ 112.501403441723724, 34.700760010119687 ], [ 112.502045627191322, 34.69635408481065 ], [ 112.497011816823019, 34.695986243978822 ], [ 112.496449909285815, 34.700118374438766 ] ] ] ] } },
{ "type": "Feature", "properties": { "name": "丰财", "旨意": "小康" }, "geometry": { "type": "MultiPolygon", "coordinates": [ [ [ [ 112.491789291503238, 34.699514487840297 ], [ 112.495584268312513, 34.700006225104332 ], [ 112.496137174568332, 34.69592230833063 ], [ 112.492395243803628, 34.69564870658521 ], [ 112.491789291503238, 34.699514487840297 ] ] ] ] } },
{ "type": "Feature", "properties": { "name": "履顺", "旨意": "礼" }, "geometry": { "type": "MultiPolygon", "coordinates": [ [ [ [ 112.478465569875553, 34.694083275555734 ], [ 112.484544142435908, 34.694512925139747 ], [ 112.485044619293006, 34.690599959941217 ], [ 112.478944351198635, 34.690145423931284 ], [ 112.478465569875553, 34.694083275555734 ] ] ] ] } },
{ "type": "Feature", "properties": { "name": "积德", "旨意": "德" }, "geometry": { "type": "MultiPolygon", "coordinates": [ [ [ [ 112.504928258697348, 34.682334525280623 ], [ 112.504327562452175, 34.686099934884489 ], [ 112.508461769834256, 34.686388164961301 ], [ 112.508982736160164, 34.682630885454401 ], [ 112.504928258697348, 34.682334525280623 ] ] ] ] } },
{ "type": "Feature", "properties": { "name": "毓财", "旨意": "小康" }, "geometry": { "type": "MultiPolygon", "coordinates": [ [ [ [ 112.498909034546415, 34.681894301343789 ], [ 112.498407728633964, 34.685686966401647 ], [ 112.503552881170151, 34.686045909429744 ], [ 112.504116600396586, 34.682275181031414 ], [ 112.498909034546415, 34.681894301343789 ] ] ] ] } },
{ "type": "Feature", "properties": { "name": "时邑", "旨意": "小康" }, "geometry": { "type": "MultiPolygon", "coordinates": [ [ [ [ 112.494556569627719, 34.681575789665516 ], [ 112.493994325109512, 34.685378897808704 ], [ 112.497529439447348, 34.685625671851852 ], [ 112.498040215459014, 34.681830733515177 ], [ 112.494556569627719, 34.681575789665516 ] ] ] ] } },
{ "type": "Feature", "properties": { "name": "景行", "旨意": "行" }, "geometry": { "type": "MultiPolygon", "coordinates": [ [ [ [ 112.487015978604347, 34.68102359857938 ], [ 112.486540836966057, 34.684858253556357 ], [ 112.492785212586483, 34.68529446951856 ], [ 112.493378363009526, 34.681489541381545 ], [ 112.487015978604347, 34.68102359857938 ] ] ] ] } },
{ "type": "Feature", "properties": { "name": "归义", "旨意": "义" }, "geometry": { "type": "MultiPolygon", "coordinates": [ [ [ [ 112.480173872264203, 34.680522147988036 ], [ 112.479659821930966, 34.6843771875009 ], [ 112.485773748830212, 34.684804644266627 ], [ 112.486226040102608, 34.680965725010978 ], [ 112.480173872264203, 34.680522147988036 ] ] ] ] } },
{ "type": "Feature", "properties": { "name": "清化", "旨意": "礼" }, "geometry": { "type": "MultiPolygon", "coordinates": [ [ [ [ 112.472164656967209, 34.689116667105289 ], [ 112.478309757448841, 34.689552661675108 ], [ 112.47877401126209, 34.685534582901809 ], [ 112.472671261950239, 34.685120461564146 ], [ 112.472164656967209, 34.689116667105289 ] ] ] ] } },
{ "type": "Feature", "properties": { "name": "教业", "旨意": "教" }, "geometry": { "type": "MultiPolygon", "coordinates": [ [ [ [ 112.503512017580832, 34.691337476258951 ], [ 112.507734055913744, 34.691635963011684 ], [ 112.508302885581699, 34.687533988832179 ], [ 112.504143634697911, 34.687252803431953 ], [ 112.503512017580832, 34.691337476258951 ] ] ] ] } },
{ "type": "Feature", "properties": { "name": "德懋", "旨意": "德" }, "geometry": { "type": "MultiPolygon", "coordinates": [ [ [ [ 112.497699812872568, 34.69092632664259 ], [ 112.502784238163528, 34.691286009161338 ], [ 112.503379494675997, 34.687201128346004 ], [ 112.498253416896503, 34.686854350315812 ], [ 112.497699812872568, 34.69092632664259 ] ] ] ] } },
{ "type": "Feature", "properties": { "name": "立行", "旨意": "行" }, "geometry": { "type": "MultiPolygon", "coordinates": [ [ [ [ 112.493185466268088, 34.690606792505953 ], [ 112.49682189785625, 34.690864199544912 ], [ 112.497372723337975, 34.686794749294947 ], [ 112.493820547217126, 34.686554291607649 ], [ 112.493185466268088, 34.690606792505953 ] ] ] ] } },
{ "type": "Feature", "properties": { "name": "思恭", "旨意": "礼" }, "geometry": { "type": "MultiPolygon", "coordinates": [ [ [ [ 112.47901037656726, 34.689602350974447 ], [ 112.485116841711374, 34.690035257454873 ], [ 112.48563294801734, 34.685999646308176 ], [ 112.479498922641966, 34.685583753531041 ], [ 112.47901037656726, 34.689602350974447 ] ] ] ] } },
{ "type": "Feature", "properties": { "name": "修义", "旨意": "义" }, "geometry": { "type": "MultiPolygon", "coordinates": [ [ [ [ 112.484685211816668, 34.698593636941474 ], [ 112.490652498394809, 34.699367162720584 ], [ 112.491226840706204, 34.695563252319182 ], [ 112.485158345631348, 34.695119230211489 ], [ 112.484685211816668, 34.698593636941474 ] ] ] ] } },
{ "type": "Feature", "properties": { "name": "道政", "旨意": "道" }, "geometry": { "type": "MultiPolygon", "coordinates": [ [ [ [ 112.471185104304496, 34.696842518281038 ], [ 112.477374555674629, 34.697645555497303 ], [ 112.477729376878926, 34.694575246313477 ], [ 112.471530187914738, 34.694120961838195 ], [ 112.471185104304496, 34.696842518281038 ] ] ] ] } },
{ "type": "Feature", "properties": { "name": "兴义", "旨意": "义" }, "geometry": { "type": "MultiPolygon", "coordinates": [ [ [ [ 112.502821442696614, 34.695802961031369 ], [ 112.507114183590545, 34.696105545439309 ], [ 112.507644573678661, 34.692281199733763 ], [ 112.503414690321691, 34.69196685674747 ], [ 112.502821442696614, 34.695802961031369 ] ] ] ] } },
{ "type": "Feature", "properties": { "name": "毓德", "旨意": "德" }, "geometry": { "type": "MultiPolygon", "coordinates": [ [ [ [ 112.497091689583684, 34.695398846165439 ], [ 112.502133025763783, 34.695754422409493 ], [ 112.502692838024188, 34.69191319757865 ], [ 112.497616953387251, 34.691535757853877 ], [ 112.497091689583684, 34.695398846165439 ] ] ] ] } },
{ "type": "Feature", "properties": { "name": "殖业", "旨意": "小康" }, "geometry": { "type": "MultiPolygon", "coordinates": [ [ [ [ 112.492485359945718, 34.695073768299366 ], [ 112.496216400679032, 34.695337088909277 ], [ 112.496739824449605, 34.691470513059215 ], [ 112.493092631064613, 34.691199149807765 ], [ 112.492485359945718, 34.695073768299366 ] ] ] ] } },
{ "type": "Feature", "properties": { "name": "进得", "旨意": "礼" }, "geometry": { "type": "MultiPolygon", "coordinates": [ [ [ [ 112.478022197112907, 34.697729563244835 ], [ 112.484032977328496, 34.698509070832493 ], [ 112.484473007428278, 34.695069065299414 ], [ 112.478399779112962, 34.694624355738206 ], [ 112.478022197112907, 34.697729563244835 ] ] ] ] } },
{ "type": "Feature", "properties": { "name": "雒滨", "旨意": "地理" }, "geometry": { "type": "MultiPolygon", "coordinates": [ [ [ [ 112.450020983210749, 34.658261434483876 ], [ 112.445454917293731, 34.65787950647492 ], [ 112.444789879201664, 34.662382779928457 ], [ 112.44940359252081, 34.662731647189133 ], [ 112.450020983210749, 34.658261434483876 ] ] ] ] } },
{ "type": "Feature", "properties": { "name": "仁风", "旨意": "仁" }, "geometry": { "type": "MultiPolygon", "coordinates": [ [ [ [ 112.506119007599764, 34.667110842948425 ], [ 112.51134330020848, 34.667517751193181 ], [ 112.511928028693191, 34.663422423662709 ], [ 112.5066856124472, 34.662986623320926 ], [ 112.506119007599764, 34.667110842948425 ] ] ] ] } },
{ "type": "Feature", "properties": { "name": "睦仁", "旨意": "仁" }, "geometry": { "type": "MultiPolygon", "coordinates": [ [ [ [ 112.499519270613646, 34.669083041552419 ], [ 112.505177893700619, 34.669539481419328 ], [ 112.505431754771649, 34.667686067938298 ], [ 112.499777561520403, 34.667218644986555 ], [ 112.499519270613646, 34.669083041552419 ] ] ] ] } },
{ "type": "Feature", "properties": { "name": "富教", "旨意": "教" }, "geometry": { "type": "MultiPolygon", "coordinates": [ [ [ [ 112.49318892597239, 34.668572101413112 ], [ 112.498959191060493, 34.669037849398698 ], [ 112.499218781801588, 34.667172437195497 ], [ 112.493452325473072, 34.666695431882545 ], [ 112.49318892597239, 34.668572101413112 ] ] ] ] } },
{ "type": "Feature", "properties": { "name": "惠和", "旨意": "礼" }, "geometry": { "type": "MultiPolygon", "coordinates": [ [ [ [ 112.480952103677907, 34.667583483607899 ], [ 112.486497083860783, 34.668031620229669 ], [ 112.486762256946079, 34.666141675383287 ], [ 112.481222560851648, 34.665682855112237 ], [ 112.480952103677907, 34.667583483607899 ] ] ] ] } },
{ "type": "Feature", "properties": { "name": "道德", "旨意": "道" }, "geometry": { "type": "MultiPolygon", "coordinates": [ [ [ [ 112.480241597582605, 34.665601581348845 ], [ 112.474503027293778, 34.665125971445292 ], [ 112.473919072350625, 34.669426165098642 ], [ 112.479666364484615, 34.66986948189605 ], [ 112.480241597582605, 34.665601581348845 ] ] ] ] } },
{ "type": "Feature", "properties": { "name": "劝善", "旨意": "善" }, "geometry": { "type": "MultiPolygon", "coordinates": [ [ [ [ 112.468383539604929, 34.664164949030152 ], [ 112.474046215000698, 34.664607774477183 ], [ 112.474635706810702, 34.660317324334457 ], [ 112.468975939471534, 34.659845053438971 ], [ 112.468383539604929, 34.664164949030152 ] ] ] ] } },
{ "type": "Feature", "properties": { "name": "旌善", "旨意": "善" }, "geometry": { "type": "MultiPolygon", "coordinates": [ [ [ [ 112.468313494454847, 34.659789759723523 ], [ 112.46305073347429, 34.659350346534382 ], [ 112.46244460261515, 34.663716789162791 ], [ 112.467705182829988, 34.664113775581932 ], [ 112.468313494454847, 34.659789759723523 ] ] ] ] } },
{ "type": "Feature", "properties": { "name": "尚善", "旨意": "善" }, "geometry": { "type": "MultiPolygon", "coordinates": [ [ [ [ 112.462350187098323, 34.659291837637859 ], [ 112.457346675847432, 34.658873826554711 ], [ 112.456732998037964, 34.663285499413895 ], [ 112.461736166848198, 34.66366330704826 ], [ 112.462350187098323, 34.659291837637859 ] ] ] ] } },
{ "type": "Feature", "properties": { "name": "积善", "旨意": "善" }, "geometry": { "type": "MultiPolygon", "coordinates": [ [ [ [ 112.455729726280282, 34.658738695500723 ], [ 112.450652481116464, 34.658314242379042 ], [ 112.450038044123318, 34.66277960974184 ], [ 112.455130356110132, 34.663164431536565 ], [ 112.455729726280282, 34.658738695500723 ] ] ] ] } },
{ "type": "Feature", "properties": { "name": "通济", "旨意": "地理" }, "geometry": { "type": "MultiPolygon", "coordinates": [ [ [ [ 112.43600646020208, 34.636114836240552 ], [ 112.441282515709901, 34.636473745444732 ], [ 112.441813428666535, 34.631856229426994 ], [ 112.436344372353631, 34.631486753053778 ], [ 112.43600646020208, 34.636114836240552 ] ] ] ] } },
{ "type": "Feature", "properties": { "name": "从政", "旨意": "大同" }, "geometry": { "type": "MultiPolygon", "coordinates": [ [ [ [ 112.448453806330818, 34.636961209903937 ], [ 112.452920002682674, 34.637264580323134 ], [ 112.453557106043249, 34.632648763243026 ], [ 112.449056769002041, 34.632345188822107 ], [ 112.448453806330818, 34.636961209903937 ] ] ] ] } },
{ "type": "Feature", "properties": { "name": "里仁", "旨意": "仁" }, "geometry": { "type": "MultiPolygon", "coordinates": [ [ [ [ 112.50969067566426, 34.641106336258389 ], [ 112.515061614092261, 34.641468408116801 ], [ 112.515724161104501, 34.636825076784184 ], [ 112.51032807481927, 34.636463846382476 ], [ 112.50969067566426, 34.641106336258389 ] ] ] ] } },
{ "type": "Feature", "properties": { "name": "崇让", "旨意": "礼" }, "geometry": { "type": "MultiPolygon", "coordinates": [ [ [ [ 112.503452162412529, 34.640685476676083 ], [ 112.509076787578991, 34.641064936483993 ], [ 112.509712185526681, 34.636422601387522 ], [ 112.504094409429683, 34.636046245172956 ], [ 112.503452162412529, 34.640685476676083 ] ] ] ] } },
{ "type": "Feature", "properties": { "name": "嘉庆", "旨意": "小康" }, "geometry": { "type": "MultiPolygon", "coordinates": [ [ [ [ 112.497161270078792, 34.640260755837673 ], [ 112.502908539614793, 34.640648788079559 ], [ 112.503553605379565, 34.636010001035345 ], [ 112.49781144722219, 34.635625014287399 ], [ 112.497161270078792, 34.640260755837673 ] ] ] ] } },
{ "type": "Feature", "properties": { "name": "仁和", "旨意": "仁" }, "geometry": { "type": "MultiPolygon", "coordinates": [ [ [ [ 112.484956205336118, 34.639435810540675 ], [ 112.490455836802482, 34.639807686424547 ], [ 112.491105360276791, 34.635175054101154 ], [ 112.485614497671534, 34.634806354241491 ], [ 112.484956205336118, 34.639435810540675 ] ] ] ] } },
{ "type": "Feature", "properties": { "name": "兴教", "旨意": "教" }, "geometry": { "type": "MultiPolygon", "coordinates": [ [ [ [ 112.490991669956955, 34.639843905333549 ], [ 112.496584701185427, 34.640221813534268 ], [ 112.497243848829001, 34.635586945114234 ], [ 112.491633380248246, 34.635210497124753 ], [ 112.490991669956955, 34.639843905333549 ] ] ] ] } },
{ "type": "Feature", "properties": { "name": "归德", "旨意": "德" }, "geometry": { "type": "MultiPolygon", "coordinates": [ [ [ [ 112.478053799787176, 34.638968726673831 ], [ 112.483777684058211, 34.639356088963169 ], [ 112.484401420130538, 34.634724865024005 ], [ 112.478681835534104, 34.634340481916055 ], [ 112.478053799787176, 34.638968726673831 ] ] ] ] } },
{ "type": "Feature", "properties": { "name": "尚贤", "旨意": "贤" }, "geometry": { "type": "MultiPolygon", "coordinates": [ [ [ [ 112.471895040124338, 34.638551630164621 ], [ 112.477572486238117, 34.638936141495812 ], [ 112.478207891346727, 34.63430861894372 ], [ 112.472528872324517, 34.633926671316303 ], [ 112.471895040124338, 34.638551630164621 ] ] ] ] } },
{ "type": "Feature", "properties": { "name": "乐和", "旨意": "小康" }, "geometry": { "type": "MultiPolygon", "coordinates": [ [ [ [ 112.465992540051076, 34.638151592786514 ], [ 112.471306002751973, 34.638511721691401 ], [ 112.471956052498015, 34.633888130769172 ], [ 112.466633702726497, 34.633529899684923 ], [ 112.465992540051076, 34.638151592786514 ] ] ] ] } },
{ "type": "Feature", "properties": { "name": "明教", "旨意": "教" }, "geometry": { "type": "MultiPolygon", "coordinates": [ [ [ [ 112.46028217052897, 34.637764301300045 ], [ 112.465324997499962, 34.638106332158941 ], [ 112.465973644210507, 34.633485459510347 ], [ 112.46092428051297, 34.633145359566761 ], [ 112.46028217052897, 34.637764301300045 ] ] ] ] } },
{ "type": "Feature", "properties": { "name": "宁人", "旨意": "礼" }, "geometry": { "type": "MultiPolygon", "coordinates": [ [ [ [ 112.453542217134071, 34.637306832148845 ], [ 112.458584968006193, 34.637649139987268 ], [ 112.459210161466999, 34.633029857061686 ], [ 112.454177023618456, 34.632690567489199 ], [ 112.453542217134071, 34.637306832148845 ] ] ] ] } },
{ "type": "Feature", "properties": { "name": "淳和", "旨意": "礼" }, "geometry": { "type": "MultiPolygon", "coordinates": [ [ [ [ 112.441178307936568, 34.637380010946508 ], [ 112.436345291658043, 34.637045312087402 ], [ 112.436393608305195, 34.637177988792587 ], [ 112.43821358762743, 34.63979200675265 ], [ 112.437031173941861, 34.641571841102767 ], [ 112.440670648735235, 34.641794708671526 ], [ 112.441178307936568, 34.637380010946508 ] ] ] ] } },
{ "type": "Feature", "properties": { "name": "广利", "旨意": "小康" }, "geometry": { "type": "MultiPolygon", "coordinates": [ [ [ [ 112.44722512789815, 34.63779849449022 ], [ 112.441683822085778, 34.637415007679884 ], [ 112.441175356882454, 34.641825606461964 ], [ 112.446603256252629, 34.642157757654516 ], [ 112.44722512789815, 34.63779849449022 ] ] ] ] } },
{ "type": "Feature", "properties": { "name": "大同", "旨意": "大同" }, "geometry": { "type": "MultiPolygon", "coordinates": [ [ [ [ 112.447765640278092, 34.642228854211169 ], [ 112.452189340612776, 34.642557590128327 ], [ 112.452793149147766, 34.638183573277921 ], [ 112.44833440530256, 34.637875231829206 ], [ 112.447765640278092, 34.642228854211169 ] ] ] ] } },
{ "type": "Feature", "properties": { "name": "永通", "旨意": "大同" }, "geometry": { "type": "MultiPolygon", "coordinates": [ [ [ [ 112.5089145508325, 34.646758525324977 ], [ 112.514250487486649, 34.647152312410654 ], [ 112.514919731822459, 34.642462693254352 ], [ 112.509555000754617, 34.642094450709095 ], [ 112.5089145508325, 34.646758525324977 ] ] ] ] } },
{ "type": "Feature", "properties": { "name": "履道", "旨意": "道" }, "geometry": { "type": "MultiPolygon", "coordinates": [ [ [ [ 112.502675110711209, 34.646297759654999 ], [ 112.508303579266766, 34.646713421098191 ], [ 112.508941632185952, 34.642052332680009 ], [ 112.503316421504508, 34.641665924771488 ], [ 112.502675110711209, 34.646297759654999 ] ] ] ] } },
{ "type": "Feature", "properties": { "name": "集贤", "旨意": "贤" }, "geometry": { "type": "MultiPolygon", "coordinates": [ [ [ [ 112.496379715280469, 34.645832532762796 ], [ 112.502128515195949, 34.646257379916982 ], [ 112.50277228734933, 34.641628532472652 ], [ 112.497024840930891, 34.641233430230614 ], [ 112.496379715280469, 34.645832532762796 ] ] ] ] } },
{ "type": "Feature", "properties": { "name": "正俗", "旨意": "礼" }, "geometry": { "type": "MultiPolygon", "coordinates": [ [ [ [ 112.484174901471732, 34.644929662335059 ], [ 112.489680482294361, 34.645337099959029 ], [ 112.490320596234838, 34.640772206328549 ], [ 112.484820014015895, 34.640393510355594 ], [ 112.484174901471732, 34.644929662335059 ] ] ] ] } },
{ "type": "Feature", "properties": { "name": "宣教", "旨意": "教" }, "geometry": { "type": "MultiPolygon", "coordinates": [ [ [ [ 112.490225207110171, 34.645377398333572 ], [ 112.495792845474099, 34.645789146890216 ], [ 112.496446482114081, 34.641193656112065 ], [ 112.490857973326953, 34.640809189456682 ], [ 112.490225207110171, 34.645377398333572 ] ] ] ] } },
{ "type": "Feature", "properties": { "name": "康俗", "旨意": "礼" }, "geometry": { "type": "MultiPolygon", "coordinates": [ [ [ [ 112.477313780190528, 34.644421555161294 ], [ 112.483038273750807, 34.644845515789257 ], [ 112.483648818719331, 34.640312844656805 ], [ 112.477924916966359, 34.63991845061264 ], [ 112.477313780190528, 34.644421555161294 ] ] ] ] } },
{ "type": "Feature", "properties": { "name": "敦行", "旨意": "行" }, "geometry": { "type": "MultiPolygon", "coordinates": [ [ [ [ 112.471153070554408, 34.643964982662325 ], [ 112.476824173010741, 34.644385281359796 ], [ 112.477442165014949, 34.639885175967919 ], [ 112.471765913602439, 34.639493772867425 ], [ 112.471153070554408, 34.643964982662325 ] ] ] ] } },
{ "type": "Feature", "properties": { "name": "正平", "旨意": "大同" }, "geometry": { "type": "MultiPolygon", "coordinates": [ [ [ [ 112.465246728985946, 34.643526965599222 ], [ 112.470545547331994, 34.643919942444072 ], [ 112.471173667737105, 34.639452920120206 ], [ 112.465862839932541, 34.639086446472696 ], [ 112.465246728985946, 34.643526965599222 ] ] ] ] } },
{ "type": "Feature", "properties": { "name": "宜人", "旨意": "小康" }, "geometry": { "type": "MultiPolygon", "coordinates": [ [ [ [ 112.459539848018608, 34.643103463573411 ], [ 112.464571031913891, 34.643476836244041 ], [ 112.465193888836382, 34.639040268887932 ], [ 112.460153170442297, 34.638692188345452 ], [ 112.459539848018608, 34.643103463573411 ] ] ] ] } },
{ "type": "Feature", "properties": { "name": "宽政", "旨意": "大同" }, "geometry": { "type": "MultiPolygon", "coordinates": [ [ [ [ 112.452813692614669, 34.642603974121954 ], [ 112.45786351368703, 34.642979012712281 ], [ 112.458459623453706, 34.638575195692013 ], [ 112.453415724423408, 34.63822661373289 ], [ 112.452813692614669, 34.642603974121954 ] ] ] ] } },
{ "type": "Feature", "properties": { "name": "承义", "旨意": "义" }, "geometry": { "type": "MultiPolygon", "coordinates": [ [ [ [ 112.44706263063695, 34.646991015032391 ], [ 112.451526307770649, 34.647360091446814 ], [ 112.452128526594464, 34.642998103146354 ], [ 112.447702370639405, 34.642657470486029 ], [ 112.447528256101208, 34.64383697277205 ], [ 112.44706263063695, 34.646991015032391 ] ] ] ] } },
{ "type": "Feature", "properties": { "name": "利仁", "旨意": "仁" }, "geometry": { "type": "MultiPolygon", "coordinates": [ [ [ [ 112.508190491041304, 34.65203084533394 ], [ 112.513492025507389, 34.652466469708877 ], [ 112.514164457018268, 34.647755124026808 ], [ 112.508833655338989, 34.647347610327401 ], [ 112.508190491041304, 34.65203084533394 ] ] ] ] } },
{ "type": "Feature", "properties": { "name": "履信", "旨意": "礼" }, "geometry": { "type": "MultiPolygon", "coordinates": [ [ [ [ 112.501952250202166, 34.651517951019969 ], [ 112.50758243581943, 34.651980866893929 ], [ 112.50822315164703, 34.64730092455676 ], [ 112.502595811541411, 34.646870456086198 ], [ 112.501952250202166, 34.651517951019969 ] ] ] ] } },
{ "type": "Feature", "properties": { "name": "尊贤", "旨意": "贤" }, "geometry": { "type": "MultiPolygon", "coordinates": [ [ [ [ 112.495654796888516, 34.650999857803605 ], [ 112.501403079059457, 34.651472783305074 ], [ 112.50204906392662, 34.64682861748156 ], [ 112.496301699274383, 34.646388668565741 ], [ 112.495654796888516, 34.650999857803605 ] ] ] ] } },
{ "type": "Feature", "properties": { "name": "永丰", "旨意": "小康" }, "geometry": { "type": "MultiPolygon", "coordinates": [ [ [ [ 112.483454419945858, 34.649995186008205 ], [ 112.488963580989136, 34.650449006856022 ], [ 112.489604952585296, 34.645875698863158 ], [ 112.484100361324892, 34.645453767461461 ], [ 112.483454419945858, 34.649995186008205 ] ] ] ] } },
{ "type": "Feature", "properties": { "name": "陶化", "旨意": "礼" }, "geometry": { "type": "MultiPolygon", "coordinates": [ [ [ [ 112.489516324114987, 34.650494524772313 ], [ 112.495058596470244, 34.650950790879719 ], [ 112.495713969425708, 34.646343663315911 ], [ 112.490150390790959, 34.64591749310825 ], [ 112.489516324114987, 34.650494524772313 ] ] ] ] } },
{ "type": "Feature", "properties": { "name": "敦化", "旨意": "礼" }, "geometry": { "type": "MultiPolygon", "coordinates": [ [ [ [ 112.476633580285693, 34.64943296416736 ], [ 112.482356723806689, 34.649904732945139 ], [ 112.482968034450465, 34.645366942675984 ], [ 112.477245050736585, 34.644927949478259 ], [ 112.476633580285693, 34.64943296416736 ] ] ] ] } },
{ "type": "Feature", "properties": { "name": "崇政", "旨意": "礼" }, "geometry": { "type": "MultiPolygon", "coordinates": [ [ [ [ 112.470473172033394, 34.648924844572178 ], [ 112.476136532186473, 34.649391978937466 ], [ 112.476754811626051, 34.644890331248689 ], [ 112.471085875937462, 34.64445519138912 ], [ 112.470473172033394, 34.648924844572178 ] ] ] ] } },
{ "type": "Feature", "properties": { "name": "修行", "旨意": "行" }, "geometry": { "type": "MultiPolygon", "coordinates": [ [ [ [ 112.46456536020537, 34.648437261781531 ], [ 112.469848955591715, 34.648873340822732 ], [ 112.47047685547372, 34.644408427838151 ], [ 112.465180864412233, 34.644001645211269 ], [ 112.46456536020537, 34.648437261781531 ] ] ] ] } },
{ "type": "Feature", "properties": { "name": "淳化", "旨意": "礼" }, "geometry": { "type": "MultiPolygon", "coordinates": [ [ [ [ 112.458863651879213, 34.647966412050174 ], [ 112.463882465371256, 34.648380882343822 ], [ 112.464504642939275, 34.643949688132629 ], [ 112.459475926201677, 34.643563190517447 ], [ 112.458863651879213, 34.647966412050174 ] ] ] ] } },
{ "type": "Feature", "properties": { "name": "淳风", "旨意": "礼" }, "geometry": { "type": "MultiPolygon", "coordinates": [ [ [ [ 112.452152376484491, 34.64741184387988 ], [ 112.457206862240142, 34.647829542552913 ], [ 112.457801857941391, 34.643434477595015 ], [ 112.452752876564375, 34.643046138866687 ], [ 112.452152376484491, 34.64741184387988 ] ] ] ] } },
{ "type": "Feature", "properties": { "name": "明义", "旨意": "义" }, "geometry": { "type": "MultiPolygon", "coordinates": [ [ [ [ 112.446298318460848, 34.652167797210446 ], [ 112.450813011303424, 34.652526043278215 ], [ 112.451456881215293, 34.647862931726138 ], [ 112.446989325544706, 34.647487554620419 ], [ 112.446298318460848, 34.652167797210446 ] ] ] ] } },
{ "type": "Feature", "properties": { "name": "归仁", "旨意": "仁" }, "geometry": { "type": "MultiPolygon", "coordinates": [ [ [ [ 112.507506571996188, 34.657010259158433 ], [ 112.512784042719375, 34.657426318349685 ], [ 112.513408581723269, 34.653051076461004 ], [ 112.508111127757118, 34.652608697402101 ], [ 112.507506571996188, 34.657010259158433 ] ] ] ] } },
{ "type": "Feature", "properties": { "name": "会节", "旨意": "礼" }, "geometry": { "type": "MultiPolygon", "coordinates": [ [ [ [ 112.501259859466884, 34.656517486360222 ], [ 112.506900343176412, 34.656962450597099 ], [ 112.507503426092228, 34.652557934304227 ], [ 112.501873378446859, 34.652087495077382 ], [ 112.501259859466884, 34.656517486360222 ] ] ] ] } },
{ "type": "Feature", "properties": { "name": "章善", "旨意": "善" }, "geometry": { "type": "MultiPolygon", "coordinates": [ [ [ [ 112.494950517897053, 34.656019443020497 ], [ 112.500707364505729, 34.656473887678132 ], [ 112.501323958134776, 34.652041571611228 ], [ 112.495576071714126, 34.651560985674337 ], [ 112.494950517897053, 34.656019443020497 ] ] ] ] } },
{ "type": "Feature", "properties": { "name": "修善", "旨意": "善" }, "geometry": { "type": "MultiPolygon", "coordinates": [ [ [ [ 112.482734772812663, 34.655054218240188 ], [ 112.48825644244107, 34.65549066664758 ], [ 112.488886122510962, 34.651001284822925 ], [ 112.483376912644658, 34.650540085897092 ], [ 112.482734772812663, 34.655054218240188 ] ] ] ] } },
{ "type": "Feature", "properties": { "name": "嘉善", "旨意": "善" }, "geometry": { "type": "MultiPolygon", "coordinates": [ [ [ [ 112.488817968781262, 34.655535037407439 ], [ 112.494344295868018, 34.655971572036421 ], [ 112.494978894353522, 34.651511039435071 ], [ 112.4894396992742, 34.651047612643104 ], [ 112.488817968781262, 34.655535037407439 ] ] ] ] } },
{ "type": "Feature", "properties": { "name": "道化", "旨意": "道" }, "geometry": { "type": "MultiPolygon", "coordinates": [ [ [ [ 112.475943429139178, 34.654517062870717 ], [ 112.481674226753142, 34.654970361049244 ], [ 112.482283462743709, 34.650448519494674 ], [ 112.476560801452777, 34.649969130317963 ], [ 112.475943429139178, 34.654517062870717 ] ] ] ] } },
{ "type": "Feature", "properties": { "name": "宣范", "旨意": "礼" }, "geometry": { "type": "MultiPolygon", "coordinates": [ [ [ [ 112.469773446904412, 34.654028719111295 ], [ 112.475438037216577, 34.654477073773045 ], [ 112.47606298792445, 34.649927415380567 ], [ 112.470400795403037, 34.649452799654 ], [ 112.469773446904412, 34.654028719111295 ] ] ] ] } },
{ "type": "Feature", "properties": { "name": "崇业", "旨意": "小康" }, "geometry": { "type": "MultiPolygon", "coordinates": [ [ [ [ 112.46385443450616, 34.65355994043307 ], [ 112.469131025153729, 34.653977854455768 ], [ 112.469774843209706, 34.64940031434702 ], [ 112.464493189885047, 34.648957325930049 ], [ 112.46385443450616, 34.65355994043307 ] ] ] ] } },
{ "type": "Feature", "properties": { "name": "安业", "旨意": "小康" }, "geometry": { "type": "MultiPolygon", "coordinates": [ [ [ [ 112.458148654610099, 34.653107773003427 ], [ 112.46316288948249, 34.653505152704007 ], [ 112.463809575696246, 34.648899972335336 ], [ 112.458792382725221, 34.648478920078858 ], [ 112.458148654610099, 34.653107773003427 ] ] ] ] } },
{ "type": "Feature", "properties": { "name": "宣风", "旨意": "礼" }, "geometry": { "type": "MultiPolygon", "coordinates": [ [ [ [ 112.451441976420455, 34.652575939009772 ], [ 112.456509812711971, 34.652977849481744 ], [ 112.457137751454155, 34.648340014048976 ], [ 112.452083090617862, 34.64791553461869 ], [ 112.451441976420455, 34.652575939009772 ] ] ] ] } },
{ "type": "Feature", "properties": { "name": "教义", "旨意": "教" }, "geometry": { "type": "MultiPolygon", "coordinates": [ [ [ [ 112.445516142352417, 34.657464905164851 ], [ 112.450080093844107, 34.657833419462165 ], [ 112.450668775180532, 34.653570569834891 ], [ 112.446145975353474, 34.653199562373473 ], [ 112.445516142352417, 34.657464905164851 ] ] ] ] } },
{ "type": "Feature", "properties": { "name": "怀仁", "旨意": "仁" }, "geometry": { "type": "MultiPolygon", "coordinates": [ [ [ [ 112.506766742219199, 34.662396057474787 ], [ 112.512014453377475, 34.662817081206654 ], [ 112.512611563194099, 34.658634555162095 ], [ 112.50734245710872, 34.658205040530646 ], [ 112.506766742219199, 34.662396057474787 ] ] ] ] } },
{ "type": "Feature", "properties": { "name": "绥福", "旨意": "小康" }, "geometry": { "type": "MultiPolygon", "coordinates": [ [ [ [ 112.500515140633112, 34.661894190543848 ], [ 112.506162900890772, 34.662347596128775 ], [ 112.506736952652261, 34.658155667138658 ], [ 112.5010966877025, 34.657695611775495 ], [ 112.500515140633112, 34.661894190543848 ] ] ] ] } },
{ "type": "Feature", "properties": { "name": "永泰", "旨意": "小康" }, "geometry": { "type": "MultiPolygon", "coordinates": [ [ [ [ 112.494197366204773, 34.661386680654253 ], [ 112.499959447672737, 34.661849565404225 ], [ 112.500543672272229, 34.657650489847356 ], [ 112.494787576355264, 34.657180685304787 ], [ 112.494197366204773, 34.661386680654253 ] ] ] ] } },
{ "type": "Feature", "properties": { "name": "思顺", "旨意": "礼" }, "geometry": { "type": "MultiPolygon", "coordinates": [ [ [ [ 112.4819736983696, 34.660403799568797 ], [ 112.487504834589416, 34.66084870234716 ], [ 112.48809604127122, 34.656634182709482 ], [ 112.482574201576639, 34.656182928307175 ], [ 112.4819736983696, 34.660403799568797 ] ] ] ] } },
{ "type": "Feature", "properties": { "name": "温柔", "旨意": "礼" }, "geometry": { "type": "MultiPolygon", "coordinates": [ [ [ [ 112.475218041930503, 34.659860055311128 ], [ 112.480953146289991, 34.660321682757456 ], [ 112.481522428906075, 34.656096947294472 ], [ 112.475792561548147, 34.655628372913867 ], [ 112.475218041930503, 34.659860055311128 ] ] ] ] } },
{ "type": "Feature", "properties": { "name": "恭安", "旨意": "礼" }, "geometry": { "type": "MultiPolygon", "coordinates": [ [ [ [ 112.469042090191621, 34.659362636104397 ], [ 112.474704214837033, 34.659818683213722 ], [ 112.475285578339026, 34.655586899121722 ], [ 112.469623336201323, 34.65512356167735 ], [ 112.469042090191621, 34.659362636104397 ] ] ] ] } },
{ "type": "Feature", "properties": { "name": "修业", "旨意": "小康" }, "geometry": { "type": "MultiPolygon", "coordinates": [ [ [ [ 112.463115328726616, 34.658884986973611 ], [ 112.46838107186278, 34.659309377641826 ], [ 112.468977312403965, 34.655070680624078 ], [ 112.463704676984833, 34.654638953994393 ], [ 112.463115328726616, 34.658884986973611 ] ] ] ] } },
{ "type": "Feature", "properties": { "name": "修文", "旨意": "小康" }, "geometry": { "type": "MultiPolygon", "coordinates": [ [ [ [ 112.457409128754946, 34.658424836503173 ], [ 112.4624152576597, 34.65882854737179 ], [ 112.463011636027204, 34.65458219083618 ], [ 112.458000692619663, 34.654171647041146 ], [ 112.457409128754946, 34.658424836503173 ] ] ] ] } },
{ "type": "Feature", "properties": { "name": "观德", "旨意": "德" }, "geometry": { "type": "MultiPolygon", "coordinates": [ [ [ [ 112.450711624533284, 34.657884398964342 ], [ 112.455789918481088, 34.658294212605199 ], [ 112.456366305759545, 34.654037697360735 ], [ 112.451298040545041, 34.653622175533457 ], [ 112.450711624533284, 34.657884398964342 ] ] ] ] } },
{ "type": "Feature", "properties": { "name": "从善", "旨意": "善" }, "geometry": { "type": "MultiPolygon", "coordinates": [ [ [ [ 112.499860072208705, 34.666623048751042 ], [ 112.505516965494266, 34.667063936914481 ], [ 112.506082257695368, 34.662936451538613 ], [ 112.50043582593419, 34.662466779548026 ], [ 112.499860072208705, 34.666623048751042 ] ] ] ] } },
{ "type": "Feature", "properties": { "name": "临阖", "旨意": "大同" }, "geometry": { "type": "MultiPolygon", "coordinates": [ [ [ [ 112.493851177102698, 34.663853521110134 ], [ 112.499612919935487, 34.664340033188637 ], [ 112.499880003733992, 34.662420532375947 ], [ 112.494119566640236, 34.661941075702543 ], [ 112.493851177102698, 34.663853521110134 ] ] ] ] } },
{ "type": "Feature", "properties": { "name": "福善", "旨意": "善" }, "geometry": { "type": "MultiPolygon", "coordinates": [ [ [ [ 112.481294934263914, 34.665174239697905 ], [ 112.486837265291484, 34.665607060672961 ], [ 112.487429750722782, 34.661383915519146 ], [ 112.48189981777621, 34.660923074065273 ], [ 112.481294934263914, 34.665174239697905 ] ] ] ] } },
{ "type": "Feature", "properties": { "name": "通利", "旨意": "小康" }, "geometry": { "type": "MultiPolygon", "coordinates": [ [ [ [ 112.487079692834783, 34.6680786901942 ], [ 112.492558494983541, 34.668521199611448 ], [ 112.492825713033127, 34.666643580640439 ], [ 112.487341508722594, 34.666189636163899 ], [ 112.487079692834783, 34.6680786901942 ] ] ] ] } },
{ "type": "Feature", "properties": { "name": "挥善", "旨意": "善" }, "geometry": { "type": "MultiPolygon", "coordinates": [ [ [ [ 112.474567855816304, 34.664648554193541 ], [ 112.480309566042635, 34.665097262020019 ], [ 112.480883520177699, 34.660838352175276 ], [ 112.475150131055074, 34.660360236484046 ], [ 112.474567855816304, 34.664648554193541 ] ] ] ] } },
{ "type": "Feature", "properties": { "name": "延庆", "旨意": "大同" }, "geometry": { "type": "MultiPolygon", "coordinates": [ [ [ [ 112.51092382355597, 34.670455455673412 ], [ 112.505712337238009, 34.670070679862519 ], [ 112.505466997620701, 34.67185621162519 ], [ 112.510666713284579, 34.672255931019343 ], [ 112.51092382355597, 34.670455455673412 ] ] ] ] } },
{ "type": "Feature", "properties": { "name": "静仁", "旨意": "仁" }, "geometry": { "type": "MultiPolygon", "coordinates": [ [ [ [ 112.505781951891038, 34.669564025446569 ], [ 112.510989154847607, 34.669997941924713 ], [ 112.511250619958915, 34.668166825259966 ], [ 112.506033147997002, 34.66773576884799 ], [ 112.505781951891038, 34.669564025446569 ] ] ] ] } },
{ "type": "Feature", "properties": { "name": "道术", "旨意": "道" }, "geometry": { "type": "MultiPolygon", "coordinates": [ [ [ [ 112.471526088521628, 34.664879135813507 ], [ 112.470892114255506, 34.669192571632834 ], [ 112.473389725202679, 34.669385319669409 ], [ 112.473980958806905, 34.665082688995753 ], [ 112.471526088521628, 34.664879135813507 ] ] ] ] } },
{ "type": "Feature", "properties": { "name": "惠训", "旨意": "礼" }, "geometry": { "type": "MultiPolygon", "coordinates": [ [ [ [ 112.470841199577364, 34.664822337138474 ], [ 112.468329282617916, 34.664613987864783 ], [ 112.468293849717597, 34.664907256281509 ], [ 112.467804817509005, 34.668954239350747 ], [ 112.470275874791952, 34.669145006918356 ], [ 112.470841199577364, 34.664822337138474 ] ] ] ] } },
{ "type": "Feature", "properties": { "name": "嘉献", "旨意": "礼" }, "geometry": { "type": "MultiPolygon", "coordinates": [ [ [ [ 112.505111807898899, 34.670021945487179 ], [ 112.499452837082828, 34.669562557619344 ], [ 112.499201829364452, 34.671374284148037 ], [ 112.504866875767817, 34.67181006133697 ], [ 112.505111807898899, 34.670021945487179 ] ] ] ] } },
{ "type": "Feature", "properties": { "name": "询善", "旨意": "善" }, "geometry": { "type": "MultiPolygon", "coordinates": [ [ [ [ 112.498892502311293, 34.669517055065761 ], [ 112.493122085705664, 34.669048317518971 ], [ 112.492864082041606, 34.670886443542635 ], [ 112.498640052077278, 34.671331055645155 ], [ 112.498892502311293, 34.669517055065761 ] ] ] ] } },
{ "type": "Feature", "properties": { "name": "安众", "旨意": "大同" }, "geometry": { "type": "MultiPolygon", "coordinates": [ [ [ [ 112.486430744197662, 34.668504423560719 ], [ 112.480885236032563, 34.66805338307946 ], [ 112.480616367778836, 34.669942733483857 ], [ 112.48616887468603, 34.670370720155397 ], [ 112.486430744197662, 34.668504423560719 ] ] ] ] } },
{ "type": "Feature", "properties": { "name": "慈惠", "旨意": "礼" }, "geometry": { "type": "MultiPolygon", "coordinates": [ [ [ [ 112.492490775064979, 34.668997018691392 ], [ 112.487014111396348, 34.668551856291472 ], [ 112.486755742254019, 34.670415943298671 ], [ 112.492228824038534, 34.670837526523229 ], [ 112.492490775064979, 34.668997018691392 ] ] ] ] } },
{ "type": "Feature", "properties": { "name": "延福", "旨意": "小康" }, "geometry": { "type": "MultiPolygon", "coordinates": [ [ [ [ 112.499538706103863, 34.664873373134668 ], [ 112.493771388433728, 34.664422045536945 ], [ 112.493531751714613, 34.666129514785482 ], [ 112.49930129423926, 34.666579484326306 ], [ 112.499538706103863, 34.664873373134668 ] ] ] ] } },
{ "type": "Feature", "properties": { "name": "承福", "旨意": "小康" }, "geometry": { "type": "MultiPolygon", "coordinates": [ [ [ [ 112.480171057379096, 34.676049053946521 ], [ 112.473989473910223, 34.675595652037188 ], [ 112.473497750797677, 34.679475407625524 ], [ 112.479618449685304, 34.679903674128752 ], [ 112.480171057379096, 34.676049053946521 ] ] ] ] } },
{ "type": "Feature", "properties": { "name": "玉鸡", "旨意": "小康" }, "geometry": { "type": "MultiPolygon", "coordinates": [ [ [ [ 112.480845111189467, 34.67609847430591 ], [ 112.48033112034615, 34.679953519299026 ], [ 112.486313115424366, 34.680371744276442 ], [ 112.486896961011425, 34.676542018345152 ], [ 112.480845111189467, 34.67609847430591 ] ] ] ] } },
{ "type": "Feature", "properties": { "name": "铜驼", "旨意": "小康" }, "geometry": { "type": "MultiPolygon", "coordinates": [ [ [ [ 112.487710225117297, 34.676622627597339 ], [ 112.487146883751564, 34.680420033425953 ], [ 112.49342670103151, 34.680949800546884 ], [ 112.493969310366893, 34.677071496082128 ], [ 112.487710225117297, 34.676622627597339 ] ] ] ] } }
]
}
