{
"type": "FeatureCollection",
"name": "州府",
"crs": { "type": "name", "properties": { "name": "urn:ogc:def:crs:OGC:1.3:CRS84" } },
"features": [
{ "type": "Feature", "properties": { "道": "都畿道", "州府": "河南府" }, "geometry": { "type": "MultiPolygon", "coordinates": [ [ [ [ 111.124910139000065, 34.420522863000087 ], [ 111.150771761000044, 34.428573358000051 ], [ 111.207208077000075, 34.446142028000054 ], [ 111.234596289000081, 34.457548277000058 ], [ 111.24925866600006, 34.478531704000034 ], [ 111.259494664000044, 34.502701721000051 ], [ 111.26174597000005, 34.579906557000072 ], [ 111.27748420100005, 34.609963319000087 ], [ 111.296055315000046, 34.622915465000062 ], [ 111.338233777000028, 34.633016736000059 ], [ 111.438958462000073, 34.644411566000088 ], [ 111.486173158000042, 34.671079702000043 ], [ 111.506947624000077, 34.698515619000034 ], [ 111.520482503000039, 34.747929077000038 ], [ 111.564675459000057, 34.783323023000037 ], [ 111.598116055000048, 34.809956727000042 ], [ 111.619469687000048, 34.832448057000079 ], [ 111.628333459000032, 34.848981882000089 ], [ 111.626243423000062, 34.892894051000042 ], [ 111.622151483000039, 34.91122258300004 ], [ 111.620892424000033, 34.928514770000049 ], [ 111.628132010000058, 34.942707125000084 ], [ 111.650795064000079, 34.956123094000077 ], [ 111.722876167000038, 34.982174758000042 ], [ 111.750022570000056, 35.017582863000086 ], [ 111.746856578000063, 35.038323204000051 ], [ 111.740564642000038, 35.051629419000051 ], [ 111.779500240000061, 35.062602240000047 ], [ 111.828821979000054, 35.098479746000066 ], [ 111.854030867000063, 35.169291452000039 ], [ 111.867621746000054, 35.205981726000061 ], [ 111.905106268000054, 35.227257359000077 ], [ 112.025451310000108, 35.234025709000036 ], [ 112.089766857000086, 35.23467028400006 ], [ 112.130802544000062, 35.228224301000068 ], [ 112.228656873000091, 35.19727645200004 ], [ 112.283897220000085, 35.183410570000035 ], [ 112.321776315000079, 35.191149959000086 ], [ 112.360747076000052, 35.205705273000035 ], [ 112.407313582000029, 35.202246208000076 ], [ 112.440333468000063, 35.198786995000034 ], [ 112.49022156500007, 35.227140441000074 ], [ 112.587819121000052, 35.151672029000053 ], [ 112.626242539000032, 35.081937552000056 ], [ 112.670669616000055, 35.005259073000047 ], [ 112.748717184000043, 34.97771591500009 ], [ 112.884303820000014, 34.970474461000038 ], [ 112.985885731000053, 34.98110028800005 ], [ 113.074499739000089, 34.963744058000088 ], [ 113.135448885000073, 34.961972807000052 ], [ 113.270271781000019, 34.975255443000037 ], [ 113.476391058000104, 34.983699711000042 ], [ 113.487024021000025, 34.990034221000087 ], [ 113.51235887100006, 34.943328244000043 ], [ 113.507412009000063, 34.913585914000066 ], [ 113.472783971000013, 34.901415490000034 ], [ 113.456294428000092, 34.891948357000047 ], [ 113.43485802400005, 34.858128263000083 ], [ 113.428262207000103, 34.82700149100009 ], [ 113.398581031000049, 34.813464441000065 ], [ 113.340867633000016, 34.813464441000065 ], [ 113.288101099000073, 34.812110613000073 ], [ 113.260068877000094, 34.795862950000071 ], [ 113.240281427000014, 34.779612084000064 ], [ 113.240281427000014, 34.748455643000057 ], [ 113.260068877000094, 34.691530938000085 ], [ 113.251824106000072, 34.64813343700007 ], [ 113.250175152, 34.604713209000067 ], [ 113.245228289000011, 34.580279347000044 ], [ 113.255122015000097, 34.565344005000043 ], [ 113.288101099000073, 34.549047845000075 ], [ 113.387038351, 34.553122184000074 ], [ 113.44969861200002, 34.544973307000078 ], [ 113.507412009000063, 34.530031625000049 ], [ 113.545337956000026, 34.458002309000051 ], [ 113.566774360000068, 34.421284215000071 ], [ 113.556880635000084, 34.365496263000068 ], [ 113.556880635000084, 34.335545939000042 ], [ 113.581614948000038, 34.309671141000081 ], [ 113.60470030700003, 34.282425896000063 ], [ 113.621304370000075, 34.266832444000045 ], [ 113.61867686100004, 34.256119157000057 ], [ 113.654215641000064, 34.20314998200007 ], [ 113.672798693, 34.139525279000054 ], [ 113.635559595000018, 34.063515515000063 ], [ 113.565442810000036, 34.039065081000047 ], [ 113.499508093000031, 34.016072977000078 ], [ 113.494371639000065, 34.030781456000057 ], [ 113.439137976000097, 34.053665461000037 ], [ 113.369495531000098, 34.066597166000065 ], [ 113.279440645000022, 34.084499346000086 ], [ 113.223006250000026, 34.09146028300006 ], [ 113.198991613000089, 34.105380441000079 ], [ 113.179779904000043, 34.129238240000063 ], [ 113.167772586000069, 34.184880255000053 ], [ 113.142557218000093, 34.219637891000048 ], [ 113.118542582000032, 34.250411255000074 ], [ 113.068111846000079, 34.272243593000042 ], [ 113.006874524000068, 34.292086254000083 ], [ 112.926425492000021, 34.304981472000065 ], [ 112.849578656000062, 34.304981472000065 ], [ 112.784739138000077, 34.306965176000062 ], [ 112.734308402000011, 34.327791237000042 ], [ 112.683877666000058, 34.323824767000076 ], [ 112.639450589000035, 34.322833120000041 ], [ 112.615435953000087, 34.329774403000044 ], [ 112.57341033900002, 34.338698064000084 ], [ 112.538589116000026, 34.342663832000085 ], [ 112.496563503000061, 34.323824767000076 ], [ 112.492961308000076, 34.301013924000074 ], [ 112.47374959800004, 34.282165509000038 ], [ 112.440129108000065, 34.264305217000071 ], [ 112.388497640000082, 34.230558760000065 ], [ 112.372888126000021, 34.187860042000068 ], [ 112.341669099, 34.162031721000062 ], [ 112.297242022000091, 34.139177002000054 ], [ 112.239606895000065, 34.092454656000086 ], [ 112.196380550000072, 34.055655082000044 ], [ 112.131541032000086, 33.988977347000059 ], [ 112.111128591000011, 33.952132869000081 ], [ 112.103924200000051, 33.900324468000065 ], [ 112.08231102700006, 33.859453325000061 ], [ 112.046289073000025, 33.832527495000079 ], [ 112.00546419200009, 33.80160219000004 ], [ 111.985051751000071, 33.772661946000085 ], [ 111.98144955500004, 33.72773531100006 ], [ 111.99345687400006, 33.698770122000042 ], [ 112.007865655000046, 33.667796531000079 ], [ 112.030679560000067, 33.635812090000059 ], [ 112.059002823000014, 33.609037665000074 ], [ 111.958369109000046, 33.559679927000047 ], [ 111.879463465000072, 33.574014913000042 ], [ 111.847004583000057, 33.579911799000058 ], [ 111.746205022000026, 33.632087729000034 ], [ 111.716059358000052, 33.664632643000061 ], [ 111.719985662000056, 33.695666446000075 ], [ 111.723595775000035, 33.724201054000048 ], [ 111.733838290000051, 33.827102934000038 ], [ 111.590659429000027, 33.937633493000078 ], [ 111.467182793000063, 33.955558933000077 ], [ 111.413740562000044, 33.965160294000043 ], [ 111.376129577000029, 33.966600767000045 ], [ 111.32890543700006, 33.968409416000043 ], [ 111.231403058000069, 33.975001267000039 ], [ 111.194839666000064, 33.984668393000049 ], [ 111.141584290000026, 34.020471115000078 ], [ 111.109260132000031, 34.053624586000069 ], [ 111.079850447000069, 34.110021549000066 ], [ 111.066337888000078, 34.15695377600008 ], [ 111.060176268000077, 34.191229839000073 ], [ 111.058654277000073, 34.199696423000034 ], [ 111.060605194000061, 34.278595195000037 ], [ 111.072895453000058, 34.35018801800004 ], [ 111.124910139000065, 34.420522863000087 ] ] ] ] } },
{ "type": "Feature", "properties": { "道": "都畿道", "州府": "怀州" }, "geometry": { "type": "MultiPolygon", "coordinates": [ [ [ [ 113.739566066000066, 35.194871781000074 ], [ 113.679933843000072, 35.112366846000043 ], [ 113.625827533, 35.063876813000036 ], [ 113.53307385800008, 35.017468075000068 ], [ 113.476391058000104, 34.983699711000042 ], [ 113.270271781000019, 34.975255443000037 ], [ 113.135448885000073, 34.961972807000052 ], [ 113.074499739000089, 34.963744058000088 ], [ 112.985885731000053, 34.98110028800005 ], [ 112.884303820000014, 34.970474461000038 ], [ 112.748717184000043, 34.97771591500009 ], [ 112.670669616000055, 35.005259073000047 ], [ 112.626242539000032, 35.081937552000056 ], [ 112.587819121000052, 35.151672029000053 ], [ 112.49022156500007, 35.227140441000074 ], [ 112.498753267000097, 35.231989356000042 ], [ 112.521811939000031, 35.244454999000084 ], [ 112.558866395000109, 35.264486839000085 ], [ 112.604586237000035, 35.267251981000072 ], [ 112.70168508900008, 35.247833959000047 ], [ 112.729045809000013, 35.242362308000054 ], [ 112.780692299000066, 35.242362308000054 ], [ 112.816252177000024, 35.254116717000045 ], [ 112.833875531000103, 35.269854778000081 ], [ 112.843345417000023, 35.278311604000066 ], [ 112.873825312, 35.306644996000045 ], [ 112.90938519000008, 35.327370461000044 ], [ 112.95171837800001, 35.333587065000074 ], [ 113.024531460000048, 35.329442715000084 ], [ 113.034689922000098, 35.329944995000062 ], [ 113.052471364000098, 35.330824189000055 ], [ 113.096912897000038, 35.358701949000078 ], [ 113.162537652000083, 35.399867748000077 ], [ 113.220957451, 35.428848429000084 ], [ 113.239584055000023, 35.446093886000085 ], [ 113.298003854000058, 35.441955313000051 ], [ 113.326224865000086, 35.43020281400004 ], [ 113.336103723000065, 35.426088813000035 ], [ 113.358963644000028, 35.401938143000052 ], [ 113.500356492000037, 35.340493842000058 ], [ 113.554542972000036, 35.320462562000046 ], [ 113.579038462000085, 35.322461174000068 ], [ 113.605342797000048, 35.32460737200006 ], [ 113.643442666000055, 35.32460737200006 ], [ 113.684082526, 35.313554074000081 ], [ 113.720927979000066, 35.294565403000036 ], [ 113.730218212000068, 35.24190503300008 ], [ 113.733900222000102, 35.221034078000059 ], [ 113.734814619000076, 35.202107842000089 ], [ 113.739566066000066, 35.194871781000074 ] ] ] ] } },
{ "type": "Feature", "properties": { "道": "都畿道", "州府": "郑州" }, "geometry": { "type": "MultiPolygon", "coordinates": [ [ [ [ 113.621304370000075, 34.266832444000045 ], [ 113.60470030700003, 34.282425896000063 ], [ 113.581614948000038, 34.309671141000081 ], [ 113.556880635000084, 34.335545939000042 ], [ 113.556880635000084, 34.365496263000068 ], [ 113.566774360000068, 34.421284215000071 ], [ 113.545337956000026, 34.458002309000051 ], [ 113.507412009000063, 34.530031625000049 ], [ 113.44969861200002, 34.544973307000078 ], [ 113.387038351, 34.553122184000074 ], [ 113.288101099000073, 34.549047845000075 ], [ 113.255122015000097, 34.565344005000043 ], [ 113.245228289000011, 34.580279347000044 ], [ 113.250175152, 34.604713209000067 ], [ 113.251824106000072, 34.64813343700007 ], [ 113.260068877000094, 34.691530938000085 ], [ 113.240281427000014, 34.748455643000057 ], [ 113.240281427000014, 34.779612084000064 ], [ 113.260068877000094, 34.795862950000071 ], [ 113.288101099000073, 34.812110613000073 ], [ 113.340867633000016, 34.813464441000065 ], [ 113.398581031000049, 34.813464441000065 ], [ 113.428262207000103, 34.82700149100009 ], [ 113.43485802400005, 34.858128263000083 ], [ 113.456294428000092, 34.891948357000047 ], [ 113.472783971000013, 34.901415490000034 ], [ 113.507412009000063, 34.913585914000066 ], [ 113.51235887100006, 34.943328244000043 ], [ 113.487024021000025, 34.990034221000087 ], [ 113.53307385800008, 35.017468075000068 ], [ 113.625827533, 35.063876813000036 ], [ 113.679933843000072, 35.112366846000043 ], [ 113.739566066000066, 35.194871781000074 ], [ 113.741520195000021, 35.191895804000069 ], [ 113.762551323000025, 35.193390329000067 ], [ 113.804003981000051, 35.205345538000074 ], [ 113.897063696000032, 35.230923945000086 ], [ 113.923281971000051, 35.238130304000038 ], [ 114.011287055000025, 35.239212695000049 ], [ 114.018367400000102, 35.227643379000085 ], [ 114.041939884000044, 35.189125831000069 ], [ 114.045771488000014, 35.059069091000083 ], [ 114.0017080450001, 34.922521824000057 ], [ 114.087919131000035, 34.798333461000084 ], [ 114.133898376000047, 34.655048858000043 ], [ 114.057266300000038, 34.520987454000078 ], [ 113.985710580000045, 34.409205010000051 ], [ 113.984465828, 34.407260491000045 ], [ 113.973521197000082, 34.400792202000048 ], [ 113.939015475000019, 34.380399283000088 ], [ 113.919589996000013, 34.368918804000089 ], [ 113.791171575000021, 34.354823554000063 ], [ 113.661330235000037, 34.318987456000059 ], [ 113.62771956000006, 34.292989445000046 ], [ 113.621304370000075, 34.266832444000045 ] ] ] ] } },
{ "type": "Feature", "properties": { "道": "都畿道", "州府": "汝州" }, "geometry": { "type": "MultiPolygon", "coordinates": [ [ [ [ 113.499508093000031, 34.016072977000078 ], [ 113.4957973490001, 34.014779003000058 ], [ 113.408524996000097, 33.95447471600005 ], [ 113.387655521000056, 33.906200492000039 ], [ 113.394925687000068, 33.823759203000066 ], [ 113.422924434000038, 33.783840521000059 ], [ 113.500161382000101, 33.772889579000037 ], [ 113.543106191000106, 33.766800704000048 ], [ 113.610237690000076, 33.718466508000063 ], [ 113.601232244000016, 33.647617977000039 ], [ 113.543924867000101, 33.582167533000074 ], [ 113.491529551000099, 33.533729516000051 ], [ 113.453051741000081, 33.461363077000044 ], [ 113.417907372000059, 33.437510850000081 ], [ 113.39165098, 33.419690828000057 ], [ 113.206867653000018, 33.404566249000084 ], [ 113.170884351000041, 33.401621003000059 ], [ 113.159936388, 33.400864218000038 ], [ 113.015187668000067, 33.390858370000046 ], [ 112.846142698000108, 33.387977880000051 ], [ 112.824883949000082, 33.401843369000062 ], [ 112.809343793000039, 33.411979048000035 ], [ 112.787494443000014, 33.460920867000084 ], [ 112.802025809000042, 33.526951177000058 ], [ 112.810493758, 33.565429407000067 ], [ 112.780594647000044, 33.596086833000072 ], [ 112.654109611000081, 33.604552585000079 ], [ 112.651798480000025, 33.604707271000052 ], [ 112.511502654000083, 33.598960408000039 ], [ 112.366606964000084, 33.647796536000044 ], [ 112.253910317000077, 33.663111969000056 ], [ 112.201471424000033, 33.685553718000051 ], [ 112.173412712000072, 33.697561725000071 ], [ 112.081415449000019, 33.620030368000073 ], [ 112.059002823000014, 33.609037665000074 ], [ 112.030679560000067, 33.635812090000059 ], [ 112.007865655000046, 33.667796531000079 ], [ 111.99345687400006, 33.698770122000042 ], [ 111.98144955500004, 33.72773531100006 ], [ 111.985051751000071, 33.772661946000085 ], [ 112.00546419200009, 33.80160219000004 ], [ 112.046289073000025, 33.832527495000079 ], [ 112.08231102700006, 33.859453325000061 ], [ 112.103924200000051, 33.900324468000065 ], [ 112.111128591000011, 33.952132869000081 ], [ 112.131541032000086, 33.988977347000059 ], [ 112.196380550000072, 34.055655082000044 ], [ 112.239606895000065, 34.092454656000086 ], [ 112.297242022000091, 34.139177002000054 ], [ 112.341669099, 34.162031721000062 ], [ 112.372888126000021, 34.187860042000068 ], [ 112.388497640000082, 34.230558760000065 ], [ 112.440129108000065, 34.264305217000071 ], [ 112.47374959800004, 34.282165509000038 ], [ 112.492961308000076, 34.301013924000074 ], [ 112.496563503000061, 34.323824767000076 ], [ 112.538589116000026, 34.342663832000085 ], [ 112.57341033900002, 34.338698064000084 ], [ 112.615435953000087, 34.329774403000044 ], [ 112.639450589000035, 34.322833120000041 ], [ 112.683877666000058, 34.323824767000076 ], [ 112.734308402000011, 34.327791237000042 ], [ 112.784739138000077, 34.306965176000062 ], [ 112.849578656000062, 34.304981472000065 ], [ 112.926425492000021, 34.304981472000065 ], [ 113.006874524000068, 34.292086254000083 ], [ 113.068111846000079, 34.272243593000042 ], [ 113.118542582000032, 34.250411255000074 ], [ 113.142557218000093, 34.219637891000048 ], [ 113.167772586000069, 34.184880255000053 ], [ 113.179779904000043, 34.129238240000063 ], [ 113.198991613000089, 34.105380441000079 ], [ 113.223006250000026, 34.09146028300006 ], [ 113.279440645000022, 34.084499346000086 ], [ 113.369495531000098, 34.066597166000065 ], [ 113.439137976000097, 34.053665461000037 ], [ 113.494371639000065, 34.030781456000057 ], [ 113.499508093000031, 34.016072977000078 ] ] ] ] } },
{ "type": "Feature", "properties": { "道": "都畿道", "州府": "陕州" }, "geometry": { "type": "MultiPolygon", "coordinates": [ [ [ [ 110.834353660000033, 34.553132198000071 ], [ 110.801547138000046, 34.58751350700004 ], [ 110.763171521000061, 34.595666169000083 ], [ 110.762253892000047, 34.595464736000054 ], [ 110.577483052000048, 34.554894861000037 ], [ 110.494542203000037, 34.551836208000054 ], [ 110.468545818000052, 34.570186445000047 ], [ 110.457404509000071, 34.595666169000083 ], [ 110.448739047000061, 34.646602175000055 ], [ 110.441311509000059, 34.695471320000081 ], [ 110.437597740000058, 34.720912578000082 ], [ 110.426456431000076, 34.74736318500004 ], [ 110.426456431000076, 34.766687120000086 ], [ 110.493304280000075, 34.763636273000088 ], [ 110.561390052000036, 34.766687120000086 ], [ 110.599765669000078, 34.775838984000075 ], [ 110.669863668000062, 34.785606066000071 ], [ 110.722909468000069, 34.799852874000067 ], [ 110.84550433000004, 34.832769446000043 ], [ 110.866942281000036, 34.845765348000043 ], [ 110.972815804000049, 34.90994694300008 ], [ 111.078035514000078, 34.994391526000072 ], [ 111.149278024000068, 35.032093957000086 ], [ 111.210656189000076, 35.046452216000034 ], [ 111.292859086000078, 35.043760234000047 ], [ 111.363005559000044, 35.022221191000085 ], [ 111.425479761000076, 35.015040248000048 ], [ 111.494530195000038, 35.015040248000048 ], [ 111.639207295000062, 35.04106816400008 ], [ 111.71264188300006, 35.043760234000047 ], [ 111.740564642000038, 35.051629419000051 ], [ 111.746856578000063, 35.038323204000051 ], [ 111.750022570000056, 35.017582863000086 ], [ 111.722876167000038, 34.982174758000042 ], [ 111.650795064000079, 34.956123094000077 ], [ 111.628132010000058, 34.942707125000084 ], [ 111.620892424000033, 34.928514770000049 ], [ 111.622151483000039, 34.91122258300004 ], [ 111.626243423000062, 34.892894051000042 ], [ 111.628333459000032, 34.848981882000089 ], [ 111.619469687000048, 34.832448057000079 ], [ 111.598116055000048, 34.809956727000042 ], [ 111.564675459000057, 34.783323023000037 ], [ 111.520482503000039, 34.747929077000038 ], [ 111.506947624000077, 34.698515619000034 ], [ 111.486173158000042, 34.671079702000043 ], [ 111.438958462000073, 34.644411566000088 ], [ 111.338233777000028, 34.633016736000059 ], [ 111.296055315000046, 34.622915465000062 ], [ 111.27748420100005, 34.609963319000087 ], [ 111.26174597000005, 34.579906557000072 ], [ 111.259494664000044, 34.502701721000051 ], [ 111.24925866600006, 34.478531704000034 ], [ 111.234596289000081, 34.457548277000058 ], [ 111.207208077000075, 34.446142028000054 ], [ 111.150771761000044, 34.428573358000051 ], [ 111.124910139000065, 34.420522863000087 ], [ 111.126584482000055, 34.42278692800005 ], [ 111.129171905000078, 34.463862801000062 ], [ 111.100710251000066, 34.48679248600007 ], [ 111.03990581000005, 34.519842797000081 ], [ 111.023898268000039, 34.522631252000053 ], [ 110.893069554000078, 34.545421134000037 ], [ 110.856198776000042, 34.545421134000037 ], [ 110.834353660000033, 34.553132198000071 ] ] ] ] } }
]
}
